{
"type": "FeatureCollection",
"name": "geo_27_定期巡回・随時対応型訪問介護看護",
"crs": { "type": "name", "properties": { "name": "urn:ogc:def:crs:OGC:1.3:CRS84" } },
"features": [
{ "type": "Feature", "properties": { "内容": "定巡とご飯【定期巡回・随時対応型訪問介護看護】大阪市都島区都島本通4丁目５－１９", "url": "https://www.kaigokensaku.mhlw.go.jp/27/index.php?action_kouhyou_detail_004_kani=true&JigyosyoCd=2795200282-00&ServiceCd=760&Type=search", "url2": null }, "geometry": { "type": "Point", "coordinates": [ 135.533322700000014, 34.7062585 ] } },
{ "type": "Feature", "properties": { "内容": "つむぎ定期巡回ステーション【定期巡回・随時対応型訪問介護看護】大阪府大阪市西区北堀江4丁目15-17", "url": "https://www.kaigokensaku.mhlw.go.jp/27/index.php?action_kouhyou_detail_004_kani=true&JigyosyoCd=2791800127-00&ServiceCd=760&Type=search", "url2": "http://www.hi-medic.jp/index.html" }, "geometry": { "type": "Point", "coordinates": [ 135.4831988, 34.6733071 ] } },
{ "type": "Feature", "properties": { "内容": "まるワン【定期巡回・随時対応型訪問介護看護】大阪府大阪市港区市岡2丁目13番57号まんまるはうす", "url": "https://www.kaigokensaku.mhlw.go.jp/27/index.php?action_kouhyou_detail_004_kani=true&JigyosyoCd=2790400168-00&ServiceCd=760&Type=search", "url2": null }, "geometry": { "type": "Point", "coordinates": [ 135.4590801, 34.6617507 ] } },
{ "type": "Feature", "properties": { "内容": "あんり弁天町【定期巡回・随時対応型訪問介護看護】大阪府大阪市港区市岡元町2-7-23コミュニティホームあんり弁天町", "url": "https://www.kaigokensaku.mhlw.go.jp/27/index.php?action_kouhyou_detail_004_kani=true&JigyosyoCd=2790400192-00&ServiceCd=760&Type=search", "url2": "http://anri-inc.jp" }, "geometry": { "type": "Point", "coordinates": [ 135.466876899999988, 34.6689402 ] } },
{ "type": "Feature", "properties": { "内容": "アプリシェイト定期巡回・随時対応型訪問介護看護ステーション【定期巡回・随時対応型訪問介護看護】大阪府大阪市天王寺区上汐四丁目5番16号ツチヤビル401号室", "url": "https://www.kaigokensaku.mhlw.go.jp/27/index.php?action_kouhyou_detail_004_kani=true&JigyosyoCd=2791700160-00&ServiceCd=760&Type=search", "url2": null }, "geometry": { "type": "Point", "coordinates": [ 135.515949900000038, 34.662738599999983 ] } },
{ "type": "Feature", "properties": { "内容": "ホームヘルプ＆ナーシングセンター豊泉家上町台【定期巡回・随時対応型訪問介護看護】大阪府大阪市天王寺区城南寺町2番23号養護老人ホーム上町台天森", "url": "https://www.kaigokensaku.mhlw.go.jp/27/index.php?action_kouhyou_detail_004_kani=true&JigyosyoCd=2791700152-00&ServiceCd=760&Type=search", "url2": "https://tenshin-seiwakai.com/" }, "geometry": { "type": "Point", "coordinates": [ 135.522877200000011, 34.6712376 ] } },
{ "type": "Feature", "properties": { "内容": "ホームヘルプサービスみどり24【定期巡回・随時対応型訪問介護看護】大阪府大阪市東淀川区相川二丁目１０番１０号エムあいかわ　１Ｆ", "url": "https://www.kaigokensaku.mhlw.go.jp/27/index.php?action_kouhyou_detail_004_kani=true&JigyosyoCd=2793000114-00&ServiceCd=760&Type=search", "url2": null }, "geometry": { "type": "Point", "coordinates": [ 135.535405478091008, 34.757400917254238 ] } },
{ "type": "Feature", "properties": { "内容": "ＳＯＭＰＯケア淡路駅前　定期巡回随時対応型訪問介護看護【定期巡回・随時対応型訪問介護看護】大阪府大阪市東淀川区淡路3-20-26", "url": "https://www.kaigokensaku.mhlw.go.jp/27/index.php?action_kouhyou_detail_004_kani=true&JigyosyoCd=2793000478-00&ServiceCd=760&Type=search", "url2": "https://www.sompocare.com/service/home/satsuki/H000325/" }, "geometry": { "type": "Point", "coordinates": [ 135.5137183, 34.740008 ] } },
{ "type": "Feature", "properties": { "内容": "あんり南江口【定期巡回・随時対応型訪問介護看護】大阪府大阪市東淀川区南江口1-2-87コミュニティホームあんり南江口", "url": "https://www.kaigokensaku.mhlw.go.jp/27/index.php?action_kouhyou_detail_004_kani=true&JigyosyoCd=2793000577-00&ServiceCd=760&Type=search", "url2": "http://www.anri-inc.jp/" }, "geometry": { "type": "Point", "coordinates": [ 135.544241374868761, 34.75682488753764 ] } },
{ "type": "Feature", "properties": { "内容": "訪問介護ステーションあいおい24【定期巡回・随時対応型訪問介護看護】大阪府大阪市生野区生野西三丁目6番8号あいおい生野西内", "url": "https://www.kaigokensaku.mhlw.go.jp/27/index.php?action_kouhyou_detail_004_kani=true&JigyosyoCd=2792200491-00&ServiceCd=760&Type=search", "url2": "http://www.general-jp.com/aioi/" }, "geometry": { "type": "Point", "coordinates": [ 135.52815750000002, 34.6503601 ] } },
{ "type": "Feature", "properties": { "内容": "呉診療所ヘルパーステーション【定期巡回・随時対応型訪問介護看護】大阪府大阪市生野区田島1-10-5", "url": "https://www.kaigokensaku.mhlw.go.jp/27/index.php?action_kouhyou_detail_004_kani=true&JigyosyoCd=2772200206-00&ServiceCd=760&Type=search", "url2": "https://gogroup.jp/helperstation" }, "geometry": { "type": "Point", "coordinates": [ 135.542562299999986, 34.653294200000026 ] } },
{ "type": "Feature", "properties": { "内容": "ヘルパーステーション勝山【定期巡回・随時対応型訪問介護看護】大阪府大阪市生野区勝山北5-12-381階", "url": "https://www.kaigokensaku.mhlw.go.jp/27/index.php?action_kouhyou_detail_004_kani=true&JigyosyoCd=2772202970-00&ServiceCd=760&Type=search", "url2": "https;//gogroup.jp/" }, "geometry": { "type": "Point", "coordinates": [ 135.5377384, 34.6553253 ] } },
{ "type": "Feature", "properties": { "内容": "慶生会巽東ヘルパーステーション定期巡回・随時対応型訪問介護看護【定期巡回・随時対応型訪問介護看護】大阪市生野区巽東二丁目18番1号慶生会ビル２階", "url": "https://www.kaigokensaku.mhlw.go.jp/27/index.php?action_kouhyou_detail_004_kani=true&JigyosyoCd=2792200673-00&ServiceCd=760&Type=search", "url2": "https://kyouseikai.org/" }, "geometry": { "type": "Point", "coordinates": [ 135.5537778, 34.6448331 ] } },
{ "type": "Feature", "properties": { "内容": "アプリシェイト定期巡回・随時対応型訪問介護看護ステーション第２【定期巡回・随時対応型訪問介護看護】大阪府大阪市旭区赤川一丁目5番31V-GRACEAKAGAWA１０３号室", "url": "https://www.kaigokensaku.mhlw.go.jp/27/index.php?action_kouhyou_detail_004_kani=true&JigyosyoCd=2793100351-00&ServiceCd=760&Type=search", "url2": null }, "geometry": { "type": "Point", "coordinates": [ 135.532611, 34.7229884 ] } },
{ "type": "Feature", "properties": { "内容": "定期巡回型訪問介護看護事業所森のくまさん【定期巡回・随時対応型訪問介護看護】大阪市旭区大宮1丁目20番19号", "url": "https://www.kaigokensaku.mhlw.go.jp/27/index.php?action_kouhyou_detail_004_kani=true&JigyosyoCd=2793100294-00&ServiceCd=760&Type=search", "url2": null }, "geometry": { "type": "Point", "coordinates": [ 135.547756772387288, 34.720395856127219 ] } },
{ "type": "Feature", "properties": { "内容": "定期巡回　ライフライト【定期巡回・随時対応型訪問介護看護】大阪府大阪市旭区赤川二丁目1番20号", "url": "https://www.kaigokensaku.mhlw.go.jp/27/index.php?action_kouhyou_detail_004_kani=true&JigyosyoCd=2793100302-00&ServiceCd=760&Type=search", "url2": "https://hoshino-kai.com" }, "geometry": { "type": "Point", "coordinates": [ 135.5309091, 34.7244091 ] } },
{ "type": "Feature", "properties": { "内容": "ＳＯＭＰＯケア　城東　定期巡回【定期巡回・随時対応型訪問介護看護】大阪府大阪市城東区鴫野東3-2-1", "url": "https://www.kaigokensaku.mhlw.go.jp/27/index.php?action_kouhyou_detail_004_kani=true&JigyosyoCd=2794400263-00&ServiceCd=760&Type=search", "url2": "https://www.sompocare.com/service/zaitaku/teikijunkai/Z000731" }, "geometry": { "type": "Point", "coordinates": [ 135.54627, 34.6911303 ] } },
{ "type": "Feature", "properties": { "内容": "あんり城東【定期巡回・随時対応型訪問介護看護】大阪府大阪市城東区放出西2丁目9-12", "url": "https://www.kaigokensaku.mhlw.go.jp/27/index.php?action_kouhyou_detail_004_kani=true&JigyosyoCd=2794400404-00&ServiceCd=760&Type=search", "url2": null }, "geometry": { "type": "Point", "coordinates": [ 135.556578, 34.6929121 ] } },
{ "type": "Feature", "properties": { "内容": "ＳＯＭＰＯケア　阿倍野　定期巡回【定期巡回・随時対応型訪問介護看護】大阪府大阪市阿倍野区西田辺町二丁目8番6号ＴＡＳＴＥビル　2階Ａ号室", "url": "https://www.kaigokensaku.mhlw.go.jp/27/index.php?action_kouhyou_detail_004_kani=true&JigyosyoCd=2792300168-00&ServiceCd=760&Type=search", "url2": null }, "geometry": { "type": "Point", "coordinates": [ 135.5144047, 34.6180743 ] } },
{ "type": "Feature", "properties": { "内容": "あとち倶楽部【定期巡回・随時対応型訪問介護看護】大阪府大阪市住吉区浅香２-２-５７", "url": "https://www.kaigokensaku.mhlw.go.jp/27/index.php?action_kouhyou_detail_004_kani=true&JigyosyoCd=2792000636-00&ServiceCd=760&Type=search", "url2": null }, "geometry": { "type": "Point", "coordinates": [ 135.508307800000011, 34.5899545 ] } },
{ "type": "Feature", "properties": { "内容": "医療法人　西中医学会　西中定期巡回・随時対応型訪問介護看護ステーション【定期巡回・随時対応型訪問介護看護】大阪市東住吉区公園南矢田4-19-29", "url": "https://www.kaigokensaku.mhlw.go.jp/27/index.php?action_kouhyou_detail_004_kani=true&JigyosyoCd=2790800169-00&ServiceCd=760&Type=search", "url2": "http://www.nishinaka.or.jp" }, "geometry": { "type": "Point", "coordinates": [ 135.52946636018828, 34.599955794469189 ] } },
{ "type": "Feature", "properties": { "内容": "ヴァンサンク定期巡回・随時対応型訪問介護看護ステーション【定期巡回・随時対応型訪問介護看護】大阪府大阪市東住吉区針中野4丁目12番34号", "url": "https://www.kaigokensaku.mhlw.go.jp/27/index.php?action_kouhyou_detail_004_kani=true&JigyosyoCd=2790800532-00&ServiceCd=760&Type=search", "url2": "http://kaseikai.or.jp" }, "geometry": { "type": "Point", "coordinates": [ 135.5374636, 34.6170098 ] } },
{ "type": "Feature", "properties": { "内容": "真夜中の虹在宅支援特化型訪問介護サービス【定期巡回・随時対応型訪問介護看護】大阪府大阪市西成区玉出東2-2-6マーブロイ帝塚山2階", "url": "https://www.kaigokensaku.mhlw.go.jp/27/index.php?action_kouhyou_detail_004_kani=true&JigyosyoCd=2793300464-00&ServiceCd=760&Type=search", "url2": "https://www.mone2012.co.jp/" }, "geometry": { "type": "Point", "coordinates": [ 135.495388100000014, 34.6260224 ] } },
{ "type": "Feature", "properties": { "内容": "定期巡回・随時対応型訪問介護看護ほほえみタイム【定期巡回・随時対応型訪問介護看護】大阪府大阪市西成区梅南二丁目５番１６号", "url": "https://www.kaigokensaku.mhlw.go.jp/27/index.php?action_kouhyou_detail_004_kani=true&JigyosyoCd=2793300217-00&ServiceCd=760&Type=search", "url2": "http://choshukai.jp/" }, "geometry": { "type": "Point", "coordinates": [ 135.49092626427921, 34.642297199395138 ] } },
{ "type": "Feature", "properties": { "内容": "HEROケア24【定期巡回・随時対応型訪問介護看護】大阪府大阪市西成区千本南1丁目3－2タイホウスクエア202", "url": "https://www.kaigokensaku.mhlw.go.jp/27/index.php?action_kouhyou_detail_004_kani=true&JigyosyoCd=2793300688-00&ServiceCd=760&Type=search", "url2": null }, "geometry": { "type": "Point", "coordinates": [ 135.492726299999987, 34.6320135 ] } },
{ "type": "Feature", "properties": { "内容": "ぼぬーる定期巡回サービス【定期巡回・随時対応型訪問介護看護】大阪府大阪市淀川区加島三丁目６番１７号", "url": "https://www.kaigokensaku.mhlw.go.jp/27/index.php?action_kouhyou_detail_004_kani=true&JigyosyoCd=2799100512-00&ServiceCd=760&Type=search", "url2": "https://momunuru.co.jp" }, "geometry": { "type": "Point", "coordinates": [ 135.456172108598366, 34.729528168326645 ] } },
{ "type": "Feature", "properties": { "内容": "カルチェ住吉川ヘルパーステーション（定期巡回）【定期巡回・随時対応型訪問介護看護】大阪府大阪市住之江区中加賀屋3-4-22-203プラヤ住之江", "url": "https://www.kaigokensaku.mhlw.go.jp/27/index.php?action_kouhyou_detail_004_kani=true&JigyosyoCd=2795900311-00&ServiceCd=760&Type=search", "url2": null }, "geometry": { "type": "Point", "coordinates": [ 135.481027100000034, 34.6157699 ] } },
{ "type": "Feature", "properties": { "内容": "くらしさ平野ケアサービス【定期巡回・随時対応型訪問介護看護】大阪府大阪市平野区長吉長原1-12-20", "url": "https://www.kaigokensaku.mhlw.go.jp/27/index.php?action_kouhyou_detail_004_kani=true&JigyosyoCd=2775808567-00&ServiceCd=760&Type=search", "url2": "http://www.genkinakaigo.co.jp" }, "geometry": { "type": "Point", "coordinates": [ 135.570765828836073, 34.606516363432569 ] } },
{ "type": "Feature", "properties": { "内容": "豆の木在宅ケアステーション【定期巡回・随時対応型訪問介護看護】喜連1丁目5-28アクアウェルW1F", "url": "https://www.kaigokensaku.mhlw.go.jp/27/index.php?action_kouhyou_detail_004_kani=true&JigyosyoCd=2795800834-00&ServiceCd=760&Type=search", "url2": null }, "geometry": { "type": "Point", "coordinates": [ 135.550860199999988, 34.6146482 ] } },
{ "type": "Feature", "properties": { "内容": "グッドライフケア２４大阪【定期巡回・随時対応型訪問介護看護】大阪府大阪市北区紅梅町1-6カザリーノビル6階", "url": "https://www.kaigokensaku.mhlw.go.jp/27/index.php?action_kouhyou_detail_004_kani=true&JigyosyoCd=2794100095-00&ServiceCd=760&Type=search", "url2": "https://goodlifecare.co.jp/" }, "geometry": { "type": "Point", "coordinates": [ 135.51395279999997, 34.6985709 ] } },
{ "type": "Feature", "properties": { "内容": "ＳＯＭＰＯケア　三国ヶ丘　定期巡回【定期巡回・随時対応型訪問介護看護】大阪府堺市堺区中三国ヶ丘町7-1-9", "url": "https://www.kaigokensaku.mhlw.go.jp/27/index.php?action_kouhyou_detail_004_kani=true&JigyosyoCd=2796000418-00&ServiceCd=760&Type=search", "url2": "https://www.sompocare.com/" }, "geometry": { "type": "Point", "coordinates": [ 135.4958412, 34.5732823 ] } },
{ "type": "Feature", "properties": { "内容": "定期巡回・随時対応　堺つくしの会【定期巡回・随時対応型訪問介護看護】大阪府堺市堺区翁橋町1丁9番15号", "url": "https://www.kaigokensaku.mhlw.go.jp/27/index.php?action_kouhyou_detail_004_kani=true&JigyosyoCd=2796000152-00&ServiceCd=760&Type=search", "url2": "http://www.tsukushinokai.com" }, "geometry": { "type": "Point", "coordinates": [ 135.479034400000046, 34.5729341 ] } },
{ "type": "Feature", "properties": { "内容": "定期巡回・随時対応型訪問介護・看護フィット・堺【定期巡回・随時対応型訪問介護看護】大阪府堺市東区日置荘原寺町96-6302号室", "url": "https://www.kaigokensaku.mhlw.go.jp/27/index.php?action_kouhyou_detail_004_kani=true&JigyosyoCd=2796200182-00&ServiceCd=760&Type=search", "url2": null }, "geometry": { "type": "Point", "coordinates": [ 135.5348294, 34.5376884 ] } },
{ "type": "Feature", "properties": { "内容": "堺定期巡回・随時対応ケアサポートOSJ【定期巡回・随時対応型訪問介護看護】大阪府堺市美原区平尾５９５番地１", "url": "https://www.kaigokensaku.mhlw.go.jp/27/index.php?action_kouhyou_detail_004_kani=true&JigyosyoCd=2796600027-00&ServiceCd=760&Type=search", "url2": "http://miharasou-group.net" }, "geometry": { "type": "Point", "coordinates": [ 135.569965700000012, 34.5286849 ] } },
{ "type": "Feature", "properties": { "内容": "ウエル定期巡回サービス【定期巡回・随時対応型訪問介護看護】大阪府豊中市利倉三丁目4番19号", "url": "https://www.kaigokensaku.mhlw.go.jp/27/index.php?action_kouhyou_detail_004_kani=true&JigyosyoCd=2794001053-00&ServiceCd=760&Type=search", "url2": null }, "geometry": { "type": "Point", "coordinates": [ 135.458379799999989, 34.7611175 ] } },
{ "type": "Feature", "properties": { "内容": "訪問介護ステーションあいわ【定期巡回・随時対応型訪問介護看護】大阪府豊中市寺内1丁目1番10号", "url": "https://www.kaigokensaku.mhlw.go.jp/27/index.php?action_kouhyou_detail_004_kani=true&JigyosyoCd=2794000477-00&ServiceCd=760&Type=search", "url2": "http://www.aijinkai.or.jp/aiwakai" }, "geometry": { "type": "Point", "coordinates": [ 135.491753600000038, 34.776616500000017 ] } },
{ "type": "Feature", "properties": { "内容": "アプリシェイト定期巡回・随時対応型訪問介護看護ステーション【定期巡回・随時対応型訪問介護看護】大阪府豊中市庄内宝町1丁目1番31号メゾン・ド・プラス豊中205号室", "url": "https://www.kaigokensaku.mhlw.go.jp/27/index.php?action_kouhyou_detail_004_kani=true&JigyosyoCd=2794001236-00&ServiceCd=760&Type=search", "url2": null }, "geometry": { "type": "Point", "coordinates": [ 135.4630267, 34.7483825 ] } },
{ "type": "Feature", "properties": { "内容": "ＳＯＭＰＯケア　豊中　定期巡回【定期巡回・随時対応型訪問介護看護】大阪府豊中市岡町北3-5-22", "url": "https://www.kaigokensaku.mhlw.go.jp/27/index.php?action_kouhyou_detail_004_kani=true&JigyosyoCd=2794000840-00&ServiceCd=760&Type=search", "url2": null }, "geometry": { "type": "Point", "coordinates": [ 135.46265765347286, 34.781599898454672 ] } },
{ "type": "Feature", "properties": { "内容": "巽病院定期巡回・随時対応型訪問介護看護事業所【定期巡回・随時対応型訪問介護看護】大阪府池田市天神1-5-22", "url": "https://www.kaigokensaku.mhlw.go.jp/27/index.php?action_kouhyou_detail_004_kani=true&JigyosyoCd=2792500171-00&ServiceCd=760&Type=search", "url2": "http://www.mcsyl.com/" }, "geometry": { "type": "Point", "coordinates": [ 135.442465199999987, 34.8091511 ] } },
{ "type": "Feature", "properties": { "内容": "SOMPOケア　吹田　定期巡回【定期巡回・随時対応型訪問介護看護】大阪府吹田市片山町1-3-1メロード吹田２番館７階　７０１号", "url": "https://www.kaigokensaku.mhlw.go.jp/27/index.php?action_kouhyou_detail_004_kani=true&JigyosyoCd=2791600410-00&ServiceCd=760&Type=search", "url2": "https://www.sompocare.com/" }, "geometry": { "type": "Point", "coordinates": [ 135.52291839750913, 34.76531891056554 ] } },
{ "type": "Feature", "properties": { "内容": "パナソニックエイジフリーケアセンター吹田健都・定期巡回【定期巡回・随時対応型訪問介護看護】大阪府吹田市岸部新町３番33号patona吹田健都308", "url": "https://www.kaigokensaku.mhlw.go.jp/27/index.php?action_kouhyou_detail_004_kani=true&JigyosyoCd=2791600758-00&ServiceCd=760&Type=search", "url2": "https://sumai.panasonic.jp/agefree/map/detail.php?id=415" }, "geometry": { "type": "Point", "coordinates": [ 135.535888200000016, 34.775051 ] } },
{ "type": "Feature", "properties": { "内容": "アプリシェイト定期巡回・随時対応型訪問介護看護ステーション【定期巡回・随時対応型訪問介護看護】大阪府吹田市春日3丁目16番8号レスカーラ緑地公園101号室", "url": "https://www.kaigokensaku.mhlw.go.jp/27/index.php?action_kouhyou_detail_004_kani=true&JigyosyoCd=2791600857-00&ServiceCd=760&Type=search", "url2": null }, "geometry": { "type": "Point", "coordinates": [ 135.4940619, 34.7857933 ] } },
{ "type": "Feature", "properties": { "内容": "チャームヘルパーステーション千里津雲台定期巡回【定期巡回・随時対応型訪問介護看護】大阪府吹田市津雲台5-13-34チャームスイート千里津雲台", "url": "https://www.kaigokensaku.mhlw.go.jp/27/index.php?action_kouhyou_detail_004_kani=true&JigyosyoCd=2791600766-00&ServiceCd=760&Type=search", "url2": "https://www.charmcc.jp/home/charmsuite_senritsukumodai/?utm_source=yahoo&utm_medium=cpc&utm_campaign=DAS&yclid=YSS.1001173261.EAIaIQobChMIpbOhi8LYkwMVBom5BR0teTdlEAAYAiAAEgKfEfD_BwE&sa_p=YSA&sa_cc=1001173261&sa_t=1775454144645&sa_ra=23" }, "geometry": { "type": "Point", "coordinates": [ 135.512271700000014, 34.8023239 ] } },
{ "type": "Feature", "properties": { "内容": "社会福祉法人成光苑　高槻けやきの郷　あんしんケアコールセンター24【定期巡回・随時対応型訪問介護看護】大阪府高槻市番田1丁目60番1号", "url": "https://www.kaigokensaku.mhlw.go.jp/27/index.php?action_kouhyou_detail_004_kani=true&JigyosyoCd=2790900357-00&ServiceCd=760&Type=search", "url2": "https://swc-seikouen.jp/takatsuki/" }, "geometry": { "type": "Point", "coordinates": [ 135.624676799999946, 34.8180400563514 ] } },
{ "type": "Feature", "properties": { "内容": "定期巡回・随時対応型訪問介護・看護　フィット・貝塚【定期巡回・随時対応型訪問介護看護】貝塚市加神1-8-7", "url": "https://www.kaigokensaku.mhlw.go.jp/27/index.php?action_kouhyou_detail_004_kani=true&JigyosyoCd=2791300243-00&ServiceCd=760&Type=search", "url2": null }, "geometry": { "type": "Point", "coordinates": [ 135.3556453, 34.4393737 ] } },
{ "type": "Feature", "properties": { "内容": "柏清会定期巡回・随時対応型訪問介護看護【定期巡回・随時対応型訪問介護看護】大阪府守口市南寺方東通1-13-16", "url": "https://www.kaigokensaku.mhlw.go.jp/27/index.php?action_kouhyou_detail_004_kani=true&JigyosyoCd=2793200367-00&ServiceCd=760&Type=search", "url2": null }, "geometry": { "type": "Point", "coordinates": [ 135.569629, 34.7172433 ] } },
{ "type": "Feature", "properties": { "内容": "守口居宅サービス事業所ラガール【定期巡回・随時対応型訪問介護看護】大阪府守口市大久保町３－３０－２１", "url": "https://www.kaigokensaku.mhlw.go.jp/27/index.php?action_kouhyou_detail_004_kani=true&JigyosyoCd=2793200177-00&ServiceCd=760&Type=search", "url2": "http://www.1odn.ne.jp/m-lagare" }, "geometry": { "type": "Point", "coordinates": [ 135.596355799999969, 34.7546213 ] } },
{ "type": "Feature", "properties": { "内容": "ケアライフ星丘【定期巡回・随時対応型訪問介護看護】大阪府枚方市星丘3丁目１－４６", "url": "https://www.kaigokensaku.mhlw.go.jp/27/index.php?action_kouhyou_detail_004_kani=true&JigyosyoCd=2792400299-00&ServiceCd=760&Type=search", "url2": null }, "geometry": { "type": "Point", "coordinates": [ 135.662548826319835, 34.807757135999864 ] } },
{ "type": "Feature", "properties": { "内容": "ＳＯＭＰＯケア枚方公園定期巡回【定期巡回・随時対応型訪問介護看護】大阪府枚方市出口一丁目５番２５号", "url": "https://www.kaigokensaku.mhlw.go.jp/27/index.php?action_kouhyou_detail_004_kani=true&JigyosyoCd=2792400935-00&ServiceCd=760&Type=search", "url2": "https://www.sompocare.com/" }, "geometry": { "type": "Point", "coordinates": [ 135.626874799999968, 34.804051900000019 ] } },
{ "type": "Feature", "properties": { "内容": "アイエスケアサービス【定期巡回・随時対応型訪問介護看護】大阪府枚方市津田元町１－１５－５－３１０", "url": "https://www.kaigokensaku.mhlw.go.jp/27/index.php?action_kouhyou_detail_004_kani=true&JigyosyoCd=2792400778-00&ServiceCd=760&Type=search", "url2": null }, "geometry": { "type": "Point", "coordinates": [ 135.7013993, 34.8082737 ] } },
{ "type": "Feature", "properties": { "内容": "アプリシェイト定期巡回・随時対応型訪問介護看護ステーション【定期巡回・随時対応型訪問介護看護】大阪府枚方市山田池東町２１番１号フロリア―ト枚方102号室", "url": "https://www.kaigokensaku.mhlw.go.jp/27/index.php?action_kouhyou_detail_004_kani=true&JigyosyoCd=2792401024-00&ServiceCd=760&Type=search", "url2": null }, "geometry": { "type": "Point", "coordinates": [ 135.697613600000011, 34.8253285 ] } },
{ "type": "Feature", "properties": { "内容": "定期巡回サービスうぐいすの里【定期巡回・随時対応型訪問介護看護】大阪府枚方市藤阪東町一丁目３番１０", "url": "https://www.kaigokensaku.mhlw.go.jp/27/index.php?action_kouhyou_detail_004_kani=true&JigyosyoCd=2792401073-00&ServiceCd=760&Type=search", "url2": "https://uguisunosato.or.jp" }, "geometry": { "type": "Point", "coordinates": [ 135.707807496958935, 34.820100284348648 ] } },
{ "type": "Feature", "properties": { "内容": "アクティブネットワーク24H定期巡回・随時対応サービス【定期巡回・随時対応型訪問介護看護】大阪府茨木市片桐町11番16号", "url": "https://www.kaigokensaku.mhlw.go.jp/27/index.php?action_kouhyou_detail_004_kani=true&JigyosyoCd=2794200291-00&ServiceCd=760&Type=search", "url2": "http://www.activenetwork.or.jp" }, "geometry": { "type": "Point", "coordinates": [ 135.57238469999993, 34.8217381 ] } },
{ "type": "Feature", "properties": { "内容": "ＳＯＭＰＯケア茨木　定期巡回【定期巡回・随時対応型訪問介護看護】大阪府茨木市双葉町2-27茨木シティライフビル3階", "url": "https://www.kaigokensaku.mhlw.go.jp/27/index.php?action_kouhyou_detail_004_kani=true&JigyosyoCd=2794200598-00&ServiceCd=760&Type=search", "url2": "https://www.sompocare.com/service/zaitaku/teikijunkai/Z000730" }, "geometry": { "type": "Point", "coordinates": [ 135.577139312112934, 34.817267042603177 ] } },
{ "type": "Feature", "properties": { "内容": "ＳＯＭＰＯケア新茨木定期巡回【定期巡回・随時対応型訪問介護看護】大阪府茨木市中津町4-29", "url": "https://www.kaigokensaku.mhlw.go.jp/27/index.php?action_kouhyou_detail_004_kani=true&JigyosyoCd=2794200929-00&ServiceCd=760&Type=search", "url2": "https://www.sompocare.com/service/home/satsuki/H000483" }, "geometry": { "type": "Point", "coordinates": [ 135.581221666270437, 34.817070370674003 ] } },
{ "type": "Feature", "properties": { "内容": "医療法人　徳洲会　ラフィーネ介護センター【定期巡回・随時対応型訪問介護看護】大阪府八尾市荘内町一丁目２番３５号", "url": "https://www.kaigokensaku.mhlw.go.jp/27/index.php?action_kouhyou_detail_004_kani=true&JigyosyoCd=2795500772-00&ServiceCd=760&Type=search", "url2": "https://yao-care.tokushukai.or.jp/service/regular-visit-care/" }, "geometry": { "type": "Point", "coordinates": [ 135.607520400000027, 34.62742810000001 ] } },
{ "type": "Feature", "properties": { "内容": "在宅サポートセンター中谷【定期巡回・随時対応型訪問介護看護】八尾市八尾木北３丁目１２３番地", "url": "https://www.kaigokensaku.mhlw.go.jp/27/index.php?action_kouhyou_detail_004_kani=true&JigyosyoCd=2795500210-00&ServiceCd=760&Type=search", "url2": "http://www.nakataniclinic.or.jp" }, "geometry": { "type": "Point", "coordinates": [ 135.615642799999932, 34.6151876 ] } },
{ "type": "Feature", "properties": { "内容": "地域ケアステーションもみじ【定期巡回・随時対応型訪問介護看護】大阪府八尾市恩智中町2丁目213", "url": "https://www.kaigokensaku.mhlw.go.jp/27/index.php?action_kouhyou_detail_004_kani=true&JigyosyoCd=2795500533-00&ServiceCd=760&Type=search", "url2": "https://www.kurehaplan.com/" }, "geometry": { "type": "Point", "coordinates": [ 135.629862139474483, 34.608533444594663 ] } },
{ "type": "Feature", "properties": { "内容": "エブリーケアサービス【定期巡回・随時対応型訪問介護看護】大阪府八尾市本町2-9-19ココビルディング2階", "url": "https://www.kaigokensaku.mhlw.go.jp/27/index.php?action_kouhyou_detail_004_kani=true&JigyosyoCd=2795500392-00&ServiceCd=760&Type=search", "url2": "genkinakaigo.co.jp" }, "geometry": { "type": "Point", "coordinates": [ 135.598459100000014, 34.6279297 ] } },
{ "type": "Feature", "properties": { "内容": "栄公定期巡回【定期巡回・随時対応型訪問介護看護】大阪府泉佐野市中町3丁目4番5号高齢者複合施設　栄公泉佐野", "url": "https://www.kaigokensaku.mhlw.go.jp/27/index.php?action_kouhyou_detail_004_kani=true&JigyosyoCd=2794500161-00&ServiceCd=760&Type=search", "url2": "http://www.sanokinen.jp" }, "geometry": { "type": "Point", "coordinates": [ 135.3159504, 34.4001984 ] } },
{ "type": "Feature", "properties": { "内容": "定期巡回・随時対応型訪問介護看護事業所ことほぎ【定期巡回・随時対応型訪問介護看護】大阪府富田林市寿町２－４ー３０", "url": "https://www.kaigokensaku.mhlw.go.jp/27/index.php?action_kouhyou_detail_004_kani=true&JigyosyoCd=2794900148-00&ServiceCd=760&Type=search", "url2": null }, "geometry": { "type": "Point", "coordinates": [ 135.5944519, 34.5015645 ] } },
{ "type": "Feature", "properties": { "内容": "ケアビレッジゆう定期巡回・随時対応型訪問介護看護【定期巡回・随時対応型訪問介護看護】大阪府富田林市廿山1丁目2番18号", "url": "https://www.kaigokensaku.mhlw.go.jp/27/index.php?action_kouhyou_detail_004_kani=true&JigyosyoCd=2794900114-00&ServiceCd=760&Type=search", "url2": "http://www.khaus.org" }, "geometry": { "type": "Point", "coordinates": [ 135.579181354631032, 34.49002832976938 ] } },
{ "type": "Feature", "properties": { "内容": "やすらぎの村　定期巡回ステーション富田林【定期巡回・随時対応型訪問介護看護】大阪府富田林市向陽台二丁目1番12号キタバ薬局2Ｆ", "url": "https://www.kaigokensaku.mhlw.go.jp/27/index.php?action_kouhyou_detail_004_kani=true&JigyosyoCd=2794900189-00&ServiceCd=760&Type=search", "url2": "https://www.inforlive.com/kaigo/junkai.html" }, "geometry": { "type": "Point", "coordinates": [ 135.580846203041119, 34.501040520902343 ] } },
{ "type": "Feature", "properties": { "内容": "ケア南海株式会社定期巡回・随時対応型訪問介護看護【定期巡回・随時対応型訪問介護看護】大阪府河内長野市市町928フジパレスシニア市町", "url": "https://www.kaigokensaku.mhlw.go.jp/27/index.php?action_kouhyou_detail_004_kani=true&JigyosyoCd=2790700294-00&ServiceCd=760&Type=search", "url2": "https://care-nankai.net" }, "geometry": { "type": "Point", "coordinates": [ 135.5739898, 34.4658007 ] } },
{ "type": "Feature", "properties": { "内容": "定期巡回・随時対応型訪問介護事業所あかしあ【定期巡回・随時対応型訪問介護看護】大阪府河内長野市あかしあ台2丁目6番11号", "url": "https://www.kaigokensaku.mhlw.go.jp/27/index.php?action_kouhyou_detail_004_kani=true&JigyosyoCd=2790700179-00&ServiceCd=760&Type=search", "url2": null }, "geometry": { "type": "Point", "coordinates": [ 135.553815200000031, 34.4671387 ] } },
{ "type": "Feature", "properties": { "内容": "コープスマイルホーム松原　定期巡回・随時対応型訪問介護看護【定期巡回・随時対応型訪問介護看護】大阪府松原市岡7-229-1", "url": "https://www.kaigokensaku.mhlw.go.jp/27/index.php?action_kouhyou_detail_004_kani=true&JigyosyoCd=2794800090-00&ServiceCd=760&Type=search", "url2": "http://www.izumi.coop" }, "geometry": { "type": "Point", "coordinates": [ 135.549304300000017, 34.5618099 ] } },
{ "type": "Feature", "properties": { "内容": "りんくぷらす【定期巡回・随時対応型訪問介護看護】大阪府大東市野崎3丁目２-18", "url": "https://www.kaigokensaku.mhlw.go.jp/27/index.php?action_kouhyou_detail_004_kani=true&JigyosyoCd=2791900257-00&ServiceCd=760&Type=search", "url2": "https://www.advance0207.co.jp/company/" }, "geometry": { "type": "Point", "coordinates": [ 135.6427112, 34.7150716 ] } },
{ "type": "Feature", "properties": { "内容": "慶生会住道ヘルパーステーション【定期巡回・随時対応型訪問介護看護】大阪府大東市三住町2-7シティワース201号", "url": "https://www.kaigokensaku.mhlw.go.jp/27/index.php?action_kouhyou_detail_004_kani=true&JigyosyoCd=2791900232-00&ServiceCd=760&Type=search", "url2": "http://kyouseikai.org/" }, "geometry": { "type": "Point", "coordinates": [ 135.6235476, 34.7104023 ] } },
{ "type": "Feature", "properties": { "内容": "在宅サービス　コープアイメゾン和泉一条院　定期巡回【定期巡回・随時対応型訪問介護看護】大阪府和泉市一条院町131笑顔の里　和泉一条院", "url": "https://www.kaigokensaku.mhlw.go.jp/27/index.php?action_kouhyou_detail_004_kani=true&JigyosyoCd=2790500157-00&ServiceCd=760&Type=search", "url2": "http://www.izumi.coop/" }, "geometry": { "type": "Point", "coordinates": [ 135.440974899999986, 34.4818819 ] } },
{ "type": "Feature", "properties": { "内容": "巽病院定期巡回・随時対応型訪問介護看護事業所箕面【定期巡回・随時対応型訪問介護看護】大阪府箕面市今宮３－１９－２８", "url": "https://www.kaigokensaku.mhlw.go.jp/27/index.php?action_kouhyou_detail_004_kani=true&JigyosyoCd=2791400175-00&ServiceCd=760&Type=search", "url2": "http://www.mcsyl.com/" }, "geometry": { "type": "Point", "coordinates": [ 135.499293599999987, 34.8313611 ] } },
{ "type": "Feature", "properties": { "内容": "エブリーケアサービス柏原国分【定期巡回・随時対応型訪問介護看護】大阪府柏原市大正1丁目3番33号rasisar1号室", "url": "https://www.kaigokensaku.mhlw.go.jp/27/index.php?action_kouhyou_detail_004_kani=true&JigyosyoCd=2794600243-00&ServiceCd=760&Type=search", "url2": "https://genkinakaigo.co.jp/" }, "geometry": { "type": "Point", "coordinates": [ 135.6205736, 34.586545 ] } },
{ "type": "Feature", "properties": { "内容": "エイジ・コート柏原【定期巡回・随時対応型訪問介護看護】大阪府柏原市古町3丁目3番5号エイジ・ガーデン柏原", "url": "https://www.kaigokensaku.mhlw.go.jp/27/index.php?action_kouhyou_detail_004_kani=true&JigyosyoCd=2794600151-00&ServiceCd=760&Type=search", "url2": "http://www.agecare.co.jp/index.html" }, "geometry": { "type": "Point", "coordinates": [ 135.6203406, 34.5843713 ] } },
{ "type": "Feature", "properties": { "内容": "まりひめ定期巡回・随時対応型訪問介護看護ステーション【定期巡回・随時対応型訪問介護看護】大阪府柏原市本郷三丁目7-5住宅型有料老人ホームまほろばかしわら", "url": "https://www.kaigokensaku.mhlw.go.jp/27/index.php?action_kouhyou_detail_004_kani=true&JigyosyoCd=2794600250-00&ServiceCd=760&Type=search", "url2": "https:www.//.mahoroba-kashiwara.com" }, "geometry": { "type": "Point", "coordinates": [ 135.6176351, 34.591667 ] } },
{ "type": "Feature", "properties": { "内容": "青山ケアセンター羽曳野【定期巡回・随時対応型訪問介護看護】大阪府羽曳野市伊賀4丁目6-1", "url": "https://www.kaigokensaku.mhlw.go.jp/27/index.php?action_kouhyou_detail_004_kani=true&JigyosyoCd=2793800133-00&ServiceCd=760&Type=search", "url2": "http://www.aoyama-care.jp" }, "geometry": { "type": "Point", "coordinates": [ 135.582939300000021, 34.5580954 ] } },
{ "type": "Feature", "properties": { "内容": "ＳＯＭＰＯケア門真　定期巡回【定期巡回・随時対応型訪問介護看護】大阪府門真市千石東町2番46号ウインズビル3階Ⅰ号室", "url": "https://www.kaigokensaku.mhlw.go.jp/27/index.php?action_kouhyou_detail_004_kani=true&JigyosyoCd=2792600195-00&ServiceCd=760&Type=search", "url2": "https://www.sompocare.com/" }, "geometry": { "type": "Point", "coordinates": [ 135.608649046363951, 34.726272830187746 ] } },
{ "type": "Feature", "properties": { "内容": "けいはん医療生活協同組合定期巡回・随時対応型訪問介護看護　いつでもみどり【定期巡回・随時対応型訪問介護看護】大阪府門真市上島町38-8", "url": "https://www.kaigokensaku.mhlw.go.jp/27/index.php?action_kouhyou_detail_004_kani=true&JigyosyoCd=2792600104-00&ServiceCd=760&Type=search", "url2": "http://www.keihan-healthcoop.net" }, "geometry": { "type": "Point", "coordinates": [ 135.608356491540462, 34.746600343208407 ] } },
{ "type": "Feature", "properties": { "内容": "摂津ひかり２４時間ケアセンター【定期巡回・随時対応型訪問介護看護】大阪府摂津市東別府５丁目２番４５号老健ひかり２階", "url": "https://www.kaigokensaku.mhlw.go.jp/27/index.php?action_kouhyou_detail_004_kani=true&JigyosyoCd=2793700051-00&ServiceCd=760&Type=search", "url2": "http://settsu-roken-hikari.jp" }, "geometry": { "type": "Point", "coordinates": [ 135.556317300000075, 34.7695794 ] } },
{ "type": "Feature", "properties": { "内容": "定期巡回・随時対応型訪問介護看護事業所　青山ケアセンター藤井寺【定期巡回・随時対応型訪問介護看護】大阪府藤井寺市野中2-5-14", "url": "https://www.kaigokensaku.mhlw.go.jp/27/index.php?action_kouhyou_detail_004_kani=true&JigyosyoCd=2793400074-00&ServiceCd=760&Type=search", "url2": "http://www.aoyama-care.jp" }, "geometry": { "type": "Point", "coordinates": [ 135.602950537048372, 34.560805666352913 ] } },
{ "type": "Feature", "properties": { "内容": "定期巡回サービス土屋東大阪【定期巡回・随時対応型訪問介護看護】大阪府東大阪市吉田1丁目5－30ノーマルライフ", "url": "https://www.kaigokensaku.mhlw.go.jp/27/index.php?action_kouhyou_detail_004_kani=true&JigyosyoCd=2795001524-00&ServiceCd=760&Type=search", "url2": "https://tcy.co.jp" }, "geometry": { "type": "Point", "coordinates": [ 135.6189302, 34.6644943 ] } },
{ "type": "Feature", "properties": { "内容": "介護センターねいろ【定期巡回・随時対応型訪問介護看護】大阪府東大阪市寿町3丁目14-9住宅型有料老人ホームねいろ", "url": "https://www.kaigokensaku.mhlw.go.jp/27/index.php?action_kouhyou_detail_004_kani=true&JigyosyoCd=2795001250-00&ServiceCd=760&Type=search", "url2": "https://www.colore-group.com/" }, "geometry": { "type": "Point", "coordinates": [ 135.5641378, 34.650558699999984 ] } },
{ "type": "Feature", "properties": { "内容": "すなおケアサービスセンター【定期巡回・随時対応型訪問介護看護】大阪府東大阪市永和1-22-13ABCビル301号", "url": "https://www.kaigokensaku.mhlw.go.jp/27/index.php?action_kouhyou_detail_004_kani=true&JigyosyoCd=2795001045-00&ServiceCd=760&Type=search", "url2": "https://genkinakaigo.co.jp/" }, "geometry": { "type": "Point", "coordinates": [ 135.573816599999986, 34.658882100000014 ] } },
{ "type": "Feature", "properties": { "内容": "定期巡回サービスれんげ【定期巡回・随時対応型訪問介護看護】大阪府東大阪市瓜生堂二丁目8-3", "url": "https://www.kaigokensaku.mhlw.go.jp/27/index.php?action_kouhyou_detail_004_kani=true&JigyosyoCd=2795001334-00&ServiceCd=760&Type=search", "url2": "https://furestep.com" }, "geometry": { "type": "Point", "coordinates": [ 135.6040121, 34.6598858 ] } },
{ "type": "Feature", "properties": { "内容": "定期巡回・随時対応型訪問介護事業所八戸ノ里向日葵【定期巡回・随時対応型訪問介護看護】大阪府東大阪市若江西新町3丁目1番９号", "url": "https://www.kaigokensaku.mhlw.go.jp/27/index.php?action_kouhyou_detail_004_kani=true&JigyosyoCd=2795001516-00&ServiceCd=760&Type=search", "url2": "http://www.tamami.or.jp" }, "geometry": { "type": "Point", "coordinates": [ 135.596690917196668, 34.655657985831759 ] } },
{ "type": "Feature", "properties": { "内容": "介護サービスしあわせサポート【定期巡回・随時対応型訪問介護看護】大阪府東大阪市玉串町東1-3-27", "url": "https://www.kaigokensaku.mhlw.go.jp/27/index.php?action_kouhyou_detail_004_kani=true&JigyosyoCd=2795001268-00&ServiceCd=760&Type=search", "url2": "https://caressupport.com/" }, "geometry": { "type": "Point", "coordinates": [ 135.6243543, 34.6567851 ] } },
{ "type": "Feature", "properties": { "内容": "医療法人中道会　地域ケアセンター花園【定期巡回・随時対応型訪問介護看護】大阪府東大阪市稲葉3-11-10ピアザ花園4F", "url": "https://www.kaigokensaku.mhlw.go.jp/27/index.php?action_kouhyou_detail_004_kani=true&JigyosyoCd=2795001466-00&ServiceCd=760&Type=search", "url2": null }, "geometry": { "type": "Point", "coordinates": [ 135.6167001, 34.6637612 ] } },
{ "type": "Feature", "properties": { "内容": "スーパー・コート東大阪定期巡回・随時対応型訪問介護看護事業所【定期巡回・随時対応型訪問介護看護】大阪府東大阪市友井2丁目15番34号ブランシェC101", "url": "https://www.kaigokensaku.mhlw.go.jp/27/index.php?action_kouhyou_detail_004_kani=true&JigyosyoCd=2795000443-00&ServiceCd=760&Type=search", "url2": null }, "geometry": { "type": "Point", "coordinates": [ 135.58575350000001, 34.6434558 ] } },
{ "type": "Feature", "properties": { "内容": "木漏れ日定期巡回サービス【定期巡回・随時対応型訪問介護看護】大阪府東大阪市下六万寺町３－１－１４", "url": "https://www.kaigokensaku.mhlw.go.jp/27/index.php?action_kouhyou_detail_004_kani=true&JigyosyoCd=2795001086-00&ServiceCd=760&Type=search", "url2": null }, "geometry": { "type": "Point", "coordinates": [ 135.638651415973271, 34.655143890254486 ] } },
{ "type": "Feature", "properties": { "内容": "介護センターきずな【定期巡回・随時対応型訪問介護看護】新庄南１０番７号", "url": "https://www.kaigokensaku.mhlw.go.jp/27/index.php?action_kouhyou_detail_004_kani=true&JigyosyoCd=2795001607-00&ServiceCd=760&Type=search", "url2": null }, "geometry": { "type": "Point", "coordinates": [ 135.603385300000014, 34.6889164 ] } },
{ "type": "Feature", "properties": { "内容": "介護センターあまいろ【定期巡回・随時対応型訪問介護看護】大阪府東大阪市御厨二丁目4番32号", "url": "https://www.kaigokensaku.mhlw.go.jp/27/index.php?action_kouhyou_detail_004_kani=true&JigyosyoCd=2795001615-00&ServiceCd=760&Type=search", "url2": "https://www.colore-group.com/" }, "geometry": { "type": "Point", "coordinates": [ 135.584370923006816, 34.674167704090962 ] } },
{ "type": "Feature", "properties": { "内容": "24時間定期巡回・随時対応型訪問介護看護輝【定期巡回・随時対応型訪問介護看護】大阪府東大阪市岩田町1-1-35", "url": "https://www.kaigokensaku.mhlw.go.jp/27/index.php?action_kouhyou_detail_004_kani=true&JigyosyoCd=2795000385-00&ServiceCd=760&Type=search", "url2": null }, "geometry": { "type": "Point", "coordinates": [ 135.609909, 34.664804 ] } },
{ "type": "Feature", "properties": { "内容": "大阪府済生会　定期巡回・随時対応型訪問介護看護　泉南【定期巡回・随時対応型訪問介護看護】大阪府泉南市りんくう南浜3番7", "url": "https://www.kaigokensaku.mhlw.go.jp/27/index.php?action_kouhyou_detail_004_kani=true&JigyosyoCd=2795600119-00&ServiceCd=760&Type=search", "url2": "http://www.saiseikaisennan.jp" }, "geometry": { "type": "Point", "coordinates": [ 135.264861, 34.3791986 ] } },
{ "type": "Feature", "properties": { "内容": "やすらぎの村定期巡回ステーション狭山【定期巡回・随時対応型訪問介護看護】大阪府大阪狭山市半田1-622-6キタバ薬局金剛西口店　3F", "url": "https://www.kaigokensaku.mhlw.go.jp/27/index.php?action_kouhyou_detail_004_kani=true&JigyosyoCd=2799300120-00&ServiceCd=760&Type=search", "url2": "http://www.inforlive.com" }, "geometry": { "type": "Point", "coordinates": [ 135.5590674, 34.4955715 ] } },
{ "type": "Feature", "properties": { "内容": "定期巡回訪問ステーション祥雲館【定期巡回・随時対応型訪問介護看護】大阪府豊能郡豊能町吉川187-1", "url": "https://www.kaigokensaku.mhlw.go.jp/27/index.php?action_kouhyou_detail_004_kani=true&JigyosyoCd=2794700084-00&ServiceCd=760&Type=search", "url2": "https://www.shounkan.jp" }, "geometry": { "type": "Point", "coordinates": [ 135.447151819910687, 34.911680193311767 ] } }
]
}
