{
"type": "FeatureCollection",
"name": "geo_27_短期入所療養介護（介護医療院）",
"crs": { "type": "name", "properties": { "name": "urn:ogc:def:crs:OGC:1.3:CRS84" } },
"features": [
{ "type": "Feature", "properties": { "内容": "明治橋病院　介護医療院【短期入所療養介護（介護医療院）】大阪府松原市三宅西1丁目358番地3", "url": "https://www.kaigokensaku.mhlw.go.jp/27/index.php?action_kouhyou_detail_004_kani=true&JigyosyoCd=27B4800012-00&ServiceCd=551&Type=search", "url2": "http://meijibashi.or.jp" }, "geometry": { "type": "Point", "coordinates": [ 135.5500098, 34.584646 ] } }
]
}
