{
"type": "FeatureCollection",
"name": "geo_27_看護小規模多機能型居宅介護（複合型サービス）",
"crs": { "type": "name", "properties": { "name": "urn:ogc:def:crs:OGC:1.3:CRS84" } },
"features": [
{ "type": "Feature", "properties": { "内容": "看護小規模多機能らくらく【看護小規模多機能型居宅介護（複合型サービス）】大阪府大阪市西淀川区御幣島4丁目3番22号在宅総合センターらくらく　２階", "url": "https://www.kaigokensaku.mhlw.go.jp/27/index.php?action_kouhyou_detail_004_kani=true&JigyosyoCd=2791000082-00&ServiceCd=&Type=search", "url2": "http://yodokyo-rakuraku.com/" }, "geometry": { "type": "Point", "coordinates": [ 135.453775612313422, 34.715810667957498 ] } },
{ "type": "Feature", "properties": { "内容": "ソラエ【看護小規模多機能型居宅介護（複合型サービス）】大阪府大阪市西淀川区大和田六丁目１７番２４号", "url": "https://www.kaigokensaku.mhlw.go.jp/27/index.php?action_kouhyou_detail_004_kani=true&JigyosyoCd=2791000140-00&ServiceCd=&Type=search", "url2": "https://ayumi-aozora.or.jp" }, "geometry": { "type": "Point", "coordinates": [ 135.4401868, 34.706115500000024 ] } },
{ "type": "Feature", "properties": { "内容": "ヒメル【看護小規模多機能型居宅介護（複合型サービス）】大阪府大阪市西淀川区大和田6-17-20フォルテWEST", "url": "https://www.kaigokensaku.mhlw.go.jp/27/index.php?action_kouhyou_detail_004_kani=true&JigyosyoCd=2791000264-00&ServiceCd=&Type=search", "url2": "https://ayumi-aozora.or.jp" }, "geometry": { "type": "Point", "coordinates": [ 135.439814930688442, 34.706223399883363 ] } },
{ "type": "Feature", "properties": { "内容": "医療法人菊秀会　看護小規模多機能型居宅介護さつき【看護小規模多機能型居宅介護（複合型サービス）】大阪府大阪市東淀川区小松五丁目６番２４号", "url": "https://www.kaigokensaku.mhlw.go.jp/27/index.php?action_kouhyou_detail_004_kani=true&JigyosyoCd=2793000270-00&ServiceCd=&Type=search", "url2": null }, "geometry": { "type": "Point", "coordinates": [ 135.5467936, 34.7537622 ] } },
{ "type": "Feature", "properties": { "内容": "かんたき上新庄【看護小規模多機能型居宅介護（複合型サービス）】大阪府大阪市東淀川区豊新二丁目9番8号", "url": "https://www.kaigokensaku.mhlw.go.jp/27/index.php?action_kouhyou_detail_004_kani=true&JigyosyoCd=2793000239-00&ServiceCd=&Type=search", "url2": "http://www.nursing-hc.co.jp" }, "geometry": { "type": "Point", "coordinates": [ 135.528640654177906, 34.742528637873491 ] } },
{ "type": "Feature", "properties": { "内容": "看護多機能公道会とびら【看護小規模多機能型居宅介護（複合型サービス）】大阪府大阪市東成区大今里南4-8-11", "url": "https://www.kaigokensaku.mhlw.go.jp/27/index.php?action_kouhyou_detail_004_kani=true&JigyosyoCd=2791500248-00&ServiceCd=&Type=search", "url2": null }, "geometry": { "type": "Point", "coordinates": [ 135.552377, 34.6668622 ] } },
{ "type": "Feature", "properties": { "内容": "看護小規模多機能わん【看護小規模多機能型居宅介護（複合型サービス）】大阪府大阪市生野区巽中4-1-1", "url": "https://www.kaigokensaku.mhlw.go.jp/27/index.php?action_kouhyou_detail_004_kani=true&JigyosyoCd=2792200749-00&ServiceCd=&Type=search", "url2": "https://genkinakaigo.co.jp/" }, "geometry": { "type": "Point", "coordinates": [ 135.548924122090114, 34.644944213256842 ] } },
{ "type": "Feature", "properties": { "内容": "介護施設　陽愛【看護小規模多機能型居宅介護（複合型サービス）】大阪府大阪市生野区勝山南1-15-23", "url": "https://www.kaigokensaku.mhlw.go.jp/27/index.php?action_kouhyou_detail_004_kani=true&JigyosyoCd=2792200707-00&ServiceCd=&Type=search", "url2": "http://sh-miyamoto-clinic.com/" }, "geometry": { "type": "Point", "coordinates": [ 135.5279246, 34.6528735 ] } },
{ "type": "Feature", "properties": { "内容": "かんたき　きぼうの家【看護小規模多機能型居宅介護（複合型サービス）】大阪府大阪市生野区巽北1-3-17", "url": "https://www.kaigokensaku.mhlw.go.jp/27/index.php?action_kouhyou_detail_004_kani=true&JigyosyoCd=2792200640-00&ServiceCd=&Type=search", "url2": "http://kibo-ie.com" }, "geometry": { "type": "Point", "coordinates": [ 135.543369500000011, 34.6553417 ] } },
{ "type": "Feature", "properties": { "内容": "かんたき城東【看護小規模多機能型居宅介護（複合型サービス）】大阪府大阪市城東区放出西2丁目14番14号", "url": "https://www.kaigokensaku.mhlw.go.jp/27/index.php?action_kouhyou_detail_004_kani=true&JigyosyoCd=2794400180-00&ServiceCd=&Type=search", "url2": "http://www.nursing-hc.co.jp" }, "geometry": { "type": "Point", "coordinates": [ 135.558220186647048, 34.693538837613445 ] } },
{ "type": "Feature", "properties": { "内容": "かんたき東住吉【看護小規模多機能型居宅介護（複合型サービス）】大阪府大阪市東住吉区田辺四丁目1番5号", "url": "https://www.kaigokensaku.mhlw.go.jp/27/index.php?action_kouhyou_detail_004_kani=true&JigyosyoCd=2790800540-00&ServiceCd=&Type=search", "url2": "https://nursing.nursing-hc.co.jp/fcl/kantaki-higasmy.html" }, "geometry": { "type": "Point", "coordinates": [ 135.526543, 34.6245456 ] } },
{ "type": "Feature", "properties": { "内容": "私の家なでしこ南田辺【看護小規模多機能型居宅介護（複合型サービス）】大阪府大阪市東住吉区南田辺5-7-17", "url": "https://www.kaigokensaku.mhlw.go.jp/27/index.php?action_kouhyou_detail_004_kani=true&JigyosyoCd=2790800219-00&ServiceCd=&Type=search", "url2": "http://www.745165.co.jp" }, "geometry": { "type": "Point", "coordinates": [ 135.525587, 34.61777720000002 ] } },
{ "type": "Feature", "properties": { "内容": "看護小規模多機能型居宅介護　白馬の里【看護小規模多機能型居宅介護（複合型サービス）】大阪府大阪市鶴見区安田2丁目6番27号", "url": "https://www.kaigokensaku.mhlw.go.jp/27/index.php?action_kouhyou_detail_004_kani=true&JigyosyoCd=2799200064-00&ServiceCd=&Type=search", "url2": null }, "geometry": { "type": "Point", "coordinates": [ 135.593029699999988, 34.7050659 ] } },
{ "type": "Feature", "properties": { "内容": "かんたき住之江【看護小規模多機能型居宅介護（複合型サービス）】大阪府大阪市住之江区浜口西二丁目5番4号", "url": "https://www.kaigokensaku.mhlw.go.jp/27/index.php?action_kouhyou_detail_004_kani=true&JigyosyoCd=2795900204-00&ServiceCd=&Type=search", "url2": "http://www.nursing-hc.co.jp" }, "geometry": { "type": "Point", "coordinates": [ 135.4841275, 34.6111889 ] } },
{ "type": "Feature", "properties": { "内容": "かわなべ健康倶楽部【看護小規模多機能型居宅介護（複合型サービス）】大阪市平野区長吉川辺3-7-27", "url": "https://www.kaigokensaku.mhlw.go.jp/27/index.php?action_kouhyou_detail_004_kani=true&JigyosyoCd=2795800230-00&ServiceCd=&Type=search", "url2": "https://www.ontoku.or.jp/" }, "geometry": { "type": "Point", "coordinates": [ 135.5761946, 34.5973857 ] } },
{ "type": "Feature", "properties": { "内容": "看護小規模多機能型居宅介護　あっと桜之町【看護小規模多機能型居宅介護（複合型サービス）】大阪府堺市堺区桜之町西2丁1-18", "url": "https://www.kaigokensaku.mhlw.go.jp/27/index.php?action_kouhyou_detail_004_kani=true&JigyosyoCd=2796000277-00&ServiceCd=&Type=search", "url2": "https://www.atto-kaigo.com/" }, "geometry": { "type": "Point", "coordinates": [ 135.4822902, 34.5902355 ] } },
{ "type": "Feature", "properties": { "内容": "看護小規模多機能ホーム　セレーノ【看護小規模多機能型居宅介護（複合型サービス）】大阪府堺市堺区南田出井町1丁3番12号", "url": "https://www.kaigokensaku.mhlw.go.jp/27/index.php?action_kouhyou_detail_004_kani=true&JigyosyoCd=2796000228-00&ServiceCd=&Type=search", "url2": "http://www.alsole.or.jp/" }, "geometry": { "type": "Point", "coordinates": [ 135.4863504, 34.5787977 ] } },
{ "type": "Feature", "properties": { "内容": "看多機たいよう堺東【看護小規模多機能型居宅介護（複合型サービス）】大阪府堺市堺区今池町1-1-56", "url": "https://www.kaigokensaku.mhlw.go.jp/27/index.php?action_kouhyou_detail_004_kani=true&JigyosyoCd=2796000426-00&ServiceCd=&Type=search", "url2": "https://taiyounoie.com/" }, "geometry": { "type": "Point", "coordinates": [ 135.488264535732867, 34.582032340949283 ] } },
{ "type": "Feature", "properties": { "内容": "ひまわりの里　大仙西【看護小規模多機能型居宅介護（複合型サービス）】大阪府堺市堺区大仙西町6丁177番", "url": "https://www.kaigokensaku.mhlw.go.jp/27/index.php?action_kouhyou_detail_004_kani=true&JigyosyoCd=2796000483-00&ServiceCd=&Type=search", "url2": "http://www.himawarikai-or.jp" }, "geometry": { "type": "Point", "coordinates": [ 135.473938566270448, 34.563851962312825 ] } },
{ "type": "Feature", "properties": { "内容": "看多機遊陶里【看護小規模多機能型居宅介護（複合型サービス）】大阪府堺市中区福田541-1", "url": "https://www.kaigokensaku.mhlw.go.jp/27/index.php?action_kouhyou_detail_004_kani=true&JigyosyoCd=2796100150-00&ServiceCd=&Type=search", "url2": "http://www.kousetsukai.com" }, "geometry": { "type": "Point", "coordinates": [ 135.523539600000049, 34.5207267 ] } },
{ "type": "Feature", "properties": { "内容": "看多機陶里夢【看護小規模多機能型居宅介護（複合型サービス）】大阪府堺市中区福田541-5", "url": "https://www.kaigokensaku.mhlw.go.jp/27/index.php?action_kouhyou_detail_004_kani=true&JigyosyoCd=2796100358-00&ServiceCd=&Type=search", "url2": "https;//www.kousetsukai.com/" }, "geometry": { "type": "Point", "coordinates": [ 135.5236133, 34.5206443 ] } },
{ "type": "Feature", "properties": { "内容": "パナソニックエイジフリーケアセンター泉北深井・看護小規模多機能【看護小規模多機能型居宅介護（複合型サービス）】大阪府堺市中区八田北町371-3エイジフリーハウス泉北深井", "url": "https://www.kaigokensaku.mhlw.go.jp/27/index.php?action_kouhyou_detail_004_kani=true&JigyosyoCd=2796100416-00&ServiceCd=&Type=search", "url2": null }, "geometry": { "type": "Point", "coordinates": [ 135.4864466, 34.524468399999989 ] } },
{ "type": "Feature", "properties": { "内容": "ベルシャンテハウス【看護小規模多機能型居宅介護（複合型サービス）】大阪府堺市中区深坂1丁13番67号ベルシャンテ", "url": "https://www.kaigokensaku.mhlw.go.jp/27/index.php?action_kouhyou_detail_004_kani=true&JigyosyoCd=2796100127-00&ServiceCd=&Type=search", "url2": "https://www.seichokai.or.jp/bellchanterhouse/" }, "geometry": { "type": "Point", "coordinates": [ 135.4990122985337, 34.511571744990086 ] } },
{ "type": "Feature", "properties": { "内容": "看護小規模多機能型居宅介護　ソルテイル【看護小規模多機能型居宅介護（複合型サービス）】大阪府堺市東区菩提町二丁６５番地", "url": "https://www.kaigokensaku.mhlw.go.jp/27/index.php?action_kouhyou_detail_004_kani=true&JigyosyoCd=2796200190-00&ServiceCd=&Type=search", "url2": "http://www.syofuku.or.jp" }, "geometry": { "type": "Point", "coordinates": [ 135.533732499999985, 34.5502701 ] } },
{ "type": "Feature", "properties": { "内容": "にじのさと北野田【看護小規模多機能型居宅介護（複合型サービス）】大阪府堺市東区南野田131-3", "url": "https://www.kaigokensaku.mhlw.go.jp/27/index.php?action_kouhyou_detail_004_kani=true&JigyosyoCd=2796200109-00&ServiceCd=&Type=search", "url2": "http://www.osakaminami.net/kitanoda/" }, "geometry": { "type": "Point", "coordinates": [ 135.549076099999979, 34.5208493 ] } },
{ "type": "Feature", "properties": { "内容": "ひまわりの里鳳【看護小規模多機能型居宅介護（複合型サービス）】大阪府堺市西区鳳南町４丁４７６−２", "url": "https://www.kaigokensaku.mhlw.go.jp/27/index.php?action_kouhyou_detail_004_kani=true&JigyosyoCd=2796300180-00&ServiceCd=&Type=search", "url2": "http://www.himawarikai-or.jp/service_homenursing.php" }, "geometry": { "type": "Point", "coordinates": [ 135.462076719712826, 34.527226523346798 ] } },
{ "type": "Feature", "properties": { "内容": "かんたき堺下田【看護小規模多機能型居宅介護（複合型サービス）】大阪府堺市西区下田町19番15号", "url": "https://www.kaigokensaku.mhlw.go.jp/27/index.php?action_kouhyou_detail_004_kani=true&JigyosyoCd=2796300255-00&ServiceCd=&Type=search", "url2": "http://www.nursing-hc.co.jp" }, "geometry": { "type": "Point", "coordinates": [ 135.465911526443506, 34.542596864672007 ] } },
{ "type": "Feature", "properties": { "内容": "Re:LIFEひのお【看護小規模多機能型居宅介護（複合型サービス）】大阪府堺市南区檜尾114番地4", "url": "https://www.kaigokensaku.mhlw.go.jp/27/index.php?action_kouhyou_detail_004_kani=true&JigyosyoCd=2796400246-00&ServiceCd=&Type=search", "url2": "http://www.cs-ring.co.jp" }, "geometry": { "type": "Point", "coordinates": [ 135.482426, 34.4868408 ] } },
{ "type": "Feature", "properties": { "内容": "かんたき堺高倉台【看護小規模多機能型居宅介護（複合型サービス）】大阪府堺市南区高倉台二丁8番27号", "url": "https://www.kaigokensaku.mhlw.go.jp/27/index.php?action_kouhyou_detail_004_kani=true&JigyosyoCd=2796400220-00&ServiceCd=&Type=search", "url2": "http://www.nursing-hc.co.jp/" }, "geometry": { "type": "Point", "coordinates": [ 135.520961664942917, 34.493677527198642 ] } },
{ "type": "Feature", "properties": { "内容": "ひまわりの里　蔵前【看護小規模多機能型居宅介護（複合型サービス）】大阪府堺市北区蔵前町2丁16-12", "url": "https://www.kaigokensaku.mhlw.go.jp/27/index.php?action_kouhyou_detail_004_kani=true&JigyosyoCd=2796500110-00&ServiceCd=&Type=search", "url2": "http://www.himawarikai-or.jp/" }, "geometry": { "type": "Point", "coordinates": [ 135.5153527, 34.5754348 ] } },
{ "type": "Feature", "properties": { "内容": "ビーナスウイズ【看護小規模多機能型居宅介護（複合型サービス）】大阪府堺市北区中長尾町3丁4番23", "url": "https://www.kaigokensaku.mhlw.go.jp/27/index.php?action_kouhyou_detail_004_kani=true&JigyosyoCd=2796500268-00&ServiceCd=&Type=search", "url2": "https://www.venus-comrade.co.jp/" }, "geometry": { "type": "Point", "coordinates": [ 135.5002997, 34.5743284 ] } },
{ "type": "Feature", "properties": { "内容": "かんたき堺長尾【看護小規模多機能型居宅介護（複合型サービス）】大阪府堺市北区南長尾町二丁2番19号", "url": "https://www.kaigokensaku.mhlw.go.jp/27/index.php?action_kouhyou_detail_004_kani=true&JigyosyoCd=2796500144-00&ServiceCd=&Type=search", "url2": "http://www.nursing-hc.co.jp/" }, "geometry": { "type": "Point", "coordinates": [ 135.4976689, 34.5716681 ] } },
{ "type": "Feature", "properties": { "内容": "ナーシングハウス　ゆう【看護小規模多機能型居宅介護（複合型サービス）】大阪府堺市美原区北余部390-2", "url": "https://www.kaigokensaku.mhlw.go.jp/27/index.php?action_kouhyou_detail_004_kani=true&JigyosyoCd=2796600118-00&ServiceCd=&Type=search", "url2": "https://www.yuu-houkan.co.jp" }, "geometry": { "type": "Point", "coordinates": [ 135.547888926326777, 34.538777193122506 ] } },
{ "type": "Feature", "properties": { "内容": "リニエ看多機美原【看護小規模多機能型居宅介護（複合型サービス）】大阪府堺市美原区青南台2-13-22", "url": "https://www.kaigokensaku.mhlw.go.jp/27/index.php?action_kouhyou_detail_004_kani=true&JigyosyoCd=2796600159-00&ServiceCd=&Type=search", "url2": "https://linie-group.jp" }, "geometry": { "type": "Point", "coordinates": [ 135.5683783, 34.513262 ] } },
{ "type": "Feature", "properties": { "内容": "看護小規模多機能よつば【看護小規模多機能型居宅介護（複合型サービス）】大阪府豊中市庄内栄町4-7-14看護小規模多機能よつば", "url": "https://www.kaigokensaku.mhlw.go.jp/27/index.php?action_kouhyou_detail_004_kani=true&JigyosyoCd=2794001186-00&ServiceCd=&Type=search", "url2": null }, "geometry": { "type": "Point", "coordinates": [ 135.4671988, 34.7456941 ] } },
{ "type": "Feature", "properties": { "内容": "看護小規模多機能まこと【看護小規模多機能型居宅介護（複合型サービス）】大阪府豊中市庄内栄町4丁目18番32号看護小規模多機能まこと", "url": "https://www.kaigokensaku.mhlw.go.jp/27/index.php?action_kouhyou_detail_004_kani=true&JigyosyoCd=2794000899-00&ServiceCd=&Type=search", "url2": null }, "geometry": { "type": "Point", "coordinates": [ 135.466140900000028, 34.7465169 ] } },
{ "type": "Feature", "properties": { "内容": "いけだ看多機さつきつつじ【看護小規模多機能型居宅介護（複合型サービス）】大阪府池田市古江町18番地の2", "url": "https://www.kaigokensaku.mhlw.go.jp/27/index.php?action_kouhyou_detail_004_kani=true&JigyosyoCd=2792500254-00&ServiceCd=&Type=search", "url2": "http://www.nozomi-care.jp" }, "geometry": { "type": "Point", "coordinates": [ 135.427248700000064, 34.8533961 ] } },
{ "type": "Feature", "properties": { "内容": "社会福祉法人恩賜財団済生会支部大阪府済生会看護小規模多機能型居宅介護支援事業なでしこ吹田【看護小規模多機能型居宅介護（複合型サービス）】大阪府吹田市山手町1丁目1番1号", "url": "https://www.kaigokensaku.mhlw.go.jp/27/index.php?action_kouhyou_detail_004_kani=true&JigyosyoCd=2791600568-00&ServiceCd=&Type=search", "url2": "hhtp://www.suita.saiseikai.or.jp/" }, "geometry": { "type": "Point", "coordinates": [ 135.514612657230884, 34.766753839065963 ] } },
{ "type": "Feature", "properties": { "内容": "看護小規模多機能型居宅介護　メルヴェイユ吹田【看護小規模多機能型居宅介護（複合型サービス）】大阪府吹田市岸部南1-4-24", "url": "https://www.kaigokensaku.mhlw.go.jp/27/index.php?action_kouhyou_detail_004_kani=true&JigyosyoCd=2791600618-00&ServiceCd=&Type=search", "url2": "http://www.aoyama-med.gr.jp/ontoku-welfare/" }, "geometry": { "type": "Point", "coordinates": [ 135.5444096, 34.7762608 ] } },
{ "type": "Feature", "properties": { "内容": "社会福祉法人きらら美桜紅葉舎【看護小規模多機能型居宅介護（複合型サービス）】大阪府高槻市大字原3142番1", "url": "https://www.kaigokensaku.mhlw.go.jp/27/index.php?action_kouhyou_detail_004_kani=true&JigyosyoCd=2790900654-00&ServiceCd=&Type=search", "url2": "http://kirara-npo.com/" }, "geometry": { "type": "Point", "coordinates": [ 135.595987799999989, 34.9010808 ] } },
{ "type": "Feature", "properties": { "内容": "看護付小規模多機能ホーム　上牧の郷【看護小規模多機能型居宅介護（複合型サービス）】大阪府高槻市東上牧2丁目３７番８号", "url": "https://www.kaigokensaku.mhlw.go.jp/27/index.php?action_kouhyou_detail_004_kani=true&JigyosyoCd=2790900399-00&ServiceCd=&Type=search", "url2": "http://www.shinshokai.or.jp" }, "geometry": { "type": "Point", "coordinates": [ 135.663639699999976, 34.8645156 ] } },
{ "type": "Feature", "properties": { "内容": "守口金田看護小規模多機能施設ラガール【看護小規模多機能型居宅介護（複合型サービス）】大阪府守口市金田町4丁目5番16号守口金田ケアセンターラガール", "url": "https://www.kaigokensaku.mhlw.go.jp/27/index.php?action_kouhyou_detail_004_kani=true&JigyosyoCd=2793200235-00&ServiceCd=&Type=search", "url2": "http://www.koudoukai.or.jp/mk-cc/" }, "geometry": { "type": "Point", "coordinates": [ 135.5922726, 34.7601594 ] } },
{ "type": "Feature", "properties": { "内容": "看護小規模多機能ホームながお【看護小規模多機能型居宅介護（複合型サービス）】大阪府枚方市長尾荒阪1-2804-14", "url": "https://www.kaigokensaku.mhlw.go.jp/27/index.php?action_kouhyou_detail_004_kani=true&JigyosyoCd=2792400760-00&ServiceCd=&Type=search", "url2": "https://syoujukai.org" }, "geometry": { "type": "Point", "coordinates": [ 135.713812338092595, 34.828683193423629 ] } },
{ "type": "Feature", "properties": { "内容": "ほほえみの郷車作【看護小規模多機能型居宅介護（複合型サービス）】大阪府茨木市車作３２３番地１号", "url": "https://www.kaigokensaku.mhlw.go.jp/27/index.php?action_kouhyou_detail_004_kani=true&JigyosyoCd=2794200259-00&ServiceCd=&Type=search", "url2": null }, "geometry": { "type": "Point", "coordinates": [ 135.532896199999982, 34.832777599999943 ] } },
{ "type": "Feature", "properties": { "内容": "アクティブネットワーク看護小規模多機能　笑みの家【看護小規模多機能型居宅介護（複合型サービス）】大阪府茨木市片桐町１１番１６号", "url": "https://www.kaigokensaku.mhlw.go.jp/27/index.php?action_kouhyou_detail_004_kani=true&JigyosyoCd=2794200283-00&ServiceCd=&Type=search", "url2": "http://www.activenetwork.or.jp" }, "geometry": { "type": "Point", "coordinates": [ 135.57238469999993, 34.8217381 ] } },
{ "type": "Feature", "properties": { "内容": "医療法人幸晴会　看護小規模多機能ホーム中谷【看護小規模多機能型居宅介護（複合型サービス）】大阪府八尾市桜ケ丘２－１２１－６", "url": "https://www.kaigokensaku.mhlw.go.jp/27/index.php?action_kouhyou_detail_004_kani=true&JigyosyoCd=2795500269-00&ServiceCd=&Type=search", "url2": "http://www.nakataniclinic.or.jp" }, "geometry": { "type": "Point", "coordinates": [ 135.610907099999963, 34.6285858 ] } },
{ "type": "Feature", "properties": { "内容": "ナーシングホームこもれび【看護小規模多機能型居宅介護（複合型サービス）】大阪府八尾市南本町四丁目1-11", "url": "https://www.kaigokensaku.mhlw.go.jp/27/index.php?action_kouhyou_detail_004_kani=true&JigyosyoCd=2795500574-00&ServiceCd=&Type=search", "url2": "http://www.matsumoto-cli.com/" }, "geometry": { "type": "Point", "coordinates": [ 135.6055519, 34.6217009 ] } },
{ "type": "Feature", "properties": { "内容": "看護多機能エスプリ【看護小規模多機能型居宅介護（複合型サービス）】大阪府八尾市教興寺2丁目40番", "url": "https://www.kaigokensaku.mhlw.go.jp/27/index.php?action_kouhyou_detail_004_kani=true&JigyosyoCd=2795500665-00&ServiceCd=&Type=search", "url2": "http://espri-kaigo.com" }, "geometry": { "type": "Point", "coordinates": [ 135.632609655802383, 34.619664037551281 ] } },
{ "type": "Feature", "properties": { "内容": "看護小規模多機能型居宅介護桃李【看護小規模多機能型居宅介護（複合型サービス）】大阪府八尾市山本町南五丁目3-4", "url": "https://www.kaigokensaku.mhlw.go.jp/27/index.php?action_kouhyou_detail_004_kani=true&JigyosyoCd=2795500673-00&ServiceCd=&Type=search", "url2": "https://touri-houmonkango.com" }, "geometry": { "type": "Point", "coordinates": [ 135.621979547477082, 34.62361236912362 ] } },
{ "type": "Feature", "properties": { "内容": "かんたき八尾北本町【看護小規模多機能型居宅介護（複合型サービス）】大阪府八尾市北本町四丁目７番１４号", "url": "https://www.kaigokensaku.mhlw.go.jp/27/index.php?action_kouhyou_detail_004_kani=true&JigyosyoCd=2795500285-00&ServiceCd=&Type=search", "url2": "http://www.nursing-hc.co.jp" }, "geometry": { "type": "Point", "coordinates": [ 135.601705473038123, 34.636570608839115 ] } },
{ "type": "Feature", "properties": { "内容": "小規模多機能ホーム　あぷり【看護小規模多機能型居宅介護（複合型サービス）】大阪府八尾市太田７丁目５５－６", "url": "https://www.kaigokensaku.mhlw.go.jp/27/index.php?action_kouhyou_detail_004_kani=true&JigyosyoCd=2795500277-00&ServiceCd=&Type=search", "url2": "http:/www.apri-kaigo.com" }, "geometry": { "type": "Point", "coordinates": [ 135.5990981, 34.589162 ] } },
{ "type": "Feature", "properties": { "内容": "看護小規模多機能型居宅介護　ピースマインド【看護小規模多機能型居宅介護（複合型サービス）】大阪府八尾市本町１－１－１９YHSビル３F", "url": "https://www.kaigokensaku.mhlw.go.jp/27/index.php?action_kouhyou_detail_004_kani=true&JigyosyoCd=2795500509-00&ServiceCd=&Type=search", "url2": "https://peacemind-yao.com/" }, "geometry": { "type": "Point", "coordinates": [ 135.600773099999969, 34.627316 ] } },
{ "type": "Feature", "properties": { "内容": "看護小規模多機能ホーム　福老【看護小規模多機能型居宅介護（複合型サービス）】大阪府八尾市東山本町6-9-16福田ビル1F", "url": "https://www.kaigokensaku.mhlw.go.jp/27/index.php?action_kouhyou_detail_004_kani=true&JigyosyoCd=2795500855-00&ServiceCd=&Type=search", "url2": "http://www.ureshiyatanoshiya.com/" }, "geometry": { "type": "Point", "coordinates": [ 135.6283613, 34.6282071 ] } },
{ "type": "Feature", "properties": { "内容": "あすか八尾看護多機能【看護小規模多機能型居宅介護（複合型サービス）】大阪府八尾市南太子堂4-1-14サンライズ東宝マンション１階", "url": "https://www.kaigokensaku.mhlw.go.jp/27/index.php?action_kouhyou_detail_004_kani=true&JigyosyoCd=2795500756-00&ServiceCd=&Type=search", "url2": "http://www.tomojyu.or.jp" }, "geometry": { "type": "Point", "coordinates": [ 135.5861375, 34.6119854 ] } },
{ "type": "Feature", "properties": { "内容": "看護小規模多機能型居宅介護　和が家【看護小規模多機能型居宅介護（複合型サービス）】大阪府富田林市山中田町2-8-5", "url": "https://www.kaigokensaku.mhlw.go.jp/27/index.php?action_kouhyou_detail_004_kani=true&JigyosyoCd=2794900122-00&ServiceCd=&Type=search", "url2": "http://www.imajo.org/" }, "geometry": { "type": "Point", "coordinates": [ 135.612162740475469, 34.496681714670864 ] } },
{ "type": "Feature", "properties": { "内容": "看護小規模多機能型居宅介護ぽぷら【看護小規模多機能型居宅介護（複合型サービス）】大阪府寝屋川市成田町10-45ぽぷらナーシングホームなりた", "url": "https://www.kaigokensaku.mhlw.go.jp/27/index.php?action_kouhyou_detail_004_kani=true&JigyosyoCd=2790300533-00&ServiceCd=&Type=search", "url2": "http://www.popura.jp" }, "geometry": { "type": "Point", "coordinates": [ 135.639885842852777, 34.77886440361759 ] } },
{ "type": "Feature", "properties": { "内容": "リニエ看多機河内長野【看護小規模多機能型居宅介護（複合型サービス）】大阪府河内長野市上原西町25-1", "url": "https://www.kaigokensaku.mhlw.go.jp/27/index.php?action_kouhyou_detail_004_kani=true&JigyosyoCd=2790700237-00&ServiceCd=&Type=search", "url2": "https://linie-group.jp/" }, "geometry": { "type": "Point", "coordinates": [ 135.5498527, 34.4431373 ] } },
{ "type": "Feature", "properties": { "内容": "かんたき河内長野【看護小規模多機能型居宅介護（複合型サービス）】大阪府河内長野市汐の宮町１２番２号", "url": "https://www.kaigokensaku.mhlw.go.jp/27/index.php?action_kouhyou_detail_004_kani=true&JigyosyoCd=2790700195-00&ServiceCd=&Type=search", "url2": "http://www.nursing-hc.co.jp/" }, "geometry": { "type": "Point", "coordinates": [ 135.580315599999949, 34.4672727 ] } },
{ "type": "Feature", "properties": { "内容": "コープスマイルホーム松原看護小規模多機能【看護小規模多機能型居宅介護（複合型サービス）】大阪府松原市岡7丁目229-1", "url": "https://www.kaigokensaku.mhlw.go.jp/27/index.php?action_kouhyou_detail_004_kani=true&JigyosyoCd=2794800058-00&ServiceCd=&Type=search", "url2": "http://www.izumi.coop/" }, "geometry": { "type": "Point", "coordinates": [ 135.549685173680103, 34.561536003575888 ] } },
{ "type": "Feature", "properties": { "内容": "かんたき大東【看護小規模多機能型居宅介護（複合型サービス）】大阪府大東市新田本町４番２６号かんたき大東", "url": "https://www.kaigokensaku.mhlw.go.jp/27/index.php?action_kouhyou_detail_004_kani=true&JigyosyoCd=2791900166-00&ServiceCd=&Type=search", "url2": "http://www.nursing-hc.co.jp" }, "geometry": { "type": "Point", "coordinates": [ 135.60353120000002, 34.7071351 ] } },
{ "type": "Feature", "properties": { "内容": "サンガーデンハウス【看護小規模多機能型居宅介護（複合型サービス）】大阪府和泉市山荘町2丁目1番11号", "url": "https://www.kaigokensaku.mhlw.go.jp/27/index.php?action_kouhyou_detail_004_kani=true&JigyosyoCd=2790500231-00&ServiceCd=&Type=search", "url2": "https://yujinkai.com/sungardenhouse/" }, "geometry": { "type": "Point", "coordinates": [ 135.449541667775719, 34.488021663063677 ] } },
{ "type": "Feature", "properties": { "内容": "看護小規模多機能型居宅介護セレッソ【看護小規模多機能型居宅介護（複合型サービス）】大阪府羽曳野市誉田2-4-5", "url": "https://www.kaigokensaku.mhlw.go.jp/27/index.php?action_kouhyou_detail_004_kani=true&JigyosyoCd=2793800166-00&ServiceCd=&Type=search", "url2": "http://www.cerezo-kango.jp/" }, "geometry": { "type": "Point", "coordinates": [ 135.611814, 34.557065700000024 ] } },
{ "type": "Feature", "properties": { "内容": "青山Ｎursingcare羽曳野【看護小規模多機能型居宅介護（複合型サービス）】大阪府羽曳野市伊賀四丁目7-3", "url": "https://www.kaigokensaku.mhlw.go.jp/27/index.php?action_kouhyou_detail_004_kani=true&JigyosyoCd=2793800158-00&ServiceCd=&Type=search", "url2": "https://www.aoyama-care.jp/" }, "geometry": { "type": "Point", "coordinates": [ 135.582619900000026, 34.5574733 ] } },
{ "type": "Feature", "properties": { "内容": "看護小規模多機能型居宅介護　そらまめ【看護小規模多機能型居宅介護（複合型サービス）】大阪府摂津市千里丘２丁目４番２０号", "url": "https://www.kaigokensaku.mhlw.go.jp/27/index.php?action_kouhyou_detail_004_kani=true&JigyosyoCd=2793700127-00&ServiceCd=&Type=search", "url2": "https://www.kantaki-soramame.com/" }, "geometry": { "type": "Point", "coordinates": [ 135.5490041, 34.7897206 ] } },
{ "type": "Feature", "properties": { "内容": "看護小規模多機能型居宅介護　まごのて【看護小規模多機能型居宅介護（複合型サービス）】大阪府藤井寺市北岡2丁目13番6号", "url": "https://www.kaigokensaku.mhlw.go.jp/27/index.php?action_kouhyou_detail_004_kani=true&JigyosyoCd=2793400140-00&ServiceCd=&Type=search", "url2": "http://www.sai.or.jp/magonote/" }, "geometry": { "type": "Point", "coordinates": [ 135.590933100000029, 34.5747114 ] } },
{ "type": "Feature", "properties": { "内容": "青山NursingCare藤井寺【看護小規模多機能型居宅介護（複合型サービス）】大阪府藤井寺市野中1-44-11", "url": "https://www.kaigokensaku.mhlw.go.jp/27/index.php?action_kouhyou_detail_004_kani=true&JigyosyoCd=2793400132-00&ServiceCd=&Type=search", "url2": "http://www.aoyama-care.jp" }, "geometry": { "type": "Point", "coordinates": [ 135.603151, 34.5612899 ] } },
{ "type": "Feature", "properties": { "内容": "看護小規模多機能型居宅介護やまどり【看護小規模多機能型居宅介護（複合型サービス）】大阪府藤井寺市西古室２丁目１番８号", "url": "https://www.kaigokensaku.mhlw.go.jp/27/index.php?action_kouhyou_detail_004_kani=true&JigyosyoCd=2793400173-00&ServiceCd=&Type=search", "url2": "https://yamadori-kantaki.com/" }, "geometry": { "type": "Point", "coordinates": [ 135.60290649999996, 34.5680211 ] } },
{ "type": "Feature", "properties": { "内容": "看護小規模多機能ケアホームみのり【看護小規模多機能型居宅介護（複合型サービス）】大阪府東大阪市横沼町1-14-5中西ビル1F", "url": "https://www.kaigokensaku.mhlw.go.jp/27/index.php?action_kouhyou_detail_004_kani=true&JigyosyoCd=2795001326-00&ServiceCd=&Type=search", "url2": "http://www.hi-medic.jp/index.html" }, "geometry": { "type": "Point", "coordinates": [ 135.576860399999987, 34.6519402 ] } },
{ "type": "Feature", "properties": { "内容": "リハビリ看護多機能施設フィットケア【看護小規模多機能型居宅介護（複合型サービス）】大阪府東大阪市旭町20-28", "url": "https://www.kaigokensaku.mhlw.go.jp/27/index.php?action_kouhyou_detail_004_kani=true&JigyosyoCd=2795000930-00&ServiceCd=&Type=search", "url2": "http://aiju-fitcare.com" }, "geometry": { "type": "Point", "coordinates": [ 135.639055900000017, 34.6675366 ] } },
{ "type": "Feature", "properties": { "内容": "医療法人藤井会　看護多機能施設さくら【看護小規模多機能型居宅介護（複合型サービス）】大阪府東大阪市弥生町20-20", "url": "https://www.kaigokensaku.mhlw.go.jp/27/index.php?action_kouhyou_detail_004_kani=true&JigyosyoCd=2795000872-00&ServiceCd=&Type=search", "url2": "http://www.kantaki.fujiikai.jp/" }, "geometry": { "type": "Point", "coordinates": [ 135.633959299999987, 34.6791999 ] } },
{ "type": "Feature", "properties": { "内容": "看護小規模多機能凜すえひろ【看護小規模多機能型居宅介護（複合型サービス）】大阪府東大阪市末広町24番19号", "url": "https://www.kaigokensaku.mhlw.go.jp/27/index.php?action_kouhyou_detail_004_kani=true&JigyosyoCd=2795001003-00&ServiceCd=&Type=search", "url2": "http://trust-kk2017.com" }, "geometry": { "type": "Point", "coordinates": [ 135.635124200000064, 34.6569727 ] } },
{ "type": "Feature", "properties": { "内容": "看護小規模多機能の家　ふくはち【看護小規模多機能型居宅介護（複合型サービス）】大阪府泉南市信達大苗代765", "url": "https://www.kaigokensaku.mhlw.go.jp/27/index.php?action_kouhyou_detail_004_kani=true&JigyosyoCd=2795600200-00&ServiceCd=&Type=search", "url2": "https://huku-8.net/" }, "geometry": { "type": "Point", "coordinates": [ 135.282936299999989, 34.3729641 ] } },
{ "type": "Feature", "properties": { "内容": "ケアタウン交野【看護小規模多機能型居宅介護（複合型サービス）】大阪府交野市郡津3丁目11番10号", "url": "https://www.kaigokensaku.mhlw.go.jp/27/index.php?action_kouhyou_detail_004_kani=true&JigyosyoCd=2793600079-00&ServiceCd=&Type=search", "url2": "http://www.care-life.jp" }, "geometry": { "type": "Point", "coordinates": [ 135.671773499999972, 34.7943622 ] } },
{ "type": "Feature", "properties": { "内容": "看護小規模多機能ホームふぁみりぃ交野【看護小規模多機能型居宅介護（複合型サービス）】大阪府交野市私市九丁目1番10号", "url": "https://www.kaigokensaku.mhlw.go.jp/27/index.php?action_kouhyou_detail_004_kani=true&JigyosyoCd=2793600129-00&ServiceCd=&Type=search", "url2": "http://www.tots.jp/" }, "geometry": { "type": "Point", "coordinates": [ 135.685789638553587, 34.765051992904361 ] } },
{ "type": "Feature", "properties": { "内容": "ファミリア看護小規模多機能型居宅介護【看護小規模多機能型居宅介護（複合型サービス）】大阪府大阪狭山市大野西566番地の1", "url": "https://www.kaigokensaku.mhlw.go.jp/27/index.php?action_kouhyou_detail_004_kani=true&JigyosyoCd=2799300245-00&ServiceCd=&Type=search", "url2": "https://kyoyukai.org" }, "geometry": { "type": "Point", "coordinates": [ 135.541853, 34.471155 ] } },
{ "type": "Feature", "properties": { "内容": "看護小規模多機能型ホームひらり【看護小規模多機能型居宅介護（複合型サービス）】大阪府泉南郡岬町多奈川谷川1847番地の40", "url": "https://www.kaigokensaku.mhlw.go.jp/27/index.php?action_kouhyou_detail_004_kani=true&JigyosyoCd=2791200138-00&ServiceCd=&Type=search", "url2": null }, "geometry": { "type": "Point", "coordinates": [ 135.123133184026727, 34.313458088817917 ] } },
{ "type": "Feature", "properties": { "内容": "看護小規模多機能型ホームさざ波【看護小規模多機能型居宅介護（複合型サービス）】大阪府泉南郡岬町多奈川谷川１８４７番地の４０", "url": "https://www.kaigokensaku.mhlw.go.jp/27/index.php?action_kouhyou_detail_004_kani=true&JigyosyoCd=2791200161-00&ServiceCd=&Type=search", "url2": null }, "geometry": { "type": "Point", "coordinates": [ 135.1232647, 34.3136469 ] } }
]
}
