{
"type": "FeatureCollection",
"name": "geo_27_認知症対応型通所介護",
"crs": { "type": "name", "properties": { "name": "urn:ogc:def:crs:OGC:1.3:CRS84" } },
"features": [
{ "type": "Feature", "properties": { "内容": "デイサービスセンターたのしいデイ都島【認知症対応型通所介護】大阪府大阪市都島区御幸町一丁目6-5", "url": "https://www.kaigokensaku.mhlw.go.jp/27/index.php?action_kouhyou_detail_004_kani=true&JigyosyoCd=2795200241-00&ServiceCd=720&Type=search", "url2": null }, "geometry": { "type": "Point", "coordinates": [ 135.533866, 34.71361390000002 ] } },
{ "type": "Feature", "properties": { "内容": "生活リハビリ館【認知症対応型通所介護】大阪府大阪市都島区高倉町3-2-31生活リハビリ館", "url": "https://www.kaigokensaku.mhlw.go.jp/27/index.php?action_kouhyou_detail_004_kani=true&JigyosyoCd=2775200963-00&ServiceCd=720&Type=search", "url2": "http://www.rihabirikan.net" }, "geometry": { "type": "Point", "coordinates": [ 135.531922300000019, 34.717770200000011 ] } },
{ "type": "Feature", "properties": { "内容": "ななとこ庵【認知症対応型通所介護】大阪市福島区野田二丁目９番６号", "url": "https://www.kaigokensaku.mhlw.go.jp/27/index.php?action_kouhyou_detail_004_kani=true&JigyosyoCd=2790200030-00&ServiceCd=720&Type=search", "url2": "http://npo-itsuki.com" }, "geometry": { "type": "Point", "coordinates": [ 135.477422155819653, 34.686712308361017 ] } },
{ "type": "Feature", "properties": { "内容": "だいち庵【認知症対応型通所介護】大阪府大阪市福島区鷺洲4丁目5番12号", "url": "https://www.kaigokensaku.mhlw.go.jp/27/index.php?action_kouhyou_detail_004_kani=true&JigyosyoCd=2790200147-00&ServiceCd=720&Type=search", "url2": "http://npo-itsuki.com" }, "geometry": { "type": "Point", "coordinates": [ 135.480242556049433, 34.699809630708863 ] } },
{ "type": "Feature", "properties": { "内容": "デイサロンリレア別邸【認知症対応型通所介護】大阪府大阪市福島区野田2－16－1－2階", "url": "https://www.kaigokensaku.mhlw.go.jp/27/index.php?action_kouhyou_detail_004_kani=true&JigyosyoCd=2790200253-00&ServiceCd=720&Type=search", "url2": null }, "geometry": { "type": "Point", "coordinates": [ 135.4758866, 34.6851461 ] } },
{ "type": "Feature", "properties": { "内容": "ケアヴィレッジ九条通所介護事業所ナイスデイ九条【認知症対応型通所介護】大阪府大阪市西区九条1丁目２１－２４2F/6F", "url": "https://www.kaigokensaku.mhlw.go.jp/27/index.php?action_kouhyou_detail_004_kani=true&JigyosyoCd=2771801004-00&ServiceCd=720&Type=search", "url2": "http://nisshinnkai.jp/htm/kujo/kujo/_033.htm" }, "geometry": { "type": "Point", "coordinates": [ 135.474873699999989, 34.6745838 ] } },
{ "type": "Feature", "properties": { "内容": "コスモスのかぜ九条南【認知症対応型通所介護】大阪府大阪市西区九条南２－２１－２エステート幸福103", "url": "https://www.kaigokensaku.mhlw.go.jp/27/index.php?action_kouhyou_detail_004_kani=true&JigyosyoCd=2791800077-00&ServiceCd=720&Type=search", "url2": "http://tane.or.jp/dayservice/kujyouminami.html" }, "geometry": { "type": "Point", "coordinates": [ 135.471974, 34.6725201 ] } },
{ "type": "Feature", "properties": { "内容": "デイサービス医療生協ながほり通り【認知症対応型通所介護】大阪市西区新町4-10-10レジデンスナンワ", "url": "https://www.kaigokensaku.mhlw.go.jp/27/index.php?action_kouhyou_detail_004_kani=true&JigyosyoCd=2791800010-00&ServiceCd=720&Type=search", "url2": "http://nagahori.main.jp" }, "geometry": { "type": "Point", "coordinates": [ 135.485381, 34.6762311 ] } },
{ "type": "Feature", "properties": { "内容": "第２みなとデイサービスセンター【認知症対応型通所介護】大阪府大阪市港区八幡屋４丁目８番１号", "url": "https://www.kaigokensaku.mhlw.go.jp/27/index.php?action_kouhyou_detail_004_kani=true&JigyosyoCd=2770400170-00&ServiceCd=720&Type=search", "url2": "https://dai2aikoen.jp" }, "geometry": { "type": "Point", "coordinates": [ 135.447044487719154, 34.651429681956245 ] } },
{ "type": "Feature", "properties": { "内容": "サンちゃんの家【認知症対応型通所介護】大阪府大阪市大正区千島2-4-3-131", "url": "https://www.kaigokensaku.mhlw.go.jp/27/index.php?action_kouhyou_detail_004_kani=true&JigyosyoCd=2792700037-00&ServiceCd=720&Type=search", "url2": "http://santel.jp" }, "geometry": { "type": "Point", "coordinates": [ 135.473646700000018, 34.6517504 ] } },
{ "type": "Feature", "properties": { "内容": "えがおデイサービス【認知症対応型通所介護】大阪府大阪市天王寺区生玉前町4番12号ハーモニーヒルズ1階", "url": "https://www.kaigokensaku.mhlw.go.jp/27/index.php?action_kouhyou_detail_004_kani=true&JigyosyoCd=2791700053-00&ServiceCd=720&Type=search", "url2": "http://www.egao-de.com" }, "geometry": { "type": "Point", "coordinates": [ 135.5155648, 34.6627384 ] } },
{ "type": "Feature", "properties": { "内容": "四天王寺きたやま苑デイサービスセンター【認知症対応型通所介護】大阪市天王寺区北山町9-6", "url": "https://www.kaigokensaku.mhlw.go.jp/27/index.php?action_kouhyou_detail_004_kani=true&JigyosyoCd=2771700065-00&ServiceCd=720&Type=search", "url2": "http://www.shitennoji-fukushi.jp/" }, "geometry": { "type": "Point", "coordinates": [ 135.5227559, 34.6599832 ] } },
{ "type": "Feature", "properties": { "内容": "デイサービスセンターたのしいデイ姫島【認知症対応型通所介護】大阪府大阪市西淀川区姫里三丁目6番13号", "url": "https://www.kaigokensaku.mhlw.go.jp/27/index.php?action_kouhyou_detail_004_kani=true&JigyosyoCd=2791000280-00&ServiceCd=720&Type=search", "url2": null }, "geometry": { "type": "Point", "coordinates": [ 135.456026900000012, 34.70644320000001 ] } },
{ "type": "Feature", "properties": { "内容": "デイサービスハウス安住【認知症対応型通所介護】大阪市西淀川区竹島3丁目2番12号", "url": "https://www.kaigokensaku.mhlw.go.jp/27/index.php?action_kouhyou_detail_004_kani=true&JigyosyoCd=2771000888-00&ServiceCd=720&Type=search", "url2": "http://www.yodokyo.or.jp/anju/index.html" }, "geometry": { "type": "Point", "coordinates": [ 135.4535747, 34.7267797 ] } },
{ "type": "Feature", "properties": { "内容": "ひなき庵【認知症対応型通所介護】大阪府大阪市西淀川区姫島５丁目16番17号ソルジュ1階", "url": "https://www.kaigokensaku.mhlw.go.jp/27/index.php?action_kouhyou_detail_004_kani=true&JigyosyoCd=2791000215-00&ServiceCd=720&Type=search", "url2": "https://npo-itsuki.com/" }, "geometry": { "type": "Point", "coordinates": [ 135.448479, 34.7031834 ] } },
{ "type": "Feature", "properties": { "内容": "デイサービスセンターたのしいデイずいこう【認知症対応型通所介護】大阪府大阪市東淀川区瑞光2-8-15", "url": "https://www.kaigokensaku.mhlw.go.jp/27/index.php?action_kouhyou_detail_004_kani=true&JigyosyoCd=2793000056-00&ServiceCd=720&Type=search", "url2": null }, "geometry": { "type": "Point", "coordinates": [ 135.539544400000068, 34.7500626 ] } },
{ "type": "Feature", "properties": { "内容": "デイサービス独歩おおぎり【認知症対応型通所介護】大阪府大阪市東淀川区大桐1-1-12大桐地域在宅サービスステーション", "url": "https://www.kaigokensaku.mhlw.go.jp/27/index.php?action_kouhyou_detail_004_kani=true&JigyosyoCd=2793000494-00&ServiceCd=720&Type=search", "url2": "https://honobonoso.jp/" }, "geometry": { "type": "Point", "coordinates": [ 135.544986735887846, 34.74395389323378 ] } },
{ "type": "Feature", "properties": { "内容": "デイサービスセンター　ハミングベルにこにこ【認知症対応型通所介護】大阪市東成区中本１－１１－１", "url": "https://www.kaigokensaku.mhlw.go.jp/27/index.php?action_kouhyou_detail_004_kani=true&JigyosyoCd=2791500016-00&ServiceCd=720&Type=search", "url2": null }, "geometry": { "type": "Point", "coordinates": [ 135.543664700000022, 34.6813508 ] } },
{ "type": "Feature", "properties": { "内容": "グループホームみのり苑デイサービスセンター【認知症対応型通所介護】大阪市生野区巽中2-14-1", "url": "https://www.kaigokensaku.mhlw.go.jp/27/index.php?action_kouhyou_detail_004_kani=true&JigyosyoCd=2792200160-00&ServiceCd=720&Type=search", "url2": "http://www.minori-en.com/" }, "geometry": { "type": "Point", "coordinates": [ 135.5514925, 34.6485021 ] } },
{ "type": "Feature", "properties": { "内容": "慶生会ゆったりデイサービス巽東【認知症対応型通所介護】大阪府大阪市生野区巽東1-12-18ビラデスタ１０２号室", "url": "https://www.kaigokensaku.mhlw.go.jp/27/index.php?action_kouhyou_detail_004_kani=true&JigyosyoCd=2792200152-00&ServiceCd=720&Type=search", "url2": "http://kyouseikai.org/" }, "geometry": { "type": "Point", "coordinates": [ 135.556525400000027, 34.6499521 ] } },
{ "type": "Feature", "properties": { "内容": "くつろぎデイサービス　夢の箱　生野【認知症対応型通所介護】大阪府大阪市生野区生野東2丁目５－８", "url": "https://www.kaigokensaku.mhlw.go.jp/27/index.php?action_kouhyou_detail_004_kani=true&JigyosyoCd=2792200012-00&ServiceCd=720&Type=search", "url2": "http://yumenohako.info/" }, "geometry": { "type": "Point", "coordinates": [ 135.531374899999946, 34.6484043 ] } },
{ "type": "Feature", "properties": { "内容": "デイサービスもりのみや【認知症対応型通所介護】大阪府大阪市城東区森之宮2-1-49平成森之宮苑", "url": "https://www.kaigokensaku.mhlw.go.jp/27/index.php?action_kouhyou_detail_004_kani=true&JigyosyoCd=2794400362-00&ServiceCd=720&Type=search", "url2": "http://www.heiseifukushikai.com/facility/facility/morinomiya/" }, "geometry": { "type": "Point", "coordinates": [ 135.539262900000011, 34.6848472 ] } },
{ "type": "Feature", "properties": { "内容": "池岡サニーデイサービス【認知症対応型通所介護】大阪市城東区関目２丁目２－８", "url": "https://www.kaigokensaku.mhlw.go.jp/27/index.php?action_kouhyou_detail_004_kani=true&JigyosyoCd=2774400994-00&ServiceCd=720&Type=search", "url2": "http://ikeoka.net" }, "geometry": { "type": "Point", "coordinates": [ 135.5503251, 34.706287 ] } },
{ "type": "Feature", "properties": { "内容": "デイサービス野江ゆおびか【認知症対応型通所介護】大阪府大阪市城東区成育4-6-29", "url": "https://www.kaigokensaku.mhlw.go.jp/27/index.php?action_kouhyou_detail_004_kani=true&JigyosyoCd=2794400164-00&ServiceCd=720&Type=search", "url2": "http://health-coop.jp/" }, "geometry": { "type": "Point", "coordinates": [ 135.542217199999982, 34.711820103069691 ] } },
{ "type": "Feature", "properties": { "内容": "デイサービスセンターたのしいデイ帝塚山【認知症対応型通所介護】大阪府大阪市阿倍野区帝塚山1丁目10番27号", "url": "https://www.kaigokensaku.mhlw.go.jp/27/index.php?action_kouhyou_detail_004_kani=true&JigyosyoCd=2792300283-00&ServiceCd=720&Type=search", "url2": null }, "geometry": { "type": "Point", "coordinates": [ 135.5013041, 34.624903 ] } },
{ "type": "Feature", "properties": { "内容": "デイサービス　まごころ【認知症対応型通所介護】大阪市阿倍野区阪南町2丁目16番７号", "url": "https://www.kaigokensaku.mhlw.go.jp/27/index.php?action_kouhyou_detail_004_kani=true&JigyosyoCd=2792300085-00&ServiceCd=720&Type=search", "url2": "https://teru.or.jp/magokoro/" }, "geometry": { "type": "Point", "coordinates": [ 135.512204800000063, 34.6316394 ] } },
{ "type": "Feature", "properties": { "内容": "高齢者デイサービスセンター　いくとくII【認知症対応型通所介護】大阪市阿倍野区長池町18-20高齢者デイサービスセンターいくとくⅡ", "url": "https://www.kaigokensaku.mhlw.go.jp/27/index.php?action_kouhyou_detail_004_kani=true&JigyosyoCd=2772300220-00&ServiceCd=720&Type=search", "url2": "https://ikutokuen.or.jp" }, "geometry": { "type": "Point", "coordinates": [ 135.5183154, 34.6234348 ] } },
{ "type": "Feature", "properties": { "内容": "グループホームあいむデイサービス【認知症対応型通所介護】大阪府大阪市住吉区南住吉２丁目6番２号", "url": "https://www.kaigokensaku.mhlw.go.jp/27/index.php?action_kouhyou_detail_004_kani=true&JigyosyoCd=2792000081-00&ServiceCd=720&Type=search", "url2": "http://www.im-gh.com" }, "geometry": { "type": "Point", "coordinates": [ 135.505975199999966, 34.6079644 ] } },
{ "type": "Feature", "properties": { "内容": "デイサービスゆうけいスマイル【認知症対応型通所介護】大阪府大阪市住吉区遠里小野２丁目７番２０号", "url": "https://www.kaigokensaku.mhlw.go.jp/27/index.php?action_kouhyou_detail_004_kani=true&JigyosyoCd=2792000347-00&ServiceCd=720&Type=search", "url2": "http://www.yukeikai-web.com/" }, "geometry": { "type": "Point", "coordinates": [ 135.4974681, 34.5966379 ] } },
{ "type": "Feature", "properties": { "内容": "デイサービス　アム【認知症対応型通所介護】大阪府大阪市東住吉区山坂5丁目18-11コーポ鶴ヶ丘1階", "url": "https://www.kaigokensaku.mhlw.go.jp/27/index.php?action_kouhyou_detail_004_kani=true&JigyosyoCd=2790800748-00&ServiceCd=720&Type=search", "url2": "https://www.human-welfare.co.jp/facility" }, "geometry": { "type": "Point", "coordinates": [ 135.51733459999997, 34.6163811 ] } },
{ "type": "Feature", "properties": { "内容": "すこやかデイサービスセンタートロワ【認知症対応型通所介護】大阪府大阪市東住吉区針中野2-4-3サンライズハイツ１階", "url": "https://www.kaigokensaku.mhlw.go.jp/27/index.php?action_kouhyou_detail_004_kani=true&JigyosyoCd=2790800185-00&ServiceCd=720&Type=search", "url2": "http://www.nanbukan.org/ninchi/index.html" }, "geometry": { "type": "Point", "coordinates": [ 135.5360862, 34.6191911 ] } },
{ "type": "Feature", "properties": { "内容": "たのしいデイたなべ【認知症対応型通所介護】大阪市東住吉区田辺2-11-43", "url": "https://www.kaigokensaku.mhlw.go.jp/27/index.php?action_kouhyou_detail_004_kani=true&JigyosyoCd=2790800151-00&ServiceCd=720&Type=search", "url2": null }, "geometry": { "type": "Point", "coordinates": [ 135.5279395, 34.6252264 ] } },
{ "type": "Feature", "properties": { "内容": "なでしこの家　デイたいむ【認知症対応型通所介護】大阪府大阪市東住吉区中野2-5-11", "url": "https://www.kaigokensaku.mhlw.go.jp/27/index.php?action_kouhyou_detail_004_kani=true&JigyosyoCd=2790800417-00&ServiceCd=720&Type=search", "url2": "http://www.745165.co.jp/" }, "geometry": { "type": "Point", "coordinates": [ 135.5389888, 34.622383 ] } },
{ "type": "Feature", "properties": { "内容": "デイサービスセンターファミリア【認知症対応型通所介護】大阪府大阪市東住吉区杭全7丁目８－２５塚田ビル1階", "url": "https://www.kaigokensaku.mhlw.go.jp/27/index.php?action_kouhyou_detail_004_kani=true&JigyosyoCd=2790800243-00&ServiceCd=720&Type=search", "url2": null }, "geometry": { "type": "Point", "coordinates": [ 135.539902228224378, 34.632683843949174 ] } },
{ "type": "Feature", "properties": { "内容": "エンジョイ倶楽部【認知症対応型通所介護】南津守4-1-3", "url": "https://www.kaigokensaku.mhlw.go.jp/27/index.php?action_kouhyou_detail_004_kani=true&JigyosyoCd=2793300498-00&ServiceCd=720&Type=search", "url2": null }, "geometry": { "type": "Point", "coordinates": [ 135.4861512, 34.6302928 ] } },
{ "type": "Feature", "properties": { "内容": "デイサービスぽかぽか【認知症対応型通所介護】大阪市西成区南津守7-12-32", "url": "https://www.kaigokensaku.mhlw.go.jp/27/index.php?action_kouhyou_detail_004_kani=true&JigyosyoCd=2793300027-00&ServiceCd=720&Type=search", "url2": "http://www.hakujuen.or.jp" }, "geometry": { "type": "Point", "coordinates": [ 135.48360219999995, 34.6242651 ] } },
{ "type": "Feature", "properties": { "内容": "認知症対応型デイサービス悠楽【認知症対応型通所介護】大阪府大阪市西成区聖天下2丁目6番1号", "url": "https://www.kaigokensaku.mhlw.go.jp/27/index.php?action_kouhyou_detail_004_kani=true&JigyosyoCd=2793300225-00&ServiceCd=720&Type=search", "url2": "http://www.warafuku.co.jp/yuraku/" }, "geometry": { "type": "Point", "coordinates": [ 135.50145050010417, 34.635792459973025 ] } },
{ "type": "Feature", "properties": { "内容": "デイサービスセンターたのしい家よどがわ【認知症対応型通所介護】大阪市淀川区十三元今里１－９－６", "url": "https://www.kaigokensaku.mhlw.go.jp/27/index.php?action_kouhyou_detail_004_kani=true&JigyosyoCd=2799100058-00&ServiceCd=720&Type=search", "url2": null }, "geometry": { "type": "Point", "coordinates": [ 135.4753005, 34.7169204 ] } },
{ "type": "Feature", "properties": { "内容": "デイサービスセンターナービス淀川【認知症対応型通所介護】大阪府大阪市淀川区三国本町２－１３－６８", "url": "https://www.kaigokensaku.mhlw.go.jp/27/index.php?action_kouhyou_detail_004_kani=true&JigyosyoCd=2779101498-00&ServiceCd=720&Type=search", "url2": "https://joylife.alsok.co.jp/" }, "geometry": { "type": "Point", "coordinates": [ 135.486202300000059, 34.734543600000016 ] } },
{ "type": "Feature", "properties": { "内容": "デイサービス　いきいきや【認知症対応型通所介護】大阪府大阪市淀川区三津屋北1-35-21", "url": "https://www.kaigokensaku.mhlw.go.jp/27/index.php?action_kouhyou_detail_004_kani=true&JigyosyoCd=2779101506-00&ServiceCd=720&Type=search", "url2": "http://www.hakuaisha-welfare.net/" }, "geometry": { "type": "Point", "coordinates": [ 135.4724258, 34.7307659 ] } },
{ "type": "Feature", "properties": { "内容": "カルチェ住吉川デイサービスセンター【認知症対応型通所介護】大阪府大阪市住之江区中加賀屋4-5-27", "url": "https://www.kaigokensaku.mhlw.go.jp/27/index.php?action_kouhyou_detail_004_kani=true&JigyosyoCd=2795900295-00&ServiceCd=720&Type=search", "url2": null }, "geometry": { "type": "Point", "coordinates": [ 135.4795777, 34.6144942 ] } },
{ "type": "Feature", "properties": { "内容": "認知症対応型デイサービス　ソラスト住之江【認知症対応型通所介護】大阪府大阪市住之江区新北島7-1-53マンションハピネス1階", "url": "https://www.kaigokensaku.mhlw.go.jp/27/index.php?action_kouhyou_detail_004_kani=true&JigyosyoCd=2795900105-00&ServiceCd=720&Type=search", "url2": "https://solasto-kaigo.com/care/area/solastosuminoe2.html" }, "geometry": { "type": "Point", "coordinates": [ 135.460018600000012, 34.6102966 ] } },
{ "type": "Feature", "properties": { "内容": "デイサービス壱久【認知症対応型通所介護】大阪府大阪市住之江区南港中3丁目3番しらなみ団地33棟102号", "url": "https://www.kaigokensaku.mhlw.go.jp/27/index.php?action_kouhyou_detail_004_kani=true&JigyosyoCd=2795900303-00&ServiceCd=720&Type=search", "url2": "https://www.assistcare-ikkyu.com" }, "geometry": { "type": "Point", "coordinates": [ 135.422558, 34.628282 ] } },
{ "type": "Feature", "properties": { "内容": "南加賀屋のつるさんかめさんの家【認知症対応型通所介護】大阪府大阪市住之江区南加賀屋４丁目８番２２号南加賀屋のつるさんかめさんの家", "url": "https://www.kaigokensaku.mhlw.go.jp/27/index.php?action_kouhyou_detail_004_kani=true&JigyosyoCd=2795900154-00&ServiceCd=720&Type=search", "url2": null }, "geometry": { "type": "Point", "coordinates": [ 135.4744943, 34.6025641 ] } },
{ "type": "Feature", "properties": { "内容": "すこやかデイサービスセンター【認知症対応型通所介護】大阪市平野区平野南2－4－27", "url": "https://www.kaigokensaku.mhlw.go.jp/27/index.php?action_kouhyou_detail_004_kani=true&JigyosyoCd=2795800149-00&ServiceCd=720&Type=search", "url2": null }, "geometry": { "type": "Point", "coordinates": [ 135.557576299999937, 34.6173221 ] } },
{ "type": "Feature", "properties": { "内容": "すこやかデイサービスセンタードゥ【認知症対応型通所介護】大阪府大阪市平野区平野南1-8-32ワンプレイス１階店舗", "url": "https://www.kaigokensaku.mhlw.go.jp/27/index.php?action_kouhyou_detail_004_kani=true&JigyosyoCd=2795800180-00&ServiceCd=720&Type=search", "url2": null }, "geometry": { "type": "Point", "coordinates": [ 135.556029099999932, 34.6193413 ] } },
{ "type": "Feature", "properties": { "内容": "デイサービスセンター　たのしいデイひらの【認知症対応型通所介護】大阪府大阪市平野区加美東１丁目９番22号", "url": "https://www.kaigokensaku.mhlw.go.jp/27/index.php?action_kouhyou_detail_004_kani=true&JigyosyoCd=2795800289-00&ServiceCd=720&Type=search", "url2": null }, "geometry": { "type": "Point", "coordinates": [ 135.566677799999979, 34.6315319 ] } },
{ "type": "Feature", "properties": { "内容": "永寿平野西の家【認知症対応型通所介護】大阪府大阪市平野区平野西１－４－１５社会福祉法人永寿福祉会　永寿平野西の家", "url": "https://www.kaigokensaku.mhlw.go.jp/27/index.php?action_kouhyou_detail_004_kani=true&JigyosyoCd=2795800255-00&ServiceCd=720&Type=search", "url2": "http://www.eijyu.or.jp" }, "geometry": { "type": "Point", "coordinates": [ 135.542009052253661, 34.620278285431006 ] } },
{ "type": "Feature", "properties": { "内容": "長吉西デイサービスセンターCASA【認知症対応型通所介護】大阪市平野区長吉出戸6-8-21", "url": "https://www.kaigokensaku.mhlw.go.jp/27/index.php?action_kouhyou_detail_004_kani=true&JigyosyoCd=2795800636-00&ServiceCd=720&Type=search", "url2": "http://www.eijyu.or.jp" }, "geometry": { "type": "Point", "coordinates": [ 135.571433800000023, 34.6104896 ] } },
{ "type": "Feature", "properties": { "内容": "喜連西デイサービス【認知症対応型通所介護】大阪府大阪市平野区喜連西3-15-23", "url": "https://www.kaigokensaku.mhlw.go.jp/27/index.php?action_kouhyou_detail_004_kani=true&JigyosyoCd=2775800713-00&ServiceCd=720&Type=search", "url2": "http://www.yutakafukushikai.or.jp" }, "geometry": { "type": "Point", "coordinates": [ 135.543330200000014, 34.6109781 ] } },
{ "type": "Feature", "properties": { "内容": "認知症対応型通所介護　ひかり天神橋【認知症対応型通所介護】大阪府大阪市北区長柄西2丁目12-19", "url": "https://www.kaigokensaku.mhlw.go.jp/27/index.php?action_kouhyou_detail_004_kani=true&JigyosyoCd=2794100145-00&ServiceCd=720&Type=search", "url2": "http://www.gh-hikari.co.jp/h-tenjin.html" }, "geometry": { "type": "Point", "coordinates": [ 135.514096500000051, 34.7188142 ] } },
{ "type": "Feature", "properties": { "内容": "こころ上汐【認知症対応型通所介護】大阪府大阪市中央区上汐二丁目１番２３号心幸ピースビル２階", "url": "https://www.kaigokensaku.mhlw.go.jp/27/index.php?action_kouhyou_detail_004_kani=true&JigyosyoCd=2799400102-00&ServiceCd=720&Type=search", "url2": "https://i-peace556.co.jp" }, "geometry": { "type": "Point", "coordinates": [ 135.517736899999989, 34.6691211 ] } },
{ "type": "Feature", "properties": { "内容": "南大江地域在宅サービスステーションさくら　認知症対応型通所介護事業所【認知症対応型通所介護】大阪市中央区農人橋一丁目４番２０号", "url": "https://www.kaigokensaku.mhlw.go.jp/27/index.php?action_kouhyou_detail_004_kani=true&JigyosyoCd=2799400029-00&ServiceCd=720&Type=search", "url2": "http://www.kensyokai.jp" }, "geometry": { "type": "Point", "coordinates": [ 135.514683800000057, 34.6807254 ] } },
{ "type": "Feature", "properties": { "内容": "やすらぎの介護シャロームここから【認知症対応型通所介護】大阪府堺市堺区大仙中町6-24", "url": "https://www.kaigokensaku.mhlw.go.jp/27/index.php?action_kouhyou_detail_004_kani=true&JigyosyoCd=2796000186-00&ServiceCd=720&Type=search", "url2": "http://www.kaigo-shalom.co.jp/" }, "geometry": { "type": "Point", "coordinates": [ 135.478659599999986, 34.5622686 ] } },
{ "type": "Feature", "properties": { "内容": "デイサービス　あーちゃんの家【認知症対応型通所介護】大阪府堺市堺区緑ヶ丘中町3丁2-8", "url": "https://www.kaigokensaku.mhlw.go.jp/27/index.php?action_kouhyou_detail_004_kani=true&JigyosyoCd=2796000129-00&ServiceCd=720&Type=search", "url2": "https://achannoie.com" }, "geometry": { "type": "Point", "coordinates": [ 135.473251438657826, 34.554891357898519 ] } },
{ "type": "Feature", "properties": { "内容": "かーさ・びあんか　華音【認知症対応型通所介護】大阪府堺市堺区今池町４丁４番８号", "url": "https://www.kaigokensaku.mhlw.go.jp/27/index.php?action_kouhyou_detail_004_kani=true&JigyosyoCd=2796000046-00&ServiceCd=720&Type=search", "url2": "http://www.asakayama-kinenkai.or.jp" }, "geometry": { "type": "Point", "coordinates": [ 135.492247776057411, 34.584513424895917 ] } },
{ "type": "Feature", "properties": { "内容": "デイサービス吉祥園【認知症対応型通所介護】大阪府堺市中区228番地1-1", "url": "https://www.kaigokensaku.mhlw.go.jp/27/index.php?action_kouhyou_detail_004_kani=true&JigyosyoCd=2796100341-00&ServiceCd=720&Type=search", "url2": null }, "geometry": { "type": "Point", "coordinates": [ 135.503701, 34.5304383 ] } },
{ "type": "Feature", "properties": { "内容": "デイサービス福田の郷【認知症対応型通所介護】大阪府堺市中区福田258番地", "url": "https://www.kaigokensaku.mhlw.go.jp/27/index.php?action_kouhyou_detail_004_kani=true&JigyosyoCd=2796100366-00&ServiceCd=720&Type=search", "url2": "http://fukudanosato.com" }, "geometry": { "type": "Point", "coordinates": [ 135.5284869, 34.5156227 ] } },
{ "type": "Feature", "properties": { "内容": "デイサービスほほえみの家【認知症対応型通所介護】大阪府堺市中区辻之1536-8", "url": "https://www.kaigokensaku.mhlw.go.jp/27/index.php?action_kouhyou_detail_004_kani=true&JigyosyoCd=2796100135-00&ServiceCd=720&Type=search", "url2": "https://dayhohoeminoie.jimdosite.com/" }, "geometry": { "type": "Point", "coordinates": [ 135.517193200000037, 34.516269499999986 ] } },
{ "type": "Feature", "properties": { "内容": "ゆったりケアおおとり【認知症対応型通所介護】大阪府堺市西区鳳南町5丁594-1", "url": "https://www.kaigokensaku.mhlw.go.jp/27/index.php?action_kouhyou_detail_004_kani=true&JigyosyoCd=2796300099-00&ServiceCd=720&Type=search", "url2": "http://www.mimihara.or.jp" }, "geometry": { "type": "Point", "coordinates": [ 135.463303099999962, 34.5274611 ] } },
{ "type": "Feature", "properties": { "内容": "街かどデイハートフルサンク【認知症対応型通所介護】大阪府堺市南区桃山台三丁18番29号", "url": "https://www.kaigokensaku.mhlw.go.jp/27/index.php?action_kouhyou_detail_004_kani=true&JigyosyoCd=2796400238-00&ServiceCd=720&Type=search", "url2": "http://heartfulthank.com/machikado" }, "geometry": { "type": "Point", "coordinates": [ 135.482164201852385, 34.492239 ] } },
{ "type": "Feature", "properties": { "内容": "コミュニティサロンはつが【認知症対応型通所介護】大阪府堺市南区栂194-2", "url": "https://www.kaigokensaku.mhlw.go.jp/27/index.php?action_kouhyou_detail_004_kani=true&JigyosyoCd=2796400055-00&ServiceCd=720&Type=search", "url2": "https://hohoemi-hatsuga.com/" }, "geometry": { "type": "Point", "coordinates": [ 135.500261599999931, 34.4874495 ] } },
{ "type": "Feature", "properties": { "内容": "デイサービスセンター小代美樹の園龍庵【認知症対応型通所介護】大阪府堺市南区小代４１４番地１５", "url": "https://www.kaigokensaku.mhlw.go.jp/27/index.php?action_kouhyou_detail_004_kani=true&JigyosyoCd=2796400071-00&ServiceCd=720&Type=search", "url2": "http://mikinosono.sakura.ne.jp/" }, "geometry": { "type": "Point", "coordinates": [ 135.4879264, 34.5091439 ] } },
{ "type": "Feature", "properties": { "内容": "逆瀬川デイサービスセンター【認知症対応型通所介護】大阪府堺市南区逆瀬川1039", "url": "https://www.kaigokensaku.mhlw.go.jp/27/index.php?action_kouhyou_detail_004_kani=true&JigyosyoCd=2770101158-00&ServiceCd=720&Type=search", "url2": "http://www.makiduka.jp" }, "geometry": { "type": "Point", "coordinates": [ 135.527875395106577, 34.478651468688355 ] } },
{ "type": "Feature", "properties": { "内容": "デイサービスピースわが家【認知症対応型通所介護】大阪府堺市南区晴美台3丁9番5号", "url": "https://www.kaigokensaku.mhlw.go.jp/27/index.php?action_kouhyou_detail_004_kani=true&JigyosyoCd=2796400196-00&ServiceCd=720&Type=search", "url2": null }, "geometry": { "type": "Point", "coordinates": [ 135.5307799, 34.4854653 ] } },
{ "type": "Feature", "properties": { "内容": "C.P.ライラック【認知症対応型通所介護】大阪府堺市北区中村町126-2", "url": "https://www.kaigokensaku.mhlw.go.jp/27/index.php?action_kouhyou_detail_004_kani=true&JigyosyoCd=2796500342-00&ServiceCd=720&Type=search", "url2": null }, "geometry": { "type": "Point", "coordinates": [ 135.5361637, 34.5669922 ] } },
{ "type": "Feature", "properties": { "内容": "タマダ病院デイサービスセンター【認知症対応型通所介護】堺市北区蔵前町２丁15番39号", "url": "https://www.kaigokensaku.mhlw.go.jp/27/index.php?action_kouhyou_detail_004_kani=true&JigyosyoCd=2796500052-00&ServiceCd=720&Type=search", "url2": null }, "geometry": { "type": "Point", "coordinates": [ 135.514239, 34.5750959 ] } },
{ "type": "Feature", "properties": { "内容": "通所介護センター平尾荘【認知症対応型通所介護】大阪府堺市美原区平尾１９３８番地1", "url": "https://www.kaigokensaku.mhlw.go.jp/27/index.php?action_kouhyou_detail_004_kani=true&JigyosyoCd=2770107213-00&ServiceCd=720&Type=search", "url2": "http://tenjukai.or.jp/" }, "geometry": { "type": "Point", "coordinates": [ 135.57489570000007, 34.5319207 ] } },
{ "type": "Feature", "properties": { "内容": "まんじゅ　デイサービスセンター【認知症対応型通所介護】大阪府岸和田市南上町2丁目5番6号", "url": "https://www.kaigokensaku.mhlw.go.jp/27/index.php?action_kouhyou_detail_004_kani=true&JigyosyoCd=2791100080-00&ServiceCd=720&Type=search", "url2": "https://www.terada-manju.jp/" }, "geometry": { "type": "Point", "coordinates": [ 135.371809799999937, 34.4526907 ] } },
{ "type": "Feature", "properties": { "内容": "特別養護老人ホーム萬寿園【認知症対応型通所介護】大阪府岸和田市尾生町808番地", "url": "https://www.kaigokensaku.mhlw.go.jp/27/index.php?action_kouhyou_detail_004_kani=true&JigyosyoCd=2771100126-00&ServiceCd=720&Type=search", "url2": "http://www.h6.dion.ne.jp/~trdmj_hp/index.html" }, "geometry": { "type": "Point", "coordinates": [ 135.407417500000065, 34.4513474 ] } },
{ "type": "Feature", "properties": { "内容": "社会医療法人慈薫会認知症対応型通所介護大阪緑ヶ丘【認知症対応型通所介護】大阪府岸和田市神須屋町662番地の2", "url": "https://www.kaigokensaku.mhlw.go.jp/27/index.php?action_kouhyou_detail_004_kani=true&JigyosyoCd=2791100213-00&ServiceCd=720&Type=search", "url2": "http://osaka-midorigaoka.com/" }, "geometry": { "type": "Point", "coordinates": [ 135.399821400000064, 34.4332049 ] } },
{ "type": "Feature", "properties": { "内容": "慶生会　ゆったりデイサービス豊南【認知症対応型通所介護】大阪府豊中市豊南町東2丁目10-1地域密着型複合施設　清浄苑", "url": "https://www.kaigokensaku.mhlw.go.jp/27/index.php?action_kouhyou_detail_004_kani=true&JigyosyoCd=2794001095-00&ServiceCd=720&Type=search", "url2": "https://kyouseikai.org" }, "geometry": { "type": "Point", "coordinates": [ 135.4850577, 34.7511345 ] } },
{ "type": "Feature", "properties": { "内容": "デイサービスセンター　アリス千里【認知症対応型通所介護】大阪府豊中市新千里北町1-18-2", "url": "https://www.kaigokensaku.mhlw.go.jp/27/index.php?action_kouhyou_detail_004_kani=true&JigyosyoCd=2774001305-00&ServiceCd=720&Type=search", "url2": "http://www.toyonakafamily.com/" }, "geometry": { "type": "Point", "coordinates": [ 135.4963917, 34.8153123 ] } },
{ "type": "Feature", "properties": { "内容": "医療法人全心会　東豊中ひかりの家デイサービスセンター【認知症対応型通所介護】大阪府豊中市東豊中町２丁目２番２２号", "url": "https://www.kaigokensaku.mhlw.go.jp/27/index.php?action_kouhyou_detail_004_kani=true&JigyosyoCd=2774002303-00&ServiceCd=720&Type=search", "url2": "https://www.higashitoyonaka-hikari.jp/" }, "geometry": { "type": "Point", "coordinates": [ 135.479132, 34.802566 ] } },
{ "type": "Feature", "properties": { "内容": "SAIYOまなびのひろば池田校【認知症対応型通所介護】大阪府池田市城南1-3-21", "url": "https://www.kaigokensaku.mhlw.go.jp/27/index.php?action_kouhyou_detail_004_kani=true&JigyosyoCd=2792500239-00&ServiceCd=720&Type=search", "url2": null }, "geometry": { "type": "Point", "coordinates": [ 135.429175100000066, 34.8213723 ] } },
{ "type": "Feature", "properties": { "内容": "いのこの里デイサービスセンター【認知症対応型通所介護】大阪府吹田市山田西1-26-27", "url": "https://www.kaigokensaku.mhlw.go.jp/27/index.php?action_kouhyou_detail_004_kani=true&JigyosyoCd=2771601081-00&ServiceCd=720&Type=search", "url2": "http://www.kobatokai.jp/" }, "geometry": { "type": "Point", "coordinates": [ 135.528975299999956, 34.7904935 ] } },
{ "type": "Feature", "properties": { "内容": "吹田竜ヶ池デイサービスセンター【認知症対応型通所介護】大阪府吹田市原町3丁目21番25号", "url": "https://www.kaigokensaku.mhlw.go.jp/27/index.php?action_kouhyou_detail_004_kani=true&JigyosyoCd=2791600055-00&ServiceCd=720&Type=search", "url2": "http://www.swc-seikouen.jp/tatsugaike/index.html" }, "geometry": { "type": "Point", "coordinates": [ 135.526236599999947, 34.7787005 ] } },
{ "type": "Feature", "properties": { "内容": "パナソニックエイジフーケアセンター吹田健都・デイサービス【認知症対応型通所介護】大阪府吹田市岸部新町3番33patona吹田健都", "url": "https://www.kaigokensaku.mhlw.go.jp/27/index.php?action_kouhyou_detail_004_kani=true&JigyosyoCd=2791600543-00&ServiceCd=720&Type=search", "url2": "https://sumai.panasonic.jp/agefree/facility_care/agefree-house/premier/kento/" }, "geometry": { "type": "Point", "coordinates": [ 135.5357069, 34.7750817 ] } },
{ "type": "Feature", "properties": { "内容": "寿楽荘竹谷生活リハビリハウス【認知症対応型通所介護】大阪府吹田市竹谷町22-33１階", "url": "https://www.kaigokensaku.mhlw.go.jp/27/index.php?action_kouhyou_detail_004_kani=true&JigyosyoCd=2791600121-00&ServiceCd=720&Type=search", "url2": "http://juraku-osaka.jp" }, "geometry": { "type": "Point", "coordinates": [ 135.521973099999968, 34.7805058 ] } },
{ "type": "Feature", "properties": { "内容": "まかみデイサービス翔裕館【認知症対応型通所介護】大阪府高槻市西真上1丁目36-15", "url": "https://www.kaigokensaku.mhlw.go.jp/27/index.php?action_kouhyou_detail_004_kani=true&JigyosyoCd=2790900977-00&ServiceCd=720&Type=search", "url2": "https://sangajapan.jp/takatsuki/takatsuki01/" }, "geometry": { "type": "Point", "coordinates": [ 135.606115297553231, 34.859192794078609 ] } },
{ "type": "Feature", "properties": { "内容": "上牧の郷　デイサービスセンター【認知症対応型通所介護】大阪府高槻市東上牧２丁目３７番８号", "url": "https://www.kaigokensaku.mhlw.go.jp/27/index.php?action_kouhyou_detail_004_kani=true&JigyosyoCd=2790900373-00&ServiceCd=720&Type=search", "url2": "http://www.shinshokai.or.jp" }, "geometry": { "type": "Point", "coordinates": [ 135.663639699999976, 34.8645156 ] } },
{ "type": "Feature", "properties": { "内容": "高槻荘共用型デイサービスセンター「ゆらら」【認知症対応型通所介護】大阪府高槻市郡家新町48番7号", "url": "https://www.kaigokensaku.mhlw.go.jp/27/index.php?action_kouhyou_detail_004_kani=true&JigyosyoCd=2790900886-00&ServiceCd=720&Type=search", "url2": "https://takatsuki-huku2.wixsite.com/osj-takatukisou/" }, "geometry": { "type": "Point", "coordinates": [ 135.596121439425701, 34.852098808809686 ] } },
{ "type": "Feature", "properties": { "内容": "高槻エルダーセンター認知症対応通所介護【認知症対応型通所介護】大阪府高槻市高槻市東五百住町2-4-32", "url": "https://www.kaigokensaku.mhlw.go.jp/27/index.php?action_kouhyou_detail_004_kani=true&JigyosyoCd=2790900076-00&ServiceCd=720&Type=search", "url2": "http://care-net.biz/27/shouei/" }, "geometry": { "type": "Point", "coordinates": [ 135.601947, 34.8380894 ] } },
{ "type": "Feature", "properties": { "内容": "高槻荘やすらぎデイサービスセンター【認知症対応型通所介護】大阪府高槻市郡家新町48番21号", "url": "https://www.kaigokensaku.mhlw.go.jp/27/index.php?action_kouhyou_detail_004_kani=true&JigyosyoCd=2790900167-00&ServiceCd=720&Type=search", "url2": "https://takatsuki-huku2.wixsite.com/osj-takatukisou" }, "geometry": { "type": "Point", "coordinates": [ 135.595868099999961, 34.8514911 ] } },
{ "type": "Feature", "properties": { "内容": "寿みのりの郷デイサービスセンター【認知症対応型通所介護】大阪府高槻市寿町3-3-12", "url": "https://www.kaigokensaku.mhlw.go.jp/27/index.php?action_kouhyou_detail_004_kani=true&JigyosyoCd=2790900241-00&ServiceCd=720&Type=search", "url2": "https://swc-seikouen.jp/takatsuki/index.html" }, "geometry": { "type": "Point", "coordinates": [ 135.60306388039541, 34.832351026600179 ] } },
{ "type": "Feature", "properties": { "内容": "HiBi8【認知症対応型通所介護】大阪府高槻市南芥川町17-6ヒラノハイツA棟103", "url": "https://www.kaigokensaku.mhlw.go.jp/27/index.php?action_kouhyou_detail_004_kani=true&JigyosyoCd=2790900837-00&ServiceCd=720&Type=search", "url2": null }, "geometry": { "type": "Point", "coordinates": [ 135.610029200000014, 34.8483629 ] } },
{ "type": "Feature", "properties": { "内容": "高槻けやきの郷　認知症対応型通所介護【認知症対応型通所介護】大阪府高槻市番田1-60-1", "url": "https://www.kaigokensaku.mhlw.go.jp/27/index.php?action_kouhyou_detail_004_kani=true&JigyosyoCd=2790900118-00&ServiceCd=720&Type=search", "url2": "https://swc-seikouen.jp/takatsuki/index.html" }, "geometry": { "type": "Point", "coordinates": [ 135.624676799999946, 34.8179784 ] } },
{ "type": "Feature", "properties": { "内容": "社会医療法人慈薫会認知症対応型通所介護ひまわり河崎【認知症対応型通所介護】大阪府貝塚市水間１８３番地", "url": "https://www.kaigokensaku.mhlw.go.jp/27/index.php?action_kouhyou_detail_004_kani=true&JigyosyoCd=2791300151-00&ServiceCd=720&Type=search", "url2": "http://www.jikunnkai.or.jp" }, "geometry": { "type": "Point", "coordinates": [ 135.386895099999947, 34.4028693 ] } },
{ "type": "Feature", "properties": { "内容": "地域密着型水間ヶ丘デイサービスセンター【認知症対応型通所介護】大阪府貝塚市水間１３７番１", "url": "https://www.kaigokensaku.mhlw.go.jp/27/index.php?action_kouhyou_detail_004_kani=true&JigyosyoCd=2791300144-00&ServiceCd=720&Type=search", "url2": "http://www.kenjinkai-mizuma.jp/" }, "geometry": { "type": "Point", "coordinates": [ 135.385203600000068, 34.403122 ] } },
{ "type": "Feature", "properties": { "内容": "まんじゅ貝塚　デイサービスセンター【認知症対応型通所介護】大阪府貝塚市加神二丁目２番７号まんじゅ貝塚", "url": "https://www.kaigokensaku.mhlw.go.jp/27/index.php?action_kouhyou_detail_004_kani=true&JigyosyoCd=2791300110-00&ServiceCd=720&Type=search", "url2": "https://www.terada-manju.jp/" }, "geometry": { "type": "Point", "coordinates": [ 135.352039800000057, 34.4394612 ] } },
{ "type": "Feature", "properties": { "内容": "デイサービスセンターパンダ【認知症対応型通所介護】大阪府貝塚市橋本９８６番地の１", "url": "https://www.kaigokensaku.mhlw.go.jp/27/index.php?action_kouhyou_detail_004_kani=true&JigyosyoCd=2791300177-00&ServiceCd=720&Type=search", "url2": null }, "geometry": { "type": "Point", "coordinates": [ 135.362994962773911, 34.430168392521395 ] } },
{ "type": "Feature", "properties": { "内容": "グループホームそぉれデイサービス【認知症対応型通所介護】大阪府枚方市長尾元町７－３６－１", "url": "https://www.kaigokensaku.mhlw.go.jp/27/index.php?action_kouhyou_detail_004_kani=true&JigyosyoCd=2792400067-00&ServiceCd=720&Type=search", "url2": "http:/wcs-sole.com" }, "geometry": { "type": "Point", "coordinates": [ 135.708580144110897, 34.833899428525925 ] } },
{ "type": "Feature", "properties": { "内容": "デイサービスウイズユー【認知症対応型通所介護】大阪府枚方市三矢町6-12ケアセンター　３Ｆ", "url": "https://www.kaigokensaku.mhlw.go.jp/27/index.php?action_kouhyou_detail_004_kani=true&JigyosyoCd=2792400109-00&ServiceCd=720&Type=search", "url2": null }, "geometry": { "type": "Point", "coordinates": [ 135.641770100000031, 34.8147345 ] } },
{ "type": "Feature", "properties": { "内容": "安心苑ホームサービスセンター【認知症対応型通所介護】枚方市招提北町2-25-1", "url": "https://www.kaigokensaku.mhlw.go.jp/27/index.php?action_kouhyou_detail_004_kani=true&JigyosyoCd=2772400467-00&ServiceCd=720&Type=search", "url2": "http://www.com/seisyow.or.jp" }, "geometry": { "type": "Point", "coordinates": [ 135.687551399999961, 34.8470317 ] } },
{ "type": "Feature", "properties": { "内容": "グループホーム杉山手デイサービス【認知症対応型通所介護】大阪府枚方市杉山手３－２７－１２", "url": "https://www.kaigokensaku.mhlw.go.jp/27/index.php?action_kouhyou_detail_004_kani=true&JigyosyoCd=2792400075-00&ServiceCd=720&Type=search", "url2": "http://sugiyamate.com/" }, "geometry": { "type": "Point", "coordinates": [ 135.7240789, 34.8156143 ] } },
{ "type": "Feature", "properties": { "内容": "双子家【認知症対応型通所介護】大阪府茨木市大字銭原５９８番地", "url": "https://www.kaigokensaku.mhlw.go.jp/27/index.php?action_kouhyou_detail_004_kani=true&JigyosyoCd=2794200440-00&ServiceCd=720&Type=search", "url2": "https://www.facebook.com/futagoya.day/" }, "geometry": { "type": "Point", "coordinates": [ 135.526259500000037, 34.9221447 ] } },
{ "type": "Feature", "properties": { "内容": "社会福祉法人秀幸福祉会　デイサービスセンター未来【認知症対応型通所介護】茨木市寺田町8-20ピアハイツ幸１階", "url": "https://www.kaigokensaku.mhlw.go.jp/27/index.php?action_kouhyou_detail_004_kani=true&JigyosyoCd=2794200176-00&ServiceCd=720&Type=search", "url2": "http://care-net.biz/27/shouei/" }, "geometry": { "type": "Point", "coordinates": [ 135.585000300000047, 34.817486 ] } },
{ "type": "Feature", "properties": { "内容": "おさんぽ【認知症対応型通所介護】大阪府茨木市清水1-12-9", "url": "https://www.kaigokensaku.mhlw.go.jp/27/index.php?action_kouhyou_detail_004_kani=true&JigyosyoCd=2794200333-00&ServiceCd=720&Type=search", "url2": "https://www.npo-ibaraki.org" }, "geometry": { "type": "Point", "coordinates": [ 135.531604499999958, 34.838288100000014 ] } },
{ "type": "Feature", "properties": { "内容": "いっぷく【認知症対応型通所介護】大阪府茨木市西福井四丁目4番22号", "url": "https://www.kaigokensaku.mhlw.go.jp/27/index.php?action_kouhyou_detail_004_kani=true&JigyosyoCd=2794200135-00&ServiceCd=720&Type=search", "url2": "https://npo-ibaraki.org/" }, "geometry": { "type": "Point", "coordinates": [ 135.5512556, 34.8476931 ] } },
{ "type": "Feature", "properties": { "内容": "ほっとすまいるデイサービスセンター【認知症対応型通所介護】大阪府茨木市真砂二丁目９番２１号地域共生ホーム　ほっとすまいる", "url": "https://www.kaigokensaku.mhlw.go.jp/27/index.php?action_kouhyou_detail_004_kani=true&JigyosyoCd=2794200242-00&ServiceCd=720&Type=search", "url2": null }, "geometry": { "type": "Point", "coordinates": [ 135.581815, 34.799593200000011 ] } },
{ "type": "Feature", "properties": { "内容": "庄栄エルダーデイサービスセンター【認知症対応型通所介護】大阪府茨木市庄２－７－３８", "url": "https://www.kaigokensaku.mhlw.go.jp/27/index.php?action_kouhyou_detail_004_kani=true&JigyosyoCd=2774200675-00&ServiceCd=720&Type=search", "url2": "http://care-net.biz/27/shouei" }, "geometry": { "type": "Point", "coordinates": [ 135.580925500000035, 34.8239909 ] } },
{ "type": "Feature", "properties": { "内容": "認知症対応型通所介護　一花【認知症対応型通所介護】大阪府茨木市下穂積3丁目10番11号の2", "url": "https://www.kaigokensaku.mhlw.go.jp/27/index.php?action_kouhyou_detail_004_kani=true&JigyosyoCd=2794200663-00&ServiceCd=720&Type=search", "url2": null }, "geometry": { "type": "Point", "coordinates": [ 135.553524599999946, 34.8125325 ] } },
{ "type": "Feature", "properties": { "内容": "デイサービスセンター春日丘荘「彩の家」【認知症対応型通所介護】茨木市南春日丘7丁目11番48号", "url": "https://www.kaigokensaku.mhlw.go.jp/27/index.php?action_kouhyou_detail_004_kani=true&JigyosyoCd=2794200150-00&ServiceCd=720&Type=search", "url2": "http://www.kasugaoka.net/" }, "geometry": { "type": "Point", "coordinates": [ 135.5314717, 34.8212205 ] } },
{ "type": "Feature", "properties": { "内容": "共用型デイサービスコティ東彩都【認知症対応型通所介護】大阪府茨木市大字佐保２６６番地コティ東彩都", "url": "https://www.kaigokensaku.mhlw.go.jp/27/index.php?action_kouhyou_detail_004_kani=true&JigyosyoCd=2794200218-00&ServiceCd=720&Type=search", "url2": "http://www.fami-n.com/" }, "geometry": { "type": "Point", "coordinates": [ 135.5297616, 34.8625825 ] } },
{ "type": "Feature", "properties": { "内容": "デイサービス　悠久【認知症対応型通所介護】大阪府八尾市大字山畑１番地", "url": "https://www.kaigokensaku.mhlw.go.jp/27/index.php?action_kouhyou_detail_004_kani=true&JigyosyoCd=2795500087-00&ServiceCd=720&Type=search", "url2": "http://www.sakamotoiin-yao.or.jp" }, "geometry": { "type": "Point", "coordinates": [ 135.63891, 34.6293249 ] } },
{ "type": "Feature", "properties": { "内容": "デイサービスセンターつむぎ【認知症対応型通所介護】大阪府八尾市南本町3丁目5番37号Lifeつむぎ", "url": "https://www.kaigokensaku.mhlw.go.jp/27/index.php?action_kouhyou_detail_004_kani=true&JigyosyoCd=2795500368-00&ServiceCd=720&Type=search", "url2": "http://www.yaorinpokan.or.jp" }, "geometry": { "type": "Point", "coordinates": [ 135.606493699999987, 34.6231641 ] } },
{ "type": "Feature", "properties": { "内容": "通所介護事業デイサービスセンター　吉兆苑【認知症対応型通所介護】八尾市幸町六丁目33番地2", "url": "https://www.kaigokensaku.mhlw.go.jp/27/index.php?action_kouhyou_detail_004_kani=true&JigyosyoCd=2775500347-00&ServiceCd=720&Type=search", "url2": "http://www.kicchouen.com" }, "geometry": { "type": "Point", "coordinates": [ 135.606432, 34.6500555 ] } },
{ "type": "Feature", "properties": { "内容": "デイサービスセンター　サポートやお【認知症対応型通所介護】大阪府八尾市青山町４丁目４番１８号", "url": "https://www.kaigokensaku.mhlw.go.jp/27/index.php?action_kouhyou_detail_004_kani=true&JigyosyoCd=2775500685-00&ServiceCd=720&Type=search", "url2": "http://www.yaorinpokan.or.jp" }, "geometry": { "type": "Point", "coordinates": [ 135.611607099999986, 34.6219311 ] } },
{ "type": "Feature", "properties": { "内容": "認知症対応型デイサービスセンター高安の郷（山畑）【認知症対応型通所介護】大阪府八尾市大字山畑１００番の12", "url": "https://www.kaigokensaku.mhlw.go.jp/27/index.php?action_kouhyou_detail_004_kani=true&JigyosyoCd=2795500335-00&ServiceCd=720&Type=search", "url2": null }, "geometry": { "type": "Point", "coordinates": [ 135.638855986016637, 34.629645914631325 ] } },
{ "type": "Feature", "properties": { "内容": "グループホームアムリタ共用型デイサービス【認知症対応型通所介護】大阪府泉佐野市中町3丁目4番5号ジリタスジリタス3階", "url": "https://www.kaigokensaku.mhlw.go.jp/27/index.php?action_kouhyou_detail_004_kani=true&JigyosyoCd=2794500153-00&ServiceCd=720&Type=search", "url2": "http://www.sanokinen.jp" }, "geometry": { "type": "Point", "coordinates": [ 135.3160851, 34.4002084 ] } },
{ "type": "Feature", "properties": { "内容": "デイサービス和草花笑【認知症対応型通所介護】大阪府泉佐野市若宮町2-9リライフ阪南1階", "url": "https://www.kaigokensaku.mhlw.go.jp/27/index.php?action_kouhyou_detail_004_kani=true&JigyosyoCd=2794500179-00&ServiceCd=720&Type=search", "url2": "http://www.nicogusa.info" }, "geometry": { "type": "Point", "coordinates": [ 135.3158349, 34.4112132 ] } },
{ "type": "Feature", "properties": { "内容": "デイサービス和草【認知症対応型通所介護】大阪府泉佐野市鶴原２丁目4-18", "url": "https://www.kaigokensaku.mhlw.go.jp/27/index.php?action_kouhyou_detail_004_kani=true&JigyosyoCd=2794500021-00&ServiceCd=720&Type=search", "url2": null }, "geometry": { "type": "Point", "coordinates": [ 135.334792679762245, 34.428797986269849 ] } },
{ "type": "Feature", "properties": { "内容": "おたふく【認知症対応型通所介護】大阪府泉佐野市南中樫井698", "url": "https://www.kaigokensaku.mhlw.go.jp/27/index.php?action_kouhyou_detail_004_kani=true&JigyosyoCd=2794500047-00&ServiceCd=720&Type=search", "url2": null }, "geometry": { "type": "Point", "coordinates": [ 135.2909358, 34.3804033 ] } },
{ "type": "Feature", "properties": { "内容": "グループホーム栄公共用型デイサービス【認知症対応型通所介護】大阪府泉佐野市中町三丁目4番5号ジリタス高齢者複合施設ジリタス", "url": "https://www.kaigokensaku.mhlw.go.jp/27/index.php?action_kouhyou_detail_004_kani=true&JigyosyoCd=2794500112-00&ServiceCd=720&Type=search", "url2": "http://www.sanokinen.jp" }, "geometry": { "type": "Point", "coordinates": [ 135.316085099999981, 34.4002084 ] } },
{ "type": "Feature", "properties": { "内容": "株式会社　ビッグファミリー【認知症対応型通所介護】大阪府富田林市藤沢台六丁目14番28号", "url": "https://www.kaigokensaku.mhlw.go.jp/27/index.php?action_kouhyou_detail_004_kani=true&JigyosyoCd=2794900106-00&ServiceCd=720&Type=search", "url2": null }, "geometry": { "type": "Point", "coordinates": [ 135.572395991401663, 34.50876598139299 ] } },
{ "type": "Feature", "properties": { "内容": "十人笑学校デイサービス班【認知症対応型通所介護】大阪府富田林市寿町４－６－２７", "url": "https://www.kaigokensaku.mhlw.go.jp/27/index.php?action_kouhyou_detail_004_kani=true&JigyosyoCd=2774900563-00&ServiceCd=720&Type=search", "url2": "http://www.tonarisyo.com" }, "geometry": { "type": "Point", "coordinates": [ 135.5927421, 34.4995497 ] } },
{ "type": "Feature", "properties": { "内容": "ポジティブリーケア喜志の郷【認知症対応型通所介護】大阪府富田林市桜井町二丁目1835番地", "url": "https://www.kaigokensaku.mhlw.go.jp/27/index.php?action_kouhyou_detail_004_kani=true&JigyosyoCd=2794900296-00&ServiceCd=720&Type=search", "url2": "https://reborn-corp.com" }, "geometry": { "type": "Point", "coordinates": [ 135.6092641, 34.5186392 ] } },
{ "type": "Feature", "properties": { "内容": "医療法人和敬会　デイサービスセンターみなみ【認知症対応型通所介護】大阪府寝屋川市長栄寺町６－３８", "url": "https://www.kaigokensaku.mhlw.go.jp/27/index.php?action_kouhyou_detail_004_kani=true&JigyosyoCd=2770300180-00&ServiceCd=720&Type=search", "url2": "http://www.wakeikai.or.jp/" }, "geometry": { "type": "Point", "coordinates": [ 135.6125207, 34.765476 ] } },
{ "type": "Feature", "properties": { "内容": "医療法人協仁会こまつデイサービスセンター（認知症対応型通所介護）【認知症対応型通所介護】大阪府寝屋川市秦町３－８", "url": "https://www.kaigokensaku.mhlw.go.jp/27/index.php?action_kouhyou_detail_004_kani=true&JigyosyoCd=2790300053-00&ServiceCd=720&Type=search", "url2": "http://www.komatsu.or.jp" }, "geometry": { "type": "Point", "coordinates": [ 135.6326611, 34.7666482 ] } },
{ "type": "Feature", "properties": { "内容": "デイホーム　スリーハートの丘【認知症対応型通所介護】大阪府河内長野市上原町554番地", "url": "https://www.kaigokensaku.mhlw.go.jp/27/index.php?action_kouhyou_detail_004_kani=true&JigyosyoCd=2790700229-00&ServiceCd=720&Type=search", "url2": "http://naganozaidan.jp/" }, "geometry": { "type": "Point", "coordinates": [ 135.555270800000017, 34.4456417 ] } },
{ "type": "Feature", "properties": { "内容": "寿里苑フルールデイサービスセンター【認知症対応型通所介護】河内長野市南青葉台6-15", "url": "https://www.kaigokensaku.mhlw.go.jp/27/index.php?action_kouhyou_detail_004_kani=true&JigyosyoCd=2790700153-00&ServiceCd=720&Type=search", "url2": "http://www.julien.or.jp" }, "geometry": { "type": "Point", "coordinates": [ 135.568247081475874, 34.416726784962243 ] } },
{ "type": "Feature", "properties": { "内容": "グレイスガーデン【認知症対応型通所介護】大阪府河内長野市小山田町５３５６－１", "url": "https://www.kaigokensaku.mhlw.go.jp/27/index.php?action_kouhyou_detail_004_kani=true&JigyosyoCd=2790700120-00&ServiceCd=720&Type=search", "url2": "https://grace-garden.crayonsite.com" }, "geometry": { "type": "Point", "coordinates": [ 135.548174, 34.4691301 ] } },
{ "type": "Feature", "properties": { "内容": "デイサービスセンターあかしあ【認知症対応型通所介護】大阪府河内長野市あかしあ台2丁目6番15号", "url": "https://www.kaigokensaku.mhlw.go.jp/27/index.php?action_kouhyou_detail_004_kani=true&JigyosyoCd=2770700520-00&ServiceCd=720&Type=search", "url2": "http://www.aoyama-med.gr.jp/ontoku-welfare/akashia/" }, "geometry": { "type": "Point", "coordinates": [ 135.553534219528473, 34.467259027860997 ] } },
{ "type": "Feature", "properties": { "内容": "寿里苑輝デイサービスセンター【認知症対応型通所介護】大阪府河内長野市小山田町448番地の2", "url": "https://www.kaigokensaku.mhlw.go.jp/27/index.php?action_kouhyou_detail_004_kani=true&JigyosyoCd=2790700013-00&ServiceCd=720&Type=search", "url2": "http://www.julien.or.jp" }, "geometry": { "type": "Point", "coordinates": [ 135.553021299999955, 34.451821 ] } },
{ "type": "Feature", "properties": { "内容": "デイサービス　花すいせん【認知症対応型通所介護】大阪府河内長野市木戸西町一丁目９番５１号千代田グリーンハイツ1階", "url": "https://www.kaigokensaku.mhlw.go.jp/27/index.php?action_kouhyou_detail_004_kani=true&JigyosyoCd=2790700070-00&ServiceCd=720&Type=search", "url2": "http://www.eonet.ne.jp/~suzuran-ran/" }, "geometry": { "type": "Point", "coordinates": [ 135.569030600000019, 34.463931 ] } },
{ "type": "Feature", "properties": { "内容": "デイサービスらん【認知症対応型通所介護】大阪府河内長野市原町３－５－２１", "url": "https://www.kaigokensaku.mhlw.go.jp/27/index.php?action_kouhyou_detail_004_kani=true&JigyosyoCd=2790700088-00&ServiceCd=720&Type=search", "url2": "http://www.eonet.ne.jp/~suzuran-ran/suzuran/" }, "geometry": { "type": "Point", "coordinates": [ 135.565364300000027, 34.4618062 ] } },
{ "type": "Feature", "properties": { "内容": "デイサービスセンターレユーナの家【認知症対応型通所介護】大阪府松原市阿保3-15-5", "url": "https://www.kaigokensaku.mhlw.go.jp/27/index.php?action_kouhyou_detail_004_kani=true&JigyosyoCd=2774800169-00&ServiceCd=720&Type=search", "url2": "http://www.shoutokukai.net" }, "geometry": { "type": "Point", "coordinates": [ 135.5548284, 34.5793033 ] } },
{ "type": "Feature", "properties": { "内容": "デイサービス　ごりょうの家【認知症対応型通所介護】大阪府大東市御領3丁目12番48号", "url": "https://www.kaigokensaku.mhlw.go.jp/27/index.php?action_kouhyou_detail_004_kani=true&JigyosyoCd=2791900208-00&ServiceCd=720&Type=search", "url2": "http://kawafukukai.or.jp" }, "geometry": { "type": "Point", "coordinates": [ 135.610433300000068, 34.7197875 ] } },
{ "type": "Feature", "properties": { "内容": "慶生会ゆったりデイサービス野崎【認知症対応型通所介護】大阪府大東市野崎3丁目12-1特別養護老人ホーム　和光苑", "url": "https://www.kaigokensaku.mhlw.go.jp/27/index.php?action_kouhyou_detail_004_kani=true&JigyosyoCd=2791900083-00&ServiceCd=720&Type=search", "url2": "http://www.kyouseikai.org/" }, "geometry": { "type": "Point", "coordinates": [ 135.645719, 34.7151544 ] } },
{ "type": "Feature", "properties": { "内容": "愛の家デイサービス箕面稲【認知症対応型通所介護】大阪府箕面市稲５－４－４５", "url": "https://www.kaigokensaku.mhlw.go.jp/27/index.php?action_kouhyou_detail_004_kani=true&JigyosyoCd=2791400290-00&ServiceCd=720&Type=search", "url2": "https://mcs-ainoie.com/search/osaka/minohshi/gh308/" }, "geometry": { "type": "Point", "coordinates": [ 135.481398, 34.8228698 ] } },
{ "type": "Feature", "properties": { "内容": "白島荘グループホーム「華の家」デイサービス【認知症対応型通所介護】大阪府箕面市白島三丁目５番５０号", "url": "https://www.kaigokensaku.mhlw.go.jp/27/index.php?action_kouhyou_detail_004_kani=true&JigyosyoCd=2791400027-00&ServiceCd=720&Type=search", "url2": "http://www.osj.or.jp/hakushima/" }, "geometry": { "type": "Point", "coordinates": [ 135.49074858465579, 34.838999676784361 ] } },
{ "type": "Feature", "properties": { "内容": "デイサービスセンターアリス箕面【認知症対応型通所介護】大阪府箕面市稲５－２－４０", "url": "https://www.kaigokensaku.mhlw.go.jp/27/index.php?action_kouhyou_detail_004_kani=true&JigyosyoCd=2791400100-00&ServiceCd=720&Type=search", "url2": "http://www.toyonakafamily.jp/Mino/" }, "geometry": { "type": "Point", "coordinates": [ 135.480728799999952, 34.8233946 ] } },
{ "type": "Feature", "properties": { "内容": "salon二虹-nico-【認知症対応型通所介護】大阪府箕面市彩都粟生南2丁目16番23号", "url": "https://www.kaigokensaku.mhlw.go.jp/27/index.php?action_kouhyou_detail_004_kani=true&JigyosyoCd=2791400316-00&ServiceCd=720&Type=search", "url2": "https://saika-nico.jp" }, "geometry": { "type": "Point", "coordinates": [ 135.519592892590339, 34.848459068571799 ] } },
{ "type": "Feature", "properties": { "内容": "四天王寺悲田院デイセンター【認知症対応型通所介護】羽曳野市学園前6-1-1", "url": "https://www.kaigokensaku.mhlw.go.jp/27/index.php?action_kouhyou_detail_004_kani=true&JigyosyoCd=2773800202-00&ServiceCd=720&Type=search", "url2": "http://www.shitennouji-fukushi.jp/" }, "geometry": { "type": "Point", "coordinates": [ 135.584641899999951, 34.5482521 ] } },
{ "type": "Feature", "properties": { "内容": "けいはん医療生活共同組合　デイサービスセンターにじ【認知症対応型通所介護】門真市城垣町2-33", "url": "https://www.kaigokensaku.mhlw.go.jp/27/index.php?action_kouhyou_detail_004_kani=true&JigyosyoCd=2792600054-00&ServiceCd=720&Type=search", "url2": "http://www.keihan-healthcoop.net/" }, "geometry": { "type": "Point", "coordinates": [ 135.613410199999947, 34.7418428 ] } },
{ "type": "Feature", "properties": { "内容": "デイサービスセンター大和田ちどり【認知症対応型通所介護】大阪府門真市野里町26番17号", "url": "https://www.kaigokensaku.mhlw.go.jp/27/index.php?action_kouhyou_detail_004_kani=true&JigyosyoCd=2792600039-00&ServiceCd=720&Type=search", "url2": "http://www.chidori.or.jp" }, "geometry": { "type": "Point", "coordinates": [ 135.604797100000042, 34.7398177 ] } },
{ "type": "Feature", "properties": { "内容": "摂津いやし園デイサービスセンターいずみ【認知症対応型通所介護】大阪府摂津市鳥飼下１－１３－１５", "url": "https://www.kaigokensaku.mhlw.go.jp/27/index.php?action_kouhyou_detail_004_kani=true&JigyosyoCd=2773700634-00&ServiceCd=720&Type=search", "url2": "https://iyashien.com" }, "geometry": { "type": "Point", "coordinates": [ 135.587708900000052, 34.7761129 ] } },
{ "type": "Feature", "properties": { "内容": "きりんデイサービスセンター【認知症対応型通所介護】大阪府摂津市千里丘3丁目16番7号", "url": "https://www.kaigokensaku.mhlw.go.jp/27/index.php?action_kouhyou_detail_004_kani=true&JigyosyoCd=2773700600-00&ServiceCd=720&Type=search", "url2": "https://swc-seikouen.jp/settsu-sakuraen" }, "geometry": { "type": "Point", "coordinates": [ 135.545151510127539, 34.78922654781568 ] } },
{ "type": "Feature", "properties": { "内容": "認知症対応型デイサービスセンターせっつ桜苑【認知症対応型通所介護】大阪府摂津市桜町1丁目1番11号せっつ桜苑", "url": "https://www.kaigokensaku.mhlw.go.jp/27/index.php?action_kouhyou_detail_004_kani=true&JigyosyoCd=2793700044-00&ServiceCd=720&Type=search", "url2": "https://swc-seikouen.jp/settsu-sakuraen/" }, "geometry": { "type": "Point", "coordinates": [ 135.56016969999996, 34.7884856 ] } },
{ "type": "Feature", "properties": { "内容": "社会福祉法人　光摂会　デイサービスたんぽぽ【認知症対応型通所介護】大阪府摂津市千里丘東5丁目12番6-4", "url": "https://www.kaigokensaku.mhlw.go.jp/27/index.php?action_kouhyou_detail_004_kani=true&JigyosyoCd=2793700143-00&ServiceCd=720&Type=search", "url2": null }, "geometry": { "type": "Point", "coordinates": [ 135.547663699999987, 34.7835528 ] } },
{ "type": "Feature", "properties": { "内容": "ＮＰＯ法人せかんどデイサービス高石【認知症対応型通所介護】大阪府高石市高師浜1-8-51", "url": "https://www.kaigokensaku.mhlw.go.jp/27/index.php?action_kouhyou_detail_004_kani=true&JigyosyoCd=2795300025-00&ServiceCd=720&Type=search", "url2": "http://www.npo-2nd.com/" }, "geometry": { "type": "Point", "coordinates": [ 135.436872200000039, 34.5269637 ] } },
{ "type": "Feature", "properties": { "内容": "よりそいデイサービス　あおやま　北條店【認知症対応型通所介護】大阪府藤井寺市北條町11-51", "url": "https://www.kaigokensaku.mhlw.go.jp/27/index.php?action_kouhyou_detail_004_kani=true&JigyosyoCd=2793400116-00&ServiceCd=720&Type=search", "url2": "http://www.aoyama-med.gr.jp/medical-rapport/care/yorisoi/" }, "geometry": { "type": "Point", "coordinates": [ 135.619675657672104, 34.578924592532715 ] } },
{ "type": "Feature", "properties": { "内容": "グループホーム香寿庵【認知症対応型通所介護】大阪府東大阪市稲田新町1-10-1グループホーム香寿庵", "url": "https://www.kaigokensaku.mhlw.go.jp/27/index.php?action_kouhyou_detail_004_kani=true&JigyosyoCd=2775002542-00&ServiceCd=720&Type=search", "url2": "https://yoshijukai.or.jp/kojuan/" }, "geometry": { "type": "Point", "coordinates": [ 135.58360110000001, 34.6894864 ] } },
{ "type": "Feature", "properties": { "内容": "デイサービスみんなの家・福ちゃん【認知症対応型通所介護】大阪府東大阪市六万寺町１丁目１４番地２０号", "url": "https://www.kaigokensaku.mhlw.go.jp/27/index.php?action_kouhyou_detail_004_kani=true&JigyosyoCd=2795000583-00&ServiceCd=720&Type=search", "url2": "https://community-house-yume.com/" }, "geometry": { "type": "Point", "coordinates": [ 135.647432400000014, 34.6513754 ] } },
{ "type": "Feature", "properties": { "内容": "認知症対応型デイサービス　ソラスト八戸ノ里【認知症対応型通所介護】大阪府東大阪市小阪3丁目6番9号", "url": "https://www.kaigokensaku.mhlw.go.jp/27/index.php?action_kouhyou_detail_004_kani=true&JigyosyoCd=2795000096-00&ServiceCd=720&Type=search", "url2": "https://solasto-kaigo.com/care/area/solastoyaenosato.html" }, "geometry": { "type": "Point", "coordinates": [ 135.592256102515194, 34.663659362404665 ] } },
{ "type": "Feature", "properties": { "内容": "デイサービスセンター上小阪【認知症対応型通所介護】大阪府東大阪市長瀬町1-7-7", "url": "https://www.kaigokensaku.mhlw.go.jp/27/index.php?action_kouhyou_detail_004_kani=true&JigyosyoCd=2795000013-00&ServiceCd=720&Type=search", "url2": "http://iseikyoukawachino.jp/kawachino/" }, "geometry": { "type": "Point", "coordinates": [ 135.576331027187507, 34.651210985145426 ] } },
{ "type": "Feature", "properties": { "内容": "医療福祉生協おおさか　デイサ－ビスセンタ－加納【認知症対応型通所介護】大阪府東大阪市加納3-4-4", "url": "https://www.kaigokensaku.mhlw.go.jp/27/index.php?action_kouhyou_detail_004_kani=true&JigyosyoCd=2795000237-00&ServiceCd=720&Type=search", "url2": null }, "geometry": { "type": "Point", "coordinates": [ 135.623998734726001, 34.693413645433765 ] } },
{ "type": "Feature", "properties": { "内容": "みのわの里デイサービスセンター【認知症対応型通所介護】大阪府東大阪市古箕輪1-3-28", "url": "https://www.kaigokensaku.mhlw.go.jp/27/index.php?action_kouhyou_detail_004_kani=true&JigyosyoCd=2775000967-00&ServiceCd=720&Type=search", "url2": "https://www.kawafukukai.or.jp/" }, "geometry": { "type": "Point", "coordinates": [ 135.616586577909885, 34.685934144988565 ] } },
{ "type": "Feature", "properties": { "内容": "布市福寿苑デイサービスセンター【認知症対応型通所介護】東大阪市布市町2-12-2", "url": "https://www.kaigokensaku.mhlw.go.jp/27/index.php?action_kouhyou_detail_004_kani=true&JigyosyoCd=2775002294-00&ServiceCd=720&Type=search", "url2": "http://kawafukukai.jp/" }, "geometry": { "type": "Point", "coordinates": [ 135.639469700000063, 34.6945704 ] } },
{ "type": "Feature", "properties": { "内容": "デイサービスセンター　千寿園【認知症対応型通所介護】東大阪市南荘町１３番３８号", "url": "https://www.kaigokensaku.mhlw.go.jp/27/index.php?action_kouhyou_detail_004_kani=true&JigyosyoCd=2775001924-00&ServiceCd=720&Type=search", "url2": null }, "geometry": { "type": "Point", "coordinates": [ 135.645580600000017, 34.674723 ] } },
{ "type": "Feature", "properties": { "内容": "アーバンケア稲田デイサービスセンター【認知症対応型通所介護】東大阪市稲田新町１丁目１０番１号", "url": "https://www.kaigokensaku.mhlw.go.jp/27/index.php?action_kouhyou_detail_004_kani=true&JigyosyoCd=2775001866-00&ServiceCd=720&Type=search", "url2": "http://yoshijukai.or.jp/" }, "geometry": { "type": "Point", "coordinates": [ 135.583547400000043, 34.689226 ] } },
{ "type": "Feature", "properties": { "内容": "アーバンケア島之内　デイサービスセンター【認知症対応型通所介護】東大阪市吉田本町１丁目１０番１３号", "url": "https://www.kaigokensaku.mhlw.go.jp/27/index.php?action_kouhyou_detail_004_kani=true&JigyosyoCd=2775001122-00&ServiceCd=720&Type=search", "url2": "https://urban-shimanouchi.com/" }, "geometry": { "type": "Point", "coordinates": [ 135.6212577, 34.6753 ] } },
{ "type": "Feature", "properties": { "内容": "アンパス東大阪デイサービスセンター【認知症対応型通所介護】大阪府東大阪市若江南町３丁目７番７号", "url": "https://www.kaigokensaku.mhlw.go.jp/27/index.php?action_kouhyou_detail_004_kani=true&JigyosyoCd=2775001403-00&ServiceCd=720&Type=search", "url2": "http://www.unpas-higashiosaka.com/" }, "geometry": { "type": "Point", "coordinates": [ 135.600129700000025, 34.6541689 ] } },
{ "type": "Feature", "properties": { "内容": "フォレストガーデン　デイサービスくさか【認知症対応型通所介護】大阪府東大阪市日下町３丁目７番１４号", "url": "https://www.kaigokensaku.mhlw.go.jp/27/index.php?action_kouhyou_detail_004_kani=true&JigyosyoCd=2795000625-00&ServiceCd=720&Type=search", "url2": "http:/care-net.biz/27/hakujyukai/" }, "geometry": { "type": "Point", "coordinates": [ 135.645640599999979, 34.6930942 ] } },
{ "type": "Feature", "properties": { "内容": "共用型デイ　ときめき苑【認知症対応型通所介護】大阪府東大阪市御厨東2丁目2-23", "url": "https://www.kaigokensaku.mhlw.go.jp/27/index.php?action_kouhyou_detail_004_kani=true&JigyosyoCd=2795001631-00&ServiceCd=720&Type=search", "url2": "https://genkinakaigo.co.jp/" }, "geometry": { "type": "Point", "coordinates": [ 135.595430599999986, 34.6659808 ] } },
{ "type": "Feature", "properties": { "内容": "共用デイあいおいホーム【認知症対応型通所介護】大阪府東大阪市大蓮北２－１－２２", "url": "https://www.kaigokensaku.mhlw.go.jp/27/index.php?action_kouhyou_detail_004_kani=true&JigyosyoCd=2795000401-00&ServiceCd=720&Type=search", "url2": "https://sinsir.jp/aioihome/" }, "geometry": { "type": "Point", "coordinates": [ 135.5741497, 34.63700970000005 ] } },
{ "type": "Feature", "properties": { "内容": "認知症対応型　デイサービス三ノ瀬【認知症対応型通所介護】大阪府東大阪市三ノ瀬１-９-３", "url": "https://www.kaigokensaku.mhlw.go.jp/27/index.php?action_kouhyou_detail_004_kani=true&JigyosyoCd=2795000633-00&ServiceCd=720&Type=search", "url2": "http://ｗｗｗ.o-kskk.jp" }, "geometry": { "type": "Point", "coordinates": [ 135.564317499999987, 34.6582457 ] } },
{ "type": "Feature", "properties": { "内容": "デイサービスセンター平和苑【認知症対応型通所介護】大阪府泉南市樽井１－６－１", "url": "https://www.kaigokensaku.mhlw.go.jp/27/index.php?action_kouhyou_detail_004_kani=true&JigyosyoCd=2795600168-00&ServiceCd=720&Type=search", "url2": "http://heartlink.vapteq.com/group_dayservice_heiwaen/#dayservice" }, "geometry": { "type": "Point", "coordinates": [ 135.2714196, 34.3680771 ] } },
{ "type": "Feature", "properties": { "内容": "グループホームさやまの里【認知症対応型通所介護】大阪府大阪狭山市岩室2丁目１８５の１１", "url": "https://www.kaigokensaku.mhlw.go.jp/27/index.php?action_kouhyou_detail_004_kani=true&JigyosyoCd=2799300021-00&ServiceCd=720&Type=search", "url2": "http://sayama.or.jp/" }, "geometry": { "type": "Point", "coordinates": [ 135.5403243, 34.5035787 ] } },
{ "type": "Feature", "properties": { "内容": "おうちカフェ　まぁるまる【認知症対応型通所介護】大阪府大阪狭山市半田５－２０３－９", "url": "https://www.kaigokensaku.mhlw.go.jp/27/index.php?action_kouhyou_detail_004_kani=true&JigyosyoCd=2799300070-00&ServiceCd=720&Type=search", "url2": "http://maarumaru.com" }, "geometry": { "type": "Point", "coordinates": [ 135.555252399999972, 34.4938683 ] } },
{ "type": "Feature", "properties": { "内容": "デイハウス花花【認知症対応型通所介護】大阪府大阪狭山市東野西１丁目７１３番地の６", "url": "https://www.kaigokensaku.mhlw.go.jp/27/index.php?action_kouhyou_detail_004_kani=true&JigyosyoCd=2799300013-00&ServiceCd=720&Type=search", "url2": null }, "geometry": { "type": "Point", "coordinates": [ 135.55645329999993, 34.520905 ] } },
{ "type": "Feature", "properties": { "内容": "デイ介護サービスリブ【認知症対応型通所介護】大阪府阪南市鳥取461", "url": "https://www.kaigokensaku.mhlw.go.jp/27/index.php?action_kouhyou_detail_004_kani=true&JigyosyoCd=2799500034-00&ServiceCd=720&Type=search", "url2": "http://www.hannan-live-love-life.com/" }, "geometry": { "type": "Point", "coordinates": [ 135.233053599475056, 34.350197668957456 ] } },
{ "type": "Feature", "properties": { "内容": "リビング・ホーム祥雲館すみれ【認知症対応型通所介護】大阪府豊能郡豊能町ときわ台2-15-2", "url": "https://www.kaigokensaku.mhlw.go.jp/27/index.php?action_kouhyou_detail_004_kani=true&JigyosyoCd=2794700050-00&ServiceCd=720&Type=search", "url2": "http://syownkan.jp" }, "geometry": { "type": "Point", "coordinates": [ 135.437669799999981, 34.8992122 ] } },
{ "type": "Feature", "properties": { "内容": "しなぷすほーぷ【認知症対応型通所介護】大阪府泉南郡熊取町希望が丘１丁目１８番２３号", "url": "https://www.kaigokensaku.mhlw.go.jp/27/index.php?action_kouhyou_detail_004_kani=true&JigyosyoCd=2791200146-00&ServiceCd=720&Type=search", "url2": null }, "geometry": { "type": "Point", "coordinates": [ 135.3626572, 34.401732799999984 ] } },
{ "type": "Feature", "properties": { "内容": "デイサービスののか【認知症対応型通所介護】大阪府泉南郡岬町淡輪１５８８", "url": "https://www.kaigokensaku.mhlw.go.jp/27/index.php?action_kouhyou_detail_004_kani=true&JigyosyoCd=2791200104-00&ServiceCd=720&Type=search", "url2": null }, "geometry": { "type": "Point", "coordinates": [ 135.1807629, 34.3289412 ] } }
]
}
