{
"type": "FeatureCollection",
"name": "geo_27_小規模多機能型居宅介護",
"crs": { "type": "name", "properties": { "name": "urn:ogc:def:crs:OGC:1.3:CRS84" } },
"features": [
{ "type": "Feature", "properties": { "内容": "小規模多機能　沙羅の樹【小規模多機能型居宅介護】大阪府大阪市都島区毛馬町５丁目１９－２６", "url": "https://www.kaigokensaku.mhlw.go.jp/27/index.php?action_kouhyou_detail_004_kani=true&JigyosyoCd=2795200050-00&ServiceCd=730&Type=search", "url2": "http://www.sarasso.jp/saranoki/" }, "geometry": { "type": "Point", "coordinates": [ 135.522371300000032, 34.7261651 ] } },
{ "type": "Feature", "properties": { "内容": "愛の家小規模多機能型居宅介護大阪都島中通【小規模多機能型居宅介護】大阪府大阪市都島中通2丁目20番30号", "url": "https://www.kaigokensaku.mhlw.go.jp/27/index.php?action_kouhyou_detail_004_kani=true&JigyosyoCd=2795200035-00&ServiceCd=730&Type=search", "url2": "http://www.mcsg.co.jp" }, "geometry": { "type": "Point", "coordinates": [ 135.531073600000013, 34.7047483 ] } },
{ "type": "Feature", "properties": { "内容": "小規模多機能居宅介護　パル都島【小規模多機能型居宅介護】大阪府大阪市都島区御幸町2丁目13番9号", "url": "https://www.kaigokensaku.mhlw.go.jp/27/index.php?action_kouhyou_detail_004_kani=true&JigyosyoCd=2795200175-00&ServiceCd=730&Type=search", "url2": "https://www.palcoop.or.jp/au_serv/fukushi/fukushi_sisetu.html" }, "geometry": { "type": "Point", "coordinates": [ 135.534572207298396, 34.717843181297766 ] } },
{ "type": "Feature", "properties": { "内容": "おひさま小規模多機能【小規模多機能型居宅介護】大阪府大阪市福島区大開３丁目６番４号フローラ二番館", "url": "https://www.kaigokensaku.mhlw.go.jp/27/index.php?action_kouhyou_detail_004_kani=true&JigyosyoCd=2790200063-00&ServiceCd=730&Type=search", "url2": "http://ohisama-flora.com/flora2.html" }, "geometry": { "type": "Point", "coordinates": [ 135.466912699999966, 34.6926258 ] } },
{ "type": "Feature", "properties": { "内容": "小規模多機能型居宅介護アルモニー此花【小規模多機能型居宅介護】大阪市此花区酉島6丁目1番64号", "url": "https://www.kaigokensaku.mhlw.go.jp/27/index.php?action_kouhyou_detail_004_kani=true&JigyosyoCd=2792800076-00&ServiceCd=730&Type=search", "url2": "https://honami.or.jp/" }, "geometry": { "type": "Point", "coordinates": [ 135.4373292586194, 34.683234613996945 ] } },
{ "type": "Feature", "properties": { "内容": "ラヴィータトレ【小規模多機能型居宅介護】大阪府大阪市此花区西九条2-15-6", "url": "https://www.kaigokensaku.mhlw.go.jp/27/index.php?action_kouhyou_detail_004_kani=true&JigyosyoCd=2792800043-00&ServiceCd=730&Type=search", "url2": "https://lavita-syafuku.com" }, "geometry": { "type": "Point", "coordinates": [ 135.462727399999949, 34.6792412 ] } },
{ "type": "Feature", "properties": { "内容": "小規模多機能しおさいの家【小規模多機能型居宅介護】大阪府大阪市港区磯路3-3-26介護複合型施設いそじ　２F", "url": "https://www.kaigokensaku.mhlw.go.jp/27/index.php?action_kouhyou_detail_004_kani=true&JigyosyoCd=2790400150-00&ServiceCd=730&Type=search", "url2": "https://osaka-kizugawa.coop/" }, "geometry": { "type": "Point", "coordinates": [ 135.458524899999986, 34.6642966 ] } },
{ "type": "Feature", "properties": { "内容": "小規模多機能あおぞら【小規模多機能型居宅介護】大阪市港区三先１丁目１－１９", "url": "https://www.kaigokensaku.mhlw.go.jp/27/index.php?action_kouhyou_detail_004_kani=true&JigyosyoCd=2790400028-00&ServiceCd=730&Type=search", "url2": "http://kaigo-aozora.jpn.org/" }, "geometry": { "type": "Point", "coordinates": [ 135.4556758, 34.6619653 ] } },
{ "type": "Feature", "properties": { "内容": "小規模多機能型居宅介護サンぽっぽ【小規模多機能型居宅介護】大阪府大阪市大正区小林東三丁目5番22号", "url": "https://www.kaigokensaku.mhlw.go.jp/27/index.php?action_kouhyou_detail_004_kani=true&JigyosyoCd=2792700078-00&ServiceCd=730&Type=search", "url2": "http://santel.jp" }, "geometry": { "type": "Point", "coordinates": [ 135.47121089999996, 34.6465537 ] } },
{ "type": "Feature", "properties": { "内容": "小規模多機能型居宅介護　サンぽっぽ北村【小規模多機能型居宅介護】大阪府大阪市大正区北村2－13－2", "url": "https://www.kaigokensaku.mhlw.go.jp/27/index.php?action_kouhyou_detail_004_kani=true&JigyosyoCd=2792700250-00&ServiceCd=730&Type=search", "url2": "http://santel.jp" }, "geometry": { "type": "Point", "coordinates": [ 135.466465, 34.652086099999984 ] } },
{ "type": "Feature", "properties": { "内容": "小規模多機能にじの家【小規模多機能型居宅介護】大阪府大阪市大正区千島１－２０－１２３F", "url": "https://www.kaigokensaku.mhlw.go.jp/27/index.php?action_kouhyou_detail_004_kani=true&JigyosyoCd=2792700144-00&ServiceCd=730&Type=search", "url2": null }, "geometry": { "type": "Point", "coordinates": [ 135.47330779999993, 34.6535224 ] } },
{ "type": "Feature", "properties": { "内容": "パナソニックエイジフリーケアセンター大阪上本町・小規模多機能【小規模多機能型居宅介護】大阪府大阪市天王寺区堂ヶ芝２丁目９－１", "url": "https://www.kaigokensaku.mhlw.go.jp/27/index.php?action_kouhyou_detail_004_kani=true&JigyosyoCd=2791700095-00&ServiceCd=730&Type=search", "url2": "http://panasonic.co.jp/es/pesaf/" }, "geometry": { "type": "Point", "coordinates": [ 135.526616699999977, 34.6609462 ] } },
{ "type": "Feature", "properties": { "内容": "小規模多機能型居宅介護アルモニー西淀川大野【小規模多機能型居宅介護】大阪市西淀川区大野１丁目１１番２４号", "url": "https://www.kaigokensaku.mhlw.go.jp/27/index.php?action_kouhyou_detail_004_kani=true&JigyosyoCd=2791000041-00&ServiceCd=730&Type=search", "url2": "https://honami.or.jp/" }, "geometry": { "type": "Point", "coordinates": [ 135.438914899999986, 34.7040542 ] } },
{ "type": "Feature", "properties": { "内容": "小規模多機能ホームグランデ【小規模多機能型居宅介護】大阪府大阪市西淀川区花川2丁目10-28", "url": "https://www.kaigokensaku.mhlw.go.jp/27/index.php?action_kouhyou_detail_004_kani=true&JigyosyoCd=2791000058-00&ServiceCd=730&Type=search", "url2": "http://honobono-gr.com" }, "geometry": { "type": "Point", "coordinates": [ 135.4661777, 34.7089381 ] } },
{ "type": "Feature", "properties": { "内容": "クオレ多機能ホーム　まごころの家【小規模多機能型居宅介護】大阪府大阪市西淀川区福町2-4-8ゆいまーる福　1階", "url": "https://www.kaigokensaku.mhlw.go.jp/27/index.php?action_kouhyou_detail_004_kani=true&JigyosyoCd=2791000223-00&ServiceCd=730&Type=search", "url2": "https://www.cuores.com/" }, "geometry": { "type": "Point", "coordinates": [ 135.4416639, 34.6984423 ] } },
{ "type": "Feature", "properties": { "内容": "エルケア株式会社エルケアローズガーデン新大阪【小規模多機能型居宅介護】大阪府大阪市東淀川区東中島1－7－23", "url": "https://www.kaigokensaku.mhlw.go.jp/27/index.php?action_kouhyou_detail_004_kani=true&JigyosyoCd=2793000072-00&ServiceCd=730&Type=search", "url2": "https://www.l-care.jp/" }, "geometry": { "type": "Point", "coordinates": [ 135.503214699999944, 34.7289337 ] } },
{ "type": "Feature", "properties": { "内容": "小規模多機能型居宅介護　ここから上新庄【小規模多機能型居宅介護】大阪府大阪市東淀川区豊新4-18-7", "url": "https://www.kaigokensaku.mhlw.go.jp/27/index.php?action_kouhyou_detail_004_kani=true&JigyosyoCd=2793000171-00&ServiceCd=730&Type=search", "url2": "http://www.cocokaragp.com/kamishinjosyokibo/" }, "geometry": { "type": "Point", "coordinates": [ 135.535724924467445, 34.745407439516633 ] } },
{ "type": "Feature", "properties": { "内容": "小規模多機能ホーム　あす～る豊新【小規模多機能型居宅介護】大阪府大阪市東淀川区豊新5丁目15-2", "url": "https://www.kaigokensaku.mhlw.go.jp/27/index.php?action_kouhyou_detail_004_kani=true&JigyosyoCd=2793000148-00&ServiceCd=730&Type=search", "url2": "http://azul.or.jp" }, "geometry": { "type": "Point", "coordinates": [ 135.535539299999982, 34.7467213 ] } },
{ "type": "Feature", "properties": { "内容": "医療福祉生協おおさか小規模多機能施設なないろの家【小規模多機能型居宅介護】大阪府大阪市東淀川区西淡路5-11-11", "url": "https://www.kaigokensaku.mhlw.go.jp/27/index.php?action_kouhyou_detail_004_kani=true&JigyosyoCd=2793000106-00&ServiceCd=730&Type=search", "url2": "http://www.yodogawa-med.or.jp" }, "geometry": { "type": "Point", "coordinates": [ 135.513308, 34.74356 ] } },
{ "type": "Feature", "properties": { "内容": "小規模多機能型居宅介護　ハミングベル緑橋【小規模多機能型居宅介護】大阪府大阪市東成区中本1-11-1", "url": "https://www.kaigokensaku.mhlw.go.jp/27/index.php?action_kouhyou_detail_004_kani=true&JigyosyoCd=2791500065-00&ServiceCd=730&Type=search", "url2": "http://www.humming-bell.or.jp/" }, "geometry": { "type": "Point", "coordinates": [ 135.543664700000022, 34.6813508 ] } },
{ "type": "Feature", "properties": { "内容": "エルケア株式会社エルケアローズガーデン生野小路【小規模多機能型居宅介護】大阪府大阪市生野区小路東5-10-1", "url": "https://www.kaigokensaku.mhlw.go.jp/27/index.php?action_kouhyou_detail_004_kani=true&JigyosyoCd=2792200251-00&ServiceCd=730&Type=search", "url2": "https://www.l-care.jp/" }, "geometry": { "type": "Point", "coordinates": [ 135.56044401725012, 34.656928160765766 ] } },
{ "type": "Feature", "properties": { "内容": "多機能サービス生野南いらか【小規模多機能型居宅介護】大阪府大阪市生野区田島6丁目１３－４", "url": "https://www.kaigokensaku.mhlw.go.jp/27/index.php?action_kouhyou_detail_004_kani=true&JigyosyoCd=2792200186-00&ServiceCd=730&Type=search", "url2": "http://www.sansyukai.jp" }, "geometry": { "type": "Point", "coordinates": [ 135.5423075, 34.6417638 ] } },
{ "type": "Feature", "properties": { "内容": "よろがぢ【小規模多機能型居宅介護】大阪市生野区鶴橋２－１５－２８", "url": "https://www.kaigokensaku.mhlw.go.jp/27/index.php?action_kouhyou_detail_004_kani=true&JigyosyoCd=2792200038-00&ServiceCd=730&Type=search", "url2": "http://www.pada.or.jp/" }, "geometry": { "type": "Point", "coordinates": [ 135.5331993, 34.662683200000032 ] } },
{ "type": "Feature", "properties": { "内容": "ヒューマンライフケア生野の宿【小規模多機能型居宅介護】大阪府大阪市生野区小路2-2-2", "url": "https://www.kaigokensaku.mhlw.go.jp/27/index.php?action_kouhyou_detail_004_kani=true&JigyosyoCd=2792200319-00&ServiceCd=730&Type=search", "url2": "https://kaigo.human-lifecare.jp/facilities/sh013_Ikuno/summary.html" }, "geometry": { "type": "Point", "coordinates": [ 135.5526719, 34.6611562 ] } },
{ "type": "Feature", "properties": { "内容": "小規模多機能型居宅介護なごみ【小規模多機能型居宅介護】大阪府大阪市旭区生江2-4-16", "url": "https://www.kaigokensaku.mhlw.go.jp/27/index.php?action_kouhyou_detail_004_kani=true&JigyosyoCd=2793100096-00&ServiceCd=730&Type=search", "url2": "https://health-coop.jp/pub/" }, "geometry": { "type": "Point", "coordinates": [ 135.535664699999984, 34.7253905 ] } },
{ "type": "Feature", "properties": { "内容": "愛の家小規模多機能型居宅介護大阪城東中央【小規模多機能型居宅介護】大阪府大阪市城東区中央2-8-12愛の家大阪城東中央", "url": "https://www.kaigokensaku.mhlw.go.jp/27/index.php?action_kouhyou_detail_004_kani=true&JigyosyoCd=2794400115-00&ServiceCd=730&Type=search", "url2": "http://www.mcsg.co.jp" }, "geometry": { "type": "Point", "coordinates": [ 135.542481224206512, 34.702650581825353 ] } },
{ "type": "Feature", "properties": { "内容": "パナソニック　エイジフリーケアセンター大阪野江・小規模多機能【小規模多機能型居宅介護】大阪府大阪市城東区成育3-2-19エイジフリーハウス大阪野江", "url": "https://www.kaigokensaku.mhlw.go.jp/27/index.php?action_kouhyou_detail_004_kani=true&JigyosyoCd=2794400271-00&ServiceCd=730&Type=search", "url2": "https://sumai.panasonic.jp/agefree/facility_care/agefree-house/" }, "geometry": { "type": "Point", "coordinates": [ 135.541946752114882, 34.707047792303456 ] } },
{ "type": "Feature", "properties": { "内容": "グレースマサコ―ヌ　西田辺　小規模多機能型居宅介護【小規模多機能型居宅介護】大阪府大阪市阿倍野区昭和町5-12-16シーダバレーⅢ　5階", "url": "https://www.kaigokensaku.mhlw.go.jp/27/index.php?action_kouhyou_detail_004_kani=true&JigyosyoCd=2792300069-00&ServiceCd=730&Type=search", "url2": "http://www.tezukayama-hp.or.jp" }, "geometry": { "type": "Point", "coordinates": [ 135.516051699999906, 34.621690600000015 ] } },
{ "type": "Feature", "properties": { "内容": "パナソニックエイジフリーケアセンター大阪帝塚山・小規模多機能【小規模多機能型居宅介護】大阪府大阪市阿倍野区帝塚山一丁目２番２１号", "url": "https://www.kaigokensaku.mhlw.go.jp/27/index.php?action_kouhyou_detail_004_kani=true&JigyosyoCd=2792300135-00&ServiceCd=730&Type=search", "url2": "https://sumai.panasonic.jp/agefree/facility_care/agefree-house/osakatezukayama/" }, "geometry": { "type": "Point", "coordinates": [ 135.504219599999942, 34.6243541 ] } },
{ "type": "Feature", "properties": { "内容": "みとう多機能ホーム【小規模多機能型居宅介護】大阪府大阪市住吉区長居西３－３－１６", "url": "https://www.kaigokensaku.mhlw.go.jp/27/index.php?action_kouhyou_detail_004_kani=true&JigyosyoCd=2792000107-00&ServiceCd=730&Type=search", "url2": "http://www.mitouph.com/" }, "geometry": { "type": "Point", "coordinates": [ 135.507705499999929, 34.6080477 ] } },
{ "type": "Feature", "properties": { "内容": "みとう多機能ホームおりおの【小規模多機能型居宅介護】大阪府大阪市住吉区遠里小野6-1-10", "url": "https://www.kaigokensaku.mhlw.go.jp/27/index.php?action_kouhyou_detail_004_kani=true&JigyosyoCd=2792000156-00&ServiceCd=730&Type=search", "url2": "http://www.mitouph.com/publics/index/42/" }, "geometry": { "type": "Point", "coordinates": [ 135.496001309227381, 34.598248908681526 ] } },
{ "type": "Feature", "properties": { "内容": "小規模多機能あろんてぃあ住吉【小規模多機能型居宅介護】大阪府大阪市住吉区南住吉1-4-34", "url": "https://www.kaigokensaku.mhlw.go.jp/27/index.php?action_kouhyou_detail_004_kani=true&JigyosyoCd=2792000388-00&ServiceCd=730&Type=search", "url2": "http://kouzenkai.info" }, "geometry": { "type": "Point", "coordinates": [ 135.50618701296699, 34.609821510663437 ] } },
{ "type": "Feature", "properties": { "内容": "小規模多機能ホーム夢家【小規模多機能型居宅介護】大阪市住吉区浅香2-3-39", "url": "https://www.kaigokensaku.mhlw.go.jp/27/index.php?action_kouhyou_detail_004_kani=true&JigyosyoCd=2792000057-00&ServiceCd=730&Type=search", "url2": "http://asakakai.com" }, "geometry": { "type": "Point", "coordinates": [ 135.506170099999963, 34.5890859 ] } },
{ "type": "Feature", "properties": { "内容": "小規模多機能ホームサテライト夢家【小規模多機能型居宅介護】大阪府大阪市住吉区浅香１丁目６番３１号", "url": "https://www.kaigokensaku.mhlw.go.jp/27/index.php?action_kouhyou_detail_004_kani=true&JigyosyoCd=2792000305-00&ServiceCd=730&Type=search", "url2": "http://www.asakakai.com" }, "geometry": { "type": "Point", "coordinates": [ 135.509070028858929, 34.590456314298301 ] } },
{ "type": "Feature", "properties": { "内容": "大領地域の家　小規模多機能型居宅介護　であい【小規模多機能型居宅介護】大阪市住吉区大領５－６－２大領地域の家であい", "url": "https://www.kaigokensaku.mhlw.go.jp/27/index.php?action_kouhyou_detail_004_kani=true&JigyosyoCd=2792000164-00&ServiceCd=730&Type=search", "url2": "http://lifesupport.or.jp" }, "geometry": { "type": "Point", "coordinates": [ 135.504214199999979, 34.6126889 ] } },
{ "type": "Feature", "properties": { "内容": "小規模多機能型居宅介護きずな【小規模多機能型居宅介護】大阪府大阪市住吉区帝塚山東5-8-3住吉総合福祉センター２Ｆ", "url": "https://www.kaigokensaku.mhlw.go.jp/27/index.php?action_kouhyou_detail_004_kani=true&JigyosyoCd=2792000040-00&ServiceCd=730&Type=search", "url2": "http://www.lifesupport.or.jp/" }, "geometry": { "type": "Point", "coordinates": [ 135.498542600000064, 34.6136387 ] } },
{ "type": "Feature", "properties": { "内容": "みとう多機能ホーム公園通り【小規模多機能型居宅介護】大阪府大阪市東住吉区２丁目４番４号みとう介護センター公園通り", "url": "https://www.kaigokensaku.mhlw.go.jp/27/index.php?action_kouhyou_detail_004_kani=true&JigyosyoCd=2790800557-00&ServiceCd=730&Type=search", "url2": "http://www.mitouph.com/care/546/" }, "geometry": { "type": "Point", "coordinates": [ 135.5397254, 34.6310566 ] } },
{ "type": "Feature", "properties": { "内容": "小規模多機能居宅介護パル東住吉【小規模多機能型居宅介護】大阪府大阪市東住吉区鷹合３丁目１番28号", "url": "https://www.kaigokensaku.mhlw.go.jp/27/index.php?action_kouhyou_detail_004_kani=true&JigyosyoCd=2790800631-00&ServiceCd=730&Type=search", "url2": "http://www.palcoop.or.jp" }, "geometry": { "type": "Point", "coordinates": [ 135.5272516, 34.6118698 ] } },
{ "type": "Feature", "properties": { "内容": "小規模多機能ホームうさぎ【小規模多機能型居宅介護】大阪府大阪市東住吉区矢田2-17-26", "url": "https://www.kaigokensaku.mhlw.go.jp/27/index.php?action_kouhyou_detail_004_kani=true&JigyosyoCd=2790800268-00&ServiceCd=730&Type=search", "url2": "https://kaigo-usagi.com" }, "geometry": { "type": "Point", "coordinates": [ 135.532186599999932, 34.6089532 ] } },
{ "type": "Feature", "properties": { "内容": "医療法人淀井病院小規模多機能ホーム　マルベリー【小規模多機能型居宅介護】大阪府大阪市東住吉区桑津５－８－１８", "url": "https://www.kaigokensaku.mhlw.go.jp/27/index.php?action_kouhyou_detail_004_kani=true&JigyosyoCd=2790800060-00&ServiceCd=730&Type=search", "url2": "http://www.kuwanomi-yodoi.or.jp/" }, "geometry": { "type": "Point", "coordinates": [ 135.52935320000006, 34.635503 ] } },
{ "type": "Feature", "properties": { "内容": "私の家なでしこ【小規模多機能型居宅介護】大阪府大阪市東住吉区中野４－１５－２３", "url": "https://www.kaigokensaku.mhlw.go.jp/27/index.php?action_kouhyou_detail_004_kani=true&JigyosyoCd=2790800037-00&ServiceCd=730&Type=search", "url2": "http://www.745165.co.jp/" }, "geometry": { "type": "Point", "coordinates": [ 135.5399665, 34.616808 ] } },
{ "type": "Feature", "properties": { "内容": "めぐみの里【小規模多機能型居宅介護】大阪府大阪市西成区天下茶屋北2-4-14", "url": "https://www.kaigokensaku.mhlw.go.jp/27/index.php?action_kouhyou_detail_004_kani=true&JigyosyoCd=2793300035-00&ServiceCd=730&Type=search", "url2": "http://moremind.jp/" }, "geometry": { "type": "Point", "coordinates": [ 135.50109470000001, 34.643144599999985 ] } },
{ "type": "Feature", "properties": { "内容": "めぐみの里千本北【小規模多機能型居宅介護】大阪府大阪市西成区千本北2-6-5", "url": "https://www.kaigokensaku.mhlw.go.jp/27/index.php?action_kouhyou_detail_004_kani=true&JigyosyoCd=2793300092-00&ServiceCd=730&Type=search", "url2": "http://moremind.jp/" }, "geometry": { "type": "Point", "coordinates": [ 135.487479200000053, 34.6377414 ] } },
{ "type": "Feature", "properties": { "内容": "愛の家小規模多機能型居宅介護大阪松【小規模多機能型居宅介護】大阪府大阪市西成区松１丁目８番３２号", "url": "https://www.kaigokensaku.mhlw.go.jp/27/index.php?action_kouhyou_detail_004_kani=true&JigyosyoCd=2793300142-00&ServiceCd=730&Type=search", "url2": "http://www.mcsg.co.jp/" }, "geometry": { "type": "Point", "coordinates": [ 135.493503499999946, 34.6415548 ] } },
{ "type": "Feature", "properties": { "内容": "愛寿の里【小規模多機能型居宅介護】大阪府大阪市西成区津守二丁目5番18号メディカル・ケア・ビル", "url": "https://www.kaigokensaku.mhlw.go.jp/27/index.php?action_kouhyou_detail_004_kani=true&JigyosyoCd=2793300209-00&ServiceCd=730&Type=search", "url2": "http://www.ohb-amg.co.jp" }, "geometry": { "type": "Point", "coordinates": [ 135.484973699999955, 34.6413159 ] } },
{ "type": "Feature", "properties": { "内容": "Ｍケアサポート愛壽【小規模多機能型居宅介護】大阪府大阪市西成区千本北1丁目20番9号", "url": "https://www.kaigokensaku.mhlw.go.jp/27/index.php?action_kouhyou_detail_004_kani=true&JigyosyoCd=2793300639-00&ServiceCd=730&Type=search", "url2": null }, "geometry": { "type": "Point", "coordinates": [ 135.491864099999958, 34.634577400000033 ] } },
{ "type": "Feature", "properties": { "内容": "みつるぎの里【小規模多機能型居宅介護】大阪府大阪市鶴見区今津中1-9-32榎本福祉会館", "url": "https://www.kaigokensaku.mhlw.go.jp/27/index.php?action_kouhyou_detail_004_kani=true&JigyosyoCd=2799200148-00&ServiceCd=730&Type=search", "url2": "http://www.egao-ageruyo.com" }, "geometry": { "type": "Point", "coordinates": [ 135.566332200000033, 34.6905392 ] } },
{ "type": "Feature", "properties": { "内容": "小規模多機能型居宅介護　白馬の恵【小規模多機能型居宅介護】大阪府大阪市鶴見区安田2丁目6番27号", "url": "https://www.kaigokensaku.mhlw.go.jp/27/index.php?action_kouhyou_detail_004_kani=true&JigyosyoCd=2799200114-00&ServiceCd=730&Type=search", "url2": null }, "geometry": { "type": "Point", "coordinates": [ 135.593029699999988, 34.7050659 ] } },
{ "type": "Feature", "properties": { "内容": "エルケア株式会社エルケアローズガーデン住之江粉浜【小規模多機能型居宅介護】大阪市住之江区粉浜１丁目５番３４号セイワビル３階", "url": "https://www.kaigokensaku.mhlw.go.jp/27/index.php?action_kouhyou_detail_004_kani=true&JigyosyoCd=2795900048-00&ServiceCd=730&Type=search", "url2": "https://www.l-care.jp/" }, "geometry": { "type": "Point", "coordinates": [ 135.490834899999982, 34.6224182 ] } },
{ "type": "Feature", "properties": { "内容": "エルケア株式会社ローズガーデン平野【小規模多機能型居宅介護】大阪府大阪市平野区長吉出戸6-14-35", "url": "https://www.kaigokensaku.mhlw.go.jp/27/index.php?action_kouhyou_detail_004_kani=true&JigyosyoCd=2795800586-00&ServiceCd=730&Type=search", "url2": "https://www.l-care.jp/" }, "geometry": { "type": "Point", "coordinates": [ 135.571229861499091, 34.608207821905935 ] } },
{ "type": "Feature", "properties": { "内容": "エルケア株式会社ローズガーデン平野長原【小規模多機能型居宅介護】大阪市平野区長吉長原2-9-6", "url": "https://www.kaigokensaku.mhlw.go.jp/27/index.php?action_kouhyou_detail_004_kani=true&JigyosyoCd=2795800123-00&ServiceCd=730&Type=search", "url2": "https://www.l-care.jp/" }, "geometry": { "type": "Point", "coordinates": [ 135.571350400000028, 34.6041737 ] } },
{ "type": "Feature", "properties": { "内容": "喜連西小規模多機能型居宅介護施設ゆたか【小規模多機能型居宅介護】大阪市平野区喜連西３－１５－２３", "url": "https://www.kaigokensaku.mhlw.go.jp/27/index.php?action_kouhyou_detail_004_kani=true&JigyosyoCd=2795800057-00&ServiceCd=730&Type=search", "url2": "http://yutakafukushikai.or.jp" }, "geometry": { "type": "Point", "coordinates": [ 135.543330200000014, 34.6109781 ] } },
{ "type": "Feature", "properties": { "内容": "小規模多機能事業所　喜連の杜【小規模多機能型居宅介護】大阪市平野区喜連4-6-19", "url": "https://www.kaigokensaku.mhlw.go.jp/27/index.php?action_kouhyou_detail_004_kani=true&JigyosyoCd=2795800529-00&ServiceCd=730&Type=search", "url2": "http://www.eijyu.or.jp" }, "geometry": { "type": "Point", "coordinates": [ 135.554945130619558, 34.611728132395555 ] } },
{ "type": "Feature", "properties": { "内容": "ほっとホームわたの花【小規模多機能型居宅介護】大阪府大阪市平野区加美北4-12-35", "url": "https://www.kaigokensaku.mhlw.go.jp/27/index.php?action_kouhyou_detail_004_kani=true&JigyosyoCd=2795800412-00&ServiceCd=730&Type=search", "url2": "http://www.o-kskk.jp" }, "geometry": { "type": "Point", "coordinates": [ 135.559786898744079, 34.636763461934635 ] } },
{ "type": "Feature", "properties": { "内容": "ハッピーひらのサテライト【小規模多機能型居宅介護】大阪府大阪市平野区長吉六反4-4-33", "url": "https://www.kaigokensaku.mhlw.go.jp/27/index.php?action_kouhyou_detail_004_kani=true&JigyosyoCd=2795800297-00&ServiceCd=730&Type=search", "url2": "http://www.sachi-kaigo.co.jp" }, "geometry": { "type": "Point", "coordinates": [ 135.582693699999936, 34.608270800000021 ] } },
{ "type": "Feature", "properties": { "内容": "ハッピーひらの２【小規模多機能型居宅介護】大阪府大阪市平野区長吉六反4-4-27", "url": "https://www.kaigokensaku.mhlw.go.jp/27/index.php?action_kouhyou_detail_004_kani=true&JigyosyoCd=2795800222-00&ServiceCd=730&Type=search", "url2": "http://www.sachi-kaigo.co.jp/" }, "geometry": { "type": "Point", "coordinates": [ 135.582571499999972, 34.6080291 ] } },
{ "type": "Feature", "properties": { "内容": "小規模多機能型居宅介護かさね加美南【小規模多機能型居宅介護】加美南5-1-28", "url": "https://www.kaigokensaku.mhlw.go.jp/27/index.php?action_kouhyou_detail_004_kani=true&JigyosyoCd=2795800644-00&ServiceCd=730&Type=search", "url2": "http://www.kasane.co.jp/" }, "geometry": { "type": "Point", "coordinates": [ 135.570277399999981, 34.620588499999982 ] } },
{ "type": "Feature", "properties": { "内容": "小規模多機能ホーム　アル・グラン平野【小規模多機能型居宅介護】大阪府大阪市平野区喜連西３－１７－４０", "url": "https://www.kaigokensaku.mhlw.go.jp/27/index.php?action_kouhyou_detail_004_kani=true&JigyosyoCd=2795800610-00&ServiceCd=730&Type=search", "url2": null }, "geometry": { "type": "Point", "coordinates": [ 135.545807906884761, 34.611990249792818 ] } },
{ "type": "Feature", "properties": { "内容": "小規模多機能ホーム天神橋やすらぎの里【小規模多機能型居宅介護】大阪府大阪市北区菅栄町５－２", "url": "https://www.kaigokensaku.mhlw.go.jp/27/index.php?action_kouhyou_detail_004_kani=true&JigyosyoCd=2794100087-00&ServiceCd=730&Type=search", "url2": null }, "geometry": { "type": "Point", "coordinates": [ 135.51455660000002, 34.7091713 ] } },
{ "type": "Feature", "properties": { "内容": "小規模多機能型居宅介護　フレンド大阪中央【小規模多機能型居宅介護】大阪府大阪市中央区高津3丁目14番26号", "url": "https://www.kaigokensaku.mhlw.go.jp/27/index.php?action_kouhyou_detail_004_kani=true&JigyosyoCd=2799400078-00&ServiceCd=730&Type=search", "url2": "https://www.friend-grouphome.com/product/osakachuoh/" }, "geometry": { "type": "Point", "coordinates": [ 135.510595700000067, 34.664441 ] } },
{ "type": "Feature", "properties": { "内容": "小規模多機能型居宅介護　　恵乃郷【小規模多機能型居宅介護】大阪府堺市堺区今池町６－４－７", "url": "https://www.kaigokensaku.mhlw.go.jp/27/index.php?action_kouhyou_detail_004_kani=true&JigyosyoCd=2796000236-00&ServiceCd=730&Type=search", "url2": "http://www.izumidrug.com" }, "geometry": { "type": "Point", "coordinates": [ 135.495332700000063, 34.5845918 ] } },
{ "type": "Feature", "properties": { "内容": "エルケア株式会社エルケアローズガーデン御陵前【小規模多機能型居宅介護】大阪府堺市堺区昭和通2-36-1　2階", "url": "https://www.kaigokensaku.mhlw.go.jp/27/index.php?action_kouhyou_detail_004_kani=true&JigyosyoCd=2796000319-00&ServiceCd=730&Type=search", "url2": "https://www.l-care.jp/" }, "geometry": { "type": "Point", "coordinates": [ 135.464260859720781, 34.565156266231277 ] } },
{ "type": "Feature", "properties": { "内容": "小規模多機能ホームゆうあい【小規模多機能型居宅介護】大阪府堺市堺区綾之町東1丁2-21", "url": "https://www.kaigokensaku.mhlw.go.jp/27/index.php?action_kouhyou_detail_004_kani=true&JigyosyoCd=2796000376-00&ServiceCd=730&Type=search", "url2": "http://www.yuuai.ne.jp/" }, "geometry": { "type": "Point", "coordinates": [ 135.4839245, 34.588400100000023 ] } },
{ "type": "Feature", "properties": { "内容": "ほのぼの旭ヶ丘の家【小規模多機能型居宅介護】堺市堺区旭ヶ丘南町1丁3-23", "url": "https://www.kaigokensaku.mhlw.go.jp/27/index.php?action_kouhyou_detail_004_kani=true&JigyosyoCd=2796000087-00&ServiceCd=730&Type=search", "url2": "http://www.honobono-st.sakura.ne.jp/" }, "geometry": { "type": "Point", "coordinates": [ 135.472362800000042, 34.558105 ] } },
{ "type": "Feature", "properties": { "内容": "小規模多機能型居宅介護かさね甲斐町【小規模多機能型居宅介護】大阪府堺市堺区甲斐町4丁1番9号", "url": "https://www.kaigokensaku.mhlw.go.jp/27/index.php?action_kouhyou_detail_004_kani=true&JigyosyoCd=2796000061-00&ServiceCd=730&Type=search", "url2": "http://www.kasane.co.jp" }, "geometry": { "type": "Point", "coordinates": [ 135.475681799999961, 34.5752588 ] } },
{ "type": "Feature", "properties": { "内容": "小規模多機能型居宅介護　かさね大野芝【小規模多機能型居宅介護】大阪府堺市中区大野芝町５９３－５", "url": "https://www.kaigokensaku.mhlw.go.jp/27/index.php?action_kouhyou_detail_004_kani=true&JigyosyoCd=2796100051-00&ServiceCd=730&Type=search", "url2": "http://www.kasane.co.jp" }, "geometry": { "type": "Point", "coordinates": [ 135.5157064, 34.5371886 ] } },
{ "type": "Feature", "properties": { "内容": "小規模多機能型居宅介護かさね深井北町【小規模多機能型居宅介護】大阪府堺市中区深井北町７１２－７", "url": "https://www.kaigokensaku.mhlw.go.jp/27/index.php?action_kouhyou_detail_004_kani=true&JigyosyoCd=2796100093-00&ServiceCd=730&Type=search", "url2": "http://www.kasane.co.jp/" }, "geometry": { "type": "Point", "coordinates": [ 135.487703399999987, 34.5384079 ] } },
{ "type": "Feature", "properties": { "内容": "小規模多機能ホームりーどけあ【小規模多機能型居宅介護】大阪府堺市中区平井124-1", "url": "https://www.kaigokensaku.mhlw.go.jp/27/index.php?action_kouhyou_detail_004_kani=true&JigyosyoCd=2796100259-00&ServiceCd=730&Type=search", "url2": "https://www.leadcare2018.com" }, "geometry": { "type": "Point", "coordinates": [ 135.4957584, 34.521928 ] } },
{ "type": "Feature", "properties": { "内容": "小規模多機能型居宅介護事業所ひがしやま【小規模多機能型居宅介護】大阪府堺市中区東山７２０－１", "url": "https://www.kaigokensaku.mhlw.go.jp/27/index.php?action_kouhyou_detail_004_kani=true&JigyosyoCd=2796100168-00&ServiceCd=730&Type=search", "url2": "http://www.community.or.jp" }, "geometry": { "type": "Point", "coordinates": [ 135.504659147221304, 34.521847556410499 ] } },
{ "type": "Feature", "properties": { "内容": "パナソニック　エイジフリーケアセンター堺初芝・小規模多機能【小規模多機能型居宅介護】大阪府堺市東区日置荘西町７丁３番１０号", "url": "https://www.kaigokensaku.mhlw.go.jp/27/index.php?action_kouhyou_detail_004_kani=true&JigyosyoCd=2796200075-00&ServiceCd=730&Type=search", "url2": "http://sumai.panasonic.jp/agefree/facility_care/agefree-house/" }, "geometry": { "type": "Point", "coordinates": [ 135.522314199999983, 34.538083 ] } },
{ "type": "Feature", "properties": { "内容": "小規模多機能型居宅介護　ソルテイル　サテライトA棟【小規模多機能型居宅介護】大阪府堺市東区菩提町2丁73番地1", "url": "https://www.kaigokensaku.mhlw.go.jp/27/index.php?action_kouhyou_detail_004_kani=true&JigyosyoCd=2796200257-00&ServiceCd=730&Type=search", "url2": "http://www.syofuku.or.jp" }, "geometry": { "type": "Point", "coordinates": [ 135.533785517721554, 34.549791649001875 ] } },
{ "type": "Feature", "properties": { "内容": "小規模多機能型居宅介護　ソルテイル　サテライトB棟【小規模多機能型居宅介護】大阪府堺市東区菩提町2丁72番1", "url": "https://www.kaigokensaku.mhlw.go.jp/27/index.php?action_kouhyou_detail_004_kani=true&JigyosyoCd=2796200265-00&ServiceCd=730&Type=search", "url2": "http://www.syofuku.or.jp" }, "geometry": { "type": "Point", "coordinates": [ 135.533983843364894, 34.549646209191096 ] } },
{ "type": "Feature", "properties": { "内容": "いやしの家ケアライフ石津川【小規模多機能型居宅介護】大阪府堺市西区浜寺石津町西2丁1番6号", "url": "https://www.kaigokensaku.mhlw.go.jp/27/index.php?action_kouhyou_detail_004_kani=true&JigyosyoCd=2796300016-00&ServiceCd=730&Type=search", "url2": "http://www.care-life.co.jp" }, "geometry": { "type": "Point", "coordinates": [ 135.454111300000022, 34.5615208 ] } },
{ "type": "Feature", "properties": { "内容": "クオレ多機能ホーム花しょうぶ【小規模多機能型居宅介護】大阪府堺市西区鳳西町2丁91-5", "url": "https://www.kaigokensaku.mhlw.go.jp/27/index.php?action_kouhyou_detail_004_kani=true&JigyosyoCd=2796300198-00&ServiceCd=730&Type=search", "url2": "http://www.cuores.com" }, "geometry": { "type": "Point", "coordinates": [ 135.450851675354784, 34.52895725776812 ] } },
{ "type": "Feature", "properties": { "内容": "小規模多機能ハウス　アスター【小規模多機能型居宅介護】大阪府堺市西区草部621-1", "url": "https://www.kaigokensaku.mhlw.go.jp/27/index.php?action_kouhyou_detail_004_kani=true&JigyosyoCd=2796300073-00&ServiceCd=730&Type=search", "url2": "http://www.wafukai.net/" }, "geometry": { "type": "Point", "coordinates": [ 135.467130699999984, 34.5213091 ] } },
{ "type": "Feature", "properties": { "内容": "パナソニック　エイジフリーケアセンター堺鳳・小規模多機能【小規模多機能型居宅介護】大阪府堺市西区鳳中町9丁6番地1エイジフリーハウス堺鳳", "url": "https://www.kaigokensaku.mhlw.go.jp/27/index.php?action_kouhyou_detail_004_kani=true&JigyosyoCd=2796300362-00&ServiceCd=730&Type=search", "url2": "https://sumai.panasonic.jp/agefree/" }, "geometry": { "type": "Point", "coordinates": [ 135.4546191, 34.5325209 ] } },
{ "type": "Feature", "properties": { "内容": "社会福祉法人　貞省会　小規模多機能型介護施設　カロス【小規模多機能型居宅介護】大阪府堺市南区美木多上２２９３－１４", "url": "https://www.kaigokensaku.mhlw.go.jp/27/index.php?action_kouhyou_detail_004_kani=true&JigyosyoCd=2796400048-00&ServiceCd=730&Type=search", "url2": "http://www.karos.or.jp/" }, "geometry": { "type": "Point", "coordinates": [ 135.4914569, 34.4705373 ] } },
{ "type": "Feature", "properties": { "内容": "小規模多機能型居宅介護　かさね豊田【小規模多機能型居宅介護】大阪府堺市南区豊田１５３８番地", "url": "https://www.kaigokensaku.mhlw.go.jp/27/index.php?action_kouhyou_detail_004_kani=true&JigyosyoCd=2796400063-00&ServiceCd=730&Type=search", "url2": "http://kasane.co.jp" }, "geometry": { "type": "Point", "coordinates": [ 135.49930059999997, 34.4926071 ] } },
{ "type": "Feature", "properties": { "内容": "愛逢の里・堺【小規模多機能型居宅介護】大阪府堺市南区三原台2-7-37", "url": "https://www.kaigokensaku.mhlw.go.jp/27/index.php?action_kouhyou_detail_004_kani=true&JigyosyoCd=2796400030-00&ServiceCd=730&Type=search", "url2": "http://www.aiainosato.com/" }, "geometry": { "type": "Point", "coordinates": [ 135.514932499999986, 34.5027647 ] } },
{ "type": "Feature", "properties": { "内容": "小規模多機能ホーム　朱雀【小規模多機能型居宅介護】大阪府堺市北区中長尾町1丁2番12号", "url": "https://www.kaigokensaku.mhlw.go.jp/27/index.php?action_kouhyou_detail_004_kani=true&JigyosyoCd=2796500235-00&ServiceCd=730&Type=search", "url2": "https://www.alsole.or.jp/suzaku/" }, "geometry": { "type": "Point", "coordinates": [ 135.498014782278432, 34.572930439230447 ] } },
{ "type": "Feature", "properties": { "内容": "エルケア株式会社エルケアローズガーデン美原【小規模多機能型居宅介護】大阪府堺市美原区黒山21-4", "url": "https://www.kaigokensaku.mhlw.go.jp/27/index.php?action_kouhyou_detail_004_kani=true&JigyosyoCd=2796600092-00&ServiceCd=730&Type=search", "url2": "https://www.l-care.jp/" }, "geometry": { "type": "Point", "coordinates": [ 135.562190800000053, 34.5386625 ] } },
{ "type": "Feature", "properties": { "内容": "小規模多機能型居宅介護　かさね平尾【小規模多機能型居宅介護】大阪府堺市美原区平尾2707番地１", "url": "https://www.kaigokensaku.mhlw.go.jp/27/index.php?action_kouhyou_detail_004_kani=true&JigyosyoCd=2796600076-00&ServiceCd=730&Type=search", "url2": "http://www.kasane.co.jp/hirao.html" }, "geometry": { "type": "Point", "coordinates": [ 135.571023299999979, 34.5342197 ] } },
{ "type": "Feature", "properties": { "内容": "さくらの苑内畑【小規模多機能型居宅介護】岸和田市内畑町５４１番地石谷マンション１０２号", "url": "https://www.kaigokensaku.mhlw.go.jp/27/index.php?action_kouhyou_detail_004_kani=true&JigyosyoCd=2791100122-00&ServiceCd=730&Type=search", "url2": "http://sakuranosono.net/index.html" }, "geometry": { "type": "Point", "coordinates": [ 135.445286900000042, 34.4167654 ] } },
{ "type": "Feature", "properties": { "内容": "ＫｕｍｅＬａｂ【小規模多機能型居宅介護】大阪府岸和田市荒木町2-19-4", "url": "https://www.kaigokensaku.mhlw.go.jp/27/index.php?action_kouhyou_detail_004_kani=true&JigyosyoCd=2791100478-00&ServiceCd=730&Type=search", "url2": "https://www.helianthus-kk.com" }, "geometry": { "type": "Point", "coordinates": [ 135.4018571, 34.4719604 ] } },
{ "type": "Feature", "properties": { "内容": "小規模多機能型施設　つばら　つばら【小規模多機能型居宅介護】岸和田市大町４４８－５", "url": "https://www.kaigokensaku.mhlw.go.jp/27/index.php?action_kouhyou_detail_004_kani=true&JigyosyoCd=2791100114-00&ServiceCd=730&Type=search", "url2": "http://www.sksh.co.jp" }, "geometry": { "type": "Point", "coordinates": [ 135.406653499999948, 34.4646542 ] } },
{ "type": "Feature", "properties": { "内容": "有限会社　マエダケアサービス【小規模多機能型居宅介護】大阪府岸和田市別所町1丁目19番13号", "url": "https://www.kaigokensaku.mhlw.go.jp/27/index.php?action_kouhyou_detail_004_kani=true&JigyosyoCd=2791100056-00&ServiceCd=730&Type=search", "url2": "https://maedacare.com/" }, "geometry": { "type": "Point", "coordinates": [ 135.383081270500156, 34.460798208434873 ] } },
{ "type": "Feature", "properties": { "内容": "小規模多機能型居宅介護　かさね豊中【小規模多機能型居宅介護】大阪府豊中市立花町3-8-3", "url": "https://www.kaigokensaku.mhlw.go.jp/27/index.php?action_kouhyou_detail_004_kani=true&JigyosyoCd=2794000790-00&ServiceCd=730&Type=search", "url2": "http://www.kasane.co.jp" }, "geometry": { "type": "Point", "coordinates": [ 135.456409200000053, 34.7828129 ] } },
{ "type": "Feature", "properties": { "内容": "ユーアイほっと俱楽部立花【小規模多機能型居宅介護】大阪府豊中市立花町2-7-45", "url": "https://www.kaigokensaku.mhlw.go.jp/27/index.php?action_kouhyou_detail_004_kani=true&JigyosyoCd=2794001160-00&ServiceCd=730&Type=search", "url2": "https://youimit.com/pages/3/" }, "geometry": { "type": "Point", "coordinates": [ 135.4579086, 34.78251430000001 ] } },
{ "type": "Feature", "properties": { "内容": "ピグマリオン　ヒュッテ泉丘【小規模多機能型居宅介護】大阪府豊中市東泉丘1-2383-2", "url": "https://www.kaigokensaku.mhlw.go.jp/27/index.php?action_kouhyou_detail_004_kani=true&JigyosyoCd=2794000428-00&ServiceCd=730&Type=search", "url2": "http://pgmalion.com" }, "geometry": { "type": "Point", "coordinates": [ 135.487488549737577, 34.786687331630944 ] } },
{ "type": "Feature", "properties": { "内容": "小規模多機能型居宅介護施設　ウエリスト【小規模多機能型居宅介護】大阪府豊中市箕輪２丁目２番２３号", "url": "https://www.kaigokensaku.mhlw.go.jp/27/index.php?action_kouhyou_detail_004_kani=true&JigyosyoCd=2794000105-00&ServiceCd=730&Type=search", "url2": null }, "geometry": { "type": "Point", "coordinates": [ 135.452137200000038, 34.7847042 ] } },
{ "type": "Feature", "properties": { "内容": "小規模多機能型居宅介護利倉清豊苑【小規模多機能型居宅介護】大阪府豊中市利倉3-4-19", "url": "https://www.kaigokensaku.mhlw.go.jp/27/index.php?action_kouhyou_detail_004_kani=true&JigyosyoCd=2794000741-00&ServiceCd=730&Type=search", "url2": "http://www.well-seikokai.jp" }, "geometry": { "type": "Point", "coordinates": [ 135.45839019999994, 34.7611764 ] } },
{ "type": "Feature", "properties": { "内容": "小規模多機能型居宅介護ふるる【小規模多機能型居宅介護】大阪府豊中市浜3丁目8番4号ふるる2号館", "url": "https://www.kaigokensaku.mhlw.go.jp/27/index.php?action_kouhyou_detail_004_kani=true&JigyosyoCd=2794000287-00&ServiceCd=730&Type=search", "url2": "http://www.fururu-home.com/" }, "geometry": { "type": "Point", "coordinates": [ 135.480466100000058, 34.7572964 ] } },
{ "type": "Feature", "properties": { "内容": "小規模多機能サービス　宙（すばる）豊中【小規模多機能型居宅介護】大阪府豊中市永楽荘４丁目１番３号", "url": "https://www.kaigokensaku.mhlw.go.jp/27/index.php?action_kouhyou_detail_004_kani=true&JigyosyoCd=2794000618-00&ServiceCd=730&Type=search", "url2": "http://koseikai-subaru.com/" }, "geometry": { "type": "Point", "coordinates": [ 135.471996100000069, 34.8172395 ] } },
{ "type": "Feature", "properties": { "内容": "小規模多機能ホーム淳風ふたば【小規模多機能型居宅介護】大阪府豊中市二葉町1丁目15番20号市営二葉第三住宅1階", "url": "https://www.kaigokensaku.mhlw.go.jp/27/index.php?action_kouhyou_detail_004_kani=true&JigyosyoCd=2794000576-00&ServiceCd=730&Type=search", "url2": "http://junpu-kai.or.jp/" }, "geometry": { "type": "Point", "coordinates": [ 135.4644154, 34.7370732 ] } },
{ "type": "Feature", "properties": { "内容": "小規模多機能型居宅介護アイテラス利倉【小規模多機能型居宅介護】大阪府豊中市利倉西1-1-11", "url": "https://www.kaigokensaku.mhlw.go.jp/27/index.php?action_kouhyou_detail_004_kani=true&JigyosyoCd=2794000519-00&ServiceCd=730&Type=search", "url2": "https://yuuai-fukushikai.com/" }, "geometry": { "type": "Point", "coordinates": [ 135.453113610450742, 34.761492221133864 ] } },
{ "type": "Feature", "properties": { "内容": "みらいのあかり【小規模多機能型居宅介護】大阪府豊中市熊野町1-9-19", "url": "https://www.kaigokensaku.mhlw.go.jp/27/index.php?action_kouhyou_detail_004_kani=true&JigyosyoCd=2794000410-00&ServiceCd=730&Type=search", "url2": "http://mirai-care.com/" }, "geometry": { "type": "Point", "coordinates": [ 135.479865600000039, 34.789026 ] } },
{ "type": "Feature", "properties": { "内容": "ほのぼの　あけぼの【小規模多機能型居宅介護】大阪府豊中市庄本町2-1-8", "url": "https://www.kaigokensaku.mhlw.go.jp/27/index.php?action_kouhyou_detail_004_kani=true&JigyosyoCd=2794000394-00&ServiceCd=730&Type=search", "url2": null }, "geometry": { "type": "Point", "coordinates": [ 135.462134900000024, 34.7423282 ] } },
{ "type": "Feature", "properties": { "内容": "ピグマリオンヒュッテ上野【小規模多機能型居宅介護】大阪府豊中市上野東1-16-3", "url": "https://www.kaigokensaku.mhlw.go.jp/27/index.php?action_kouhyou_detail_004_kani=true&JigyosyoCd=2794000220-00&ServiceCd=730&Type=search", "url2": "http://pgmalion.com" }, "geometry": { "type": "Point", "coordinates": [ 135.475182600000039, 34.790631400000017 ] } },
{ "type": "Feature", "properties": { "内容": "小規模多機能居宅介護かさね豊中本町【小規模多機能型居宅介護】大阪府豊中市本町５丁目6-3イーグルビル3階", "url": "https://www.kaigokensaku.mhlw.go.jp/27/index.php?action_kouhyou_detail_004_kani=true&JigyosyoCd=2794000832-00&ServiceCd=730&Type=search", "url2": "http://www.kasane.co.jp" }, "geometry": { "type": "Point", "coordinates": [ 135.465147500000057, 34.787387 ] } },
{ "type": "Feature", "properties": { "内容": "ユーアイほっと俱楽部宮山【小規模多機能型居宅介護】大阪府豊中市宮山町3-19-33", "url": "https://www.kaigokensaku.mhlw.go.jp/27/index.php?action_kouhyou_detail_004_kani=true&JigyosyoCd=2794001178-00&ServiceCd=730&Type=search", "url2": "https://youimit.com/pages/20/" }, "geometry": { "type": "Point", "coordinates": [ 135.457489399999986, 34.8096693 ] } },
{ "type": "Feature", "properties": { "内容": "パナソニックエイジフリーケアセンター豊中庄内栄町・小規模多機能【小規模多機能型居宅介護】大阪府豊中市庄内栄町4丁目22番15号", "url": "https://www.kaigokensaku.mhlw.go.jp/27/index.php?action_kouhyou_detail_004_kani=true&JigyosyoCd=2794000634-00&ServiceCd=730&Type=search", "url2": "http://sumai.panasonic.jp/agefree/" }, "geometry": { "type": "Point", "coordinates": [ 135.465361795106446, 34.746375100000016 ] } },
{ "type": "Feature", "properties": { "内容": "パナソニックエイジフリーケアセンター豊中インター西・小規模多機能【小規模多機能型居宅介護】大阪府豊中市今在家町17番10号", "url": "https://www.kaigokensaku.mhlw.go.jp/27/index.php?action_kouhyou_detail_004_kani=true&JigyosyoCd=2794000626-00&ServiceCd=730&Type=search", "url2": "http://panasonic.co.jp/ls/paf/" }, "geometry": { "type": "Point", "coordinates": [ 135.460551, 34.752704 ] } },
{ "type": "Feature", "properties": { "内容": "ウラノ・ハレラマヒナ上野【小規模多機能型居宅介護】大阪府豊中市上野西2-4-7", "url": "https://www.kaigokensaku.mhlw.go.jp/27/index.php?action_kouhyou_detail_004_kani=true&JigyosyoCd=2794000543-00&ServiceCd=730&Type=search", "url2": "http://team-urano.com" }, "geometry": { "type": "Point", "coordinates": [ 135.4706718, 34.793719900000035 ] } },
{ "type": "Feature", "properties": { "内容": "ユーアイほっと俱楽部豊中【小規模多機能型居宅介護】大阪府豊中市岡上の町1-2-6ユーアイほっと俱楽部豊中", "url": "https://www.kaigokensaku.mhlw.go.jp/27/index.php?action_kouhyou_detail_004_kani=true&JigyosyoCd=2794001145-00&ServiceCd=730&Type=search", "url2": "https://youimit.com/" }, "geometry": { "type": "Point", "coordinates": [ 135.4654602, 34.7827955 ] } },
{ "type": "Feature", "properties": { "内容": "プラチナライフ木部【小規模多機能型居宅介護】大阪府池田市木部町141-2プラチナライフ木部", "url": "https://www.kaigokensaku.mhlw.go.jp/27/index.php?action_kouhyou_detail_004_kani=true&JigyosyoCd=2792500197-00&ServiceCd=730&Type=search", "url2": null }, "geometry": { "type": "Point", "coordinates": [ 135.427653305971404, 34.838200916427247 ] } },
{ "type": "Feature", "properties": { "内容": "ユーアイプラチナ宇保【小規模多機能型居宅介護】大阪府池田市宇保町１０－２ケセラセラマンション", "url": "https://www.kaigokensaku.mhlw.go.jp/27/index.php?action_kouhyou_detail_004_kani=true&JigyosyoCd=2792500023-00&ServiceCd=730&Type=search", "url2": "http://www.youiplatinum.com/publics/index/55/" }, "geometry": { "type": "Point", "coordinates": [ 135.42970779999996, 34.8160862 ] } },
{ "type": "Feature", "properties": { "内容": "楽・アンダンティーノ【小規模多機能型居宅介護】大阪府池田市神田１－３２－１５", "url": "https://www.kaigokensaku.mhlw.go.jp/27/index.php?action_kouhyou_detail_004_kani=true&JigyosyoCd=2792500056-00&ServiceCd=730&Type=search", "url2": "http://andante-ikeda.co.jp/" }, "geometry": { "type": "Point", "coordinates": [ 135.431182848162877, 34.811321987698769 ] } },
{ "type": "Feature", "properties": { "内容": "すぎな渋谷【小規模多機能型居宅介護】大阪府池田市渋谷３丁目14-19", "url": "https://www.kaigokensaku.mhlw.go.jp/27/index.php?action_kouhyou_detail_004_kani=true&JigyosyoCd=2792500031-00&ServiceCd=730&Type=search", "url2": "http://nakatakaigo.com/" }, "geometry": { "type": "Point", "coordinates": [ 135.443495100000064, 34.8287212 ] } },
{ "type": "Feature", "properties": { "内容": "有限会社　中田介護事業所【小規模多機能型居宅介護】大阪府池田市豊島南１丁目１３番地2号", "url": "https://www.kaigokensaku.mhlw.go.jp/27/index.php?action_kouhyou_detail_004_kani=true&JigyosyoCd=2792500122-00&ServiceCd=730&Type=search", "url2": "http://nakatakaigo.com/" }, "geometry": { "type": "Point", "coordinates": [ 135.435445, 34.7989189 ] } },
{ "type": "Feature", "properties": { "内容": "小規模多機能型居宅介護　ハ・ト時計【小規模多機能型居宅介護】大阪府池田市西本町２番１５号", "url": "https://www.kaigokensaku.mhlw.go.jp/27/index.php?action_kouhyou_detail_004_kani=true&JigyosyoCd=2792500080-00&ServiceCd=730&Type=search", "url2": null }, "geometry": { "type": "Point", "coordinates": [ 135.423313600000029, 34.8260879 ] } },
{ "type": "Feature", "properties": { "内容": "小規模多機能型居宅介護　豊津の郷【小規模多機能型居宅介護】大阪府吹田市出口町32-18豊津マイファミリー", "url": "https://www.kaigokensaku.mhlw.go.jp/27/index.php?action_kouhyou_detail_004_kani=true&JigyosyoCd=2791600634-00&ServiceCd=730&Type=search", "url2": "http://kaigo-angel.co.jp/guide/home-8/" }, "geometry": { "type": "Point", "coordinates": [ 135.5132446, 34.7658272 ] } },
{ "type": "Feature", "properties": { "内容": "小規模多機能型居宅介護　千里の郷【小規模多機能型居宅介護】大阪府吹田市千里山西1-27-7千里マイファミリー210号室", "url": "https://www.kaigokensaku.mhlw.go.jp/27/index.php?action_kouhyou_detail_004_kani=true&JigyosyoCd=2791600626-00&ServiceCd=730&Type=search", "url2": "http://kaigo-angel.co.jp/guide/home-7/" }, "geometry": { "type": "Point", "coordinates": [ 135.505639300000013, 34.7743909 ] } },
{ "type": "Feature", "properties": { "内容": "小規模多機能ホーム　楽【小規模多機能型居宅介護】大阪府吹田市千里山竹園1丁目50番18号離宮千里山", "url": "https://www.kaigokensaku.mhlw.go.jp/27/index.php?action_kouhyou_detail_004_kani=true&JigyosyoCd=2791600220-00&ServiceCd=730&Type=search", "url2": "http://rokushinkai.jp/" }, "geometry": { "type": "Point", "coordinates": [ 135.499330699999973, 34.783277 ] } },
{ "type": "Feature", "properties": { "内容": "パナソニックエイジフリーケアセンター吹田健都小規模多機能【小規模多機能型居宅介護】大阪府吹田市岸部新町３番33patona吹田健都308号", "url": "https://www.kaigokensaku.mhlw.go.jp/27/index.php?action_kouhyou_detail_004_kani=true&JigyosyoCd=2791600535-00&ServiceCd=730&Type=search", "url2": null }, "geometry": { "type": "Point", "coordinates": [ 135.535888199999988, 34.775051 ] } },
{ "type": "Feature", "properties": { "内容": "パナソニック　エイジフリー　吹田江坂町・小規模多機能【小規模多機能型居宅介護】吹田市江坂町3丁目35番19号パナソニックエイジフリーケアセンター吹田江坂町・小規模多機能", "url": "https://www.kaigokensaku.mhlw.go.jp/27/index.php?action_kouhyou_detail_004_kani=true&JigyosyoCd=2791600378-00&ServiceCd=730&Type=search", "url2": null }, "geometry": { "type": "Point", "coordinates": [ 135.4903587, 34.7649609 ] } },
{ "type": "Feature", "properties": { "内容": "パナソニックエイジフリーケアセンター吹田山田西【小規模多機能型居宅介護】大阪府吹田市山田西3丁目58番2号", "url": "https://www.kaigokensaku.mhlw.go.jp/27/index.php?action_kouhyou_detail_004_kani=true&JigyosyoCd=2791600360-00&ServiceCd=730&Type=search", "url2": "https://panasonic.co.jp" }, "geometry": { "type": "Point", "coordinates": [ 135.522220299999958, 34.8014228 ] } },
{ "type": "Feature", "properties": { "内容": "小規模多機能ホーム　ティアラ【小規模多機能型居宅介護】大阪府高槻市大冠町二丁目19-1", "url": "https://www.kaigokensaku.mhlw.go.jp/27/index.php?action_kouhyou_detail_004_kani=true&JigyosyoCd=2790900092-00&ServiceCd=730&Type=search", "url2": "http://kouseikai-web.com/index.html" }, "geometry": { "type": "Point", "coordinates": [ 135.639178300000026, 34.8340435 ] } },
{ "type": "Feature", "properties": { "内容": "くらし創造の家　朋（とも）【小規模多機能型居宅介護】大阪府高槻市富田町4丁目17番１０号", "url": "https://www.kaigokensaku.mhlw.go.jp/27/index.php?action_kouhyou_detail_004_kani=true&JigyosyoCd=2790900043-00&ServiceCd=730&Type=search", "url2": "https://tlca.info/tomo/" }, "geometry": { "type": "Point", "coordinates": [ 135.591928001817649, 34.829568820849843 ] } },
{ "type": "Feature", "properties": { "内容": "小規模多機能型居宅介護あすなろ【小規模多機能型居宅介護】大阪府高槻市日吉台一番町24-28", "url": "https://www.kaigokensaku.mhlw.go.jp/27/index.php?action_kouhyou_detail_004_kani=true&JigyosyoCd=2790900332-00&ServiceCd=730&Type=search", "url2": "https://tlca.info/asunaro/" }, "geometry": { "type": "Point", "coordinates": [ 135.6141634, 34.8690049 ] } },
{ "type": "Feature", "properties": { "内容": "小規模多機能センター高槻荘「ゆらら」【小規模多機能型居宅介護】高槻市郡家新町４８－７", "url": "https://www.kaigokensaku.mhlw.go.jp/27/index.php?action_kouhyou_detail_004_kani=true&JigyosyoCd=2790900431-00&ServiceCd=730&Type=search", "url2": "https://takatsuki-huku2.wixsite.com/" }, "geometry": { "type": "Point", "coordinates": [ 135.595629300000041, 34.8518355 ] } },
{ "type": "Feature", "properties": { "内容": "大冠カーム小規模多機能【小規模多機能型居宅介護】大阪府高槻市須賀町65-10", "url": "https://www.kaigokensaku.mhlw.go.jp/27/index.php?action_kouhyou_detail_004_kani=true&JigyosyoCd=2790900266-00&ServiceCd=730&Type=search", "url2": "http://www.ojunkai.com" }, "geometry": { "type": "Point", "coordinates": [ 135.63488598769689, 34.840210362317251 ] } },
{ "type": "Feature", "properties": { "内容": "医療法人啓友会　小規模多機能ゆ～らり【小規模多機能型居宅介護】大阪府高槻市安岡寺町２丁目１番１０号", "url": "https://www.kaigokensaku.mhlw.go.jp/27/index.php?action_kouhyou_detail_004_kani=true&JigyosyoCd=2790900050-00&ServiceCd=730&Type=search", "url2": "https://keiyukai-nakajima.com/" }, "geometry": { "type": "Point", "coordinates": [ 135.602462520691603, 34.874722169045071 ] } },
{ "type": "Feature", "properties": { "内容": "エルケア株式会社エルケアローズガーデン貝塚【小規模多機能型居宅介護】貝塚市加神1-10-3", "url": "https://www.kaigokensaku.mhlw.go.jp/27/index.php?action_kouhyou_detail_004_kani=true&JigyosyoCd=2791300060-00&ServiceCd=730&Type=search", "url2": "https://www.l-care.jp/" }, "geometry": { "type": "Point", "coordinates": [ 135.3551033, 34.4412027 ] } },
{ "type": "Feature", "properties": { "内容": "社会医療法人慈薫会　　小規模多機能型居宅介護ひまわり河崎【小規模多機能型居宅介護】大阪府貝塚市水間１８３番地", "url": "https://www.kaigokensaku.mhlw.go.jp/27/index.php?action_kouhyou_detail_004_kani=true&JigyosyoCd=2791300169-00&ServiceCd=730&Type=search", "url2": "http://www.jikunnkai.or.jp" }, "geometry": { "type": "Point", "coordinates": [ 135.386895099999947, 34.4028693 ] } },
{ "type": "Feature", "properties": { "内容": "小規模多機能型居宅介護　ふれあい二色の浜【小規模多機能型居宅介護】大阪府貝塚市澤525番1", "url": "https://www.kaigokensaku.mhlw.go.jp/27/index.php?action_kouhyou_detail_004_kani=true&JigyosyoCd=2791300185-00&ServiceCd=730&Type=search", "url2": "http://www.enjyukai.or.jp" }, "geometry": { "type": "Point", "coordinates": [ 135.339671599999974, 34.4335758 ] } },
{ "type": "Feature", "properties": { "内容": "けいはん医療生活協同組合小規模多機能ホームさつき【小規模多機能型居宅介護】大阪府守口市菊水通３丁目2-5", "url": "https://www.kaigokensaku.mhlw.go.jp/27/index.php?action_kouhyou_detail_004_kani=true&JigyosyoCd=2793200102-00&ServiceCd=730&Type=search", "url2": "http://www.keihan-healthcoop.net" }, "geometry": { "type": "Point", "coordinates": [ 135.577944300000013, 34.7298378 ] } },
{ "type": "Feature", "properties": { "内容": "ケアタウン枚方【小規模多機能型居宅介護】大阪府枚方市三矢町6－12ケアライフ・ケアセンタービル　4階", "url": "https://www.kaigokensaku.mhlw.go.jp/27/index.php?action_kouhyou_detail_004_kani=true&JigyosyoCd=2792400026-00&ServiceCd=730&Type=search", "url2": "http://www.care-life.jp/" }, "geometry": { "type": "Point", "coordinates": [ 135.641770100000031, 34.8147345 ] } },
{ "type": "Feature", "properties": { "内容": "株式会社　ＳＨＩＮ　小規模多機能介護施設　真心庵【小規模多機能型居宅介護】大阪府枚方市星丘2丁目48-11", "url": "https://www.kaigokensaku.mhlw.go.jp/27/index.php?action_kouhyou_detail_004_kani=true&JigyosyoCd=2792400091-00&ServiceCd=730&Type=search", "url2": null }, "geometry": { "type": "Point", "coordinates": [ 135.66799762905319, 34.809064142078043 ] } },
{ "type": "Feature", "properties": { "内容": "小規模多機能ホームふじ【小規模多機能型居宅介護】大阪府枚方市藤阪南町2丁目30番1号", "url": "https://www.kaigokensaku.mhlw.go.jp/27/index.php?action_kouhyou_detail_004_kani=true&JigyosyoCd=2792400455-00&ServiceCd=730&Type=search", "url2": "http://syoujukai.org/service/takino.html" }, "geometry": { "type": "Point", "coordinates": [ 135.700166886060828, 34.815629141228449 ] } },
{ "type": "Feature", "properties": { "内容": "小規模多機能型居宅介護なぎさカーム【小規模多機能型居宅介護】大阪府枚方市渚西1丁目24番1号", "url": "https://www.kaigokensaku.mhlw.go.jp/27/index.php?action_kouhyou_detail_004_kani=true&JigyosyoCd=2792400489-00&ServiceCd=730&Type=search", "url2": "http：//www.ojunkai.com" }, "geometry": { "type": "Point", "coordinates": [ 135.651010700000029, 34.829880899999985 ] } },
{ "type": "Feature", "properties": { "内容": "小規模多機能ホームむらの美来【小規模多機能型居宅介護】大阪府枚方市村野本町24番69号", "url": "https://www.kaigokensaku.mhlw.go.jp/27/index.php?action_kouhyou_detail_004_kani=true&JigyosyoCd=2792400968-00&ServiceCd=730&Type=search", "url2": "http://misugikai.jp" }, "geometry": { "type": "Point", "coordinates": [ 135.6682138, 34.7995898 ] } },
{ "type": "Feature", "properties": { "内容": "小規模多機能ホームまきの美郷【小規模多機能型居宅介護】大阪府枚方市牧野北町11-15", "url": "https://www.kaigokensaku.mhlw.go.jp/27/index.php?action_kouhyou_detail_004_kani=true&JigyosyoCd=2792400182-00&ServiceCd=730&Type=search", "url2": "http://www.misugikai.jp/" }, "geometry": { "type": "Point", "coordinates": [ 135.662505957008307, 34.849277757863625 ] } },
{ "type": "Feature", "properties": { "内容": "パナソニックエイジフリーケアセンター枚方津田・小規模多機能【小規模多機能型居宅介護】大阪府枚方市津田元町二丁目28番25号", "url": "https://www.kaigokensaku.mhlw.go.jp/27/index.php?action_kouhyou_detail_004_kani=true&JigyosyoCd=2792400323-00&ServiceCd=730&Type=search", "url2": "http://sumai.panasonic.jp/agefree/" }, "geometry": { "type": "Point", "coordinates": [ 135.706325637434361, 34.807226053997113 ] } },
{ "type": "Feature", "properties": { "内容": "エイジフリーケアセンター枚方牧野・小規模多機能【小規模多機能型居宅介護】大阪府枚方市宇山町35-26", "url": "https://www.kaigokensaku.mhlw.go.jp/27/index.php?action_kouhyou_detail_004_kani=true&JigyosyoCd=2792400331-00&ServiceCd=730&Type=search", "url2": "http://sumai.panasonic.jp/agefree/facility_care/agefree-house/hirakatamakino/" }, "geometry": { "type": "Point", "coordinates": [ 135.672319600000037, 34.8449929 ] } },
{ "type": "Feature", "properties": { "内容": "エイジフリーケアセンター枚方香里　小規模多機能【小規模多機能型居宅介護】大阪府枚方市東中振1-63-25エイジフリーケアセンター枚方香里　小規模多機能", "url": "https://www.kaigokensaku.mhlw.go.jp/27/index.php?action_kouhyou_detail_004_kani=true&JigyosyoCd=2792400349-00&ServiceCd=730&Type=search", "url2": "https://sumai.panasonic.jp/agefree/facility_care/agefree-house/hirakatamakino/" }, "geometry": { "type": "Point", "coordinates": [ 135.642145300000038, 34.7975447 ] } },
{ "type": "Feature", "properties": { "内容": "小規模多機能ホーム　水尾の家【小規模多機能型居宅介護】茨木市水尾１－１２－５５", "url": "https://www.kaigokensaku.mhlw.go.jp/27/index.php?action_kouhyou_detail_004_kani=true&JigyosyoCd=2794200036-00&ServiceCd=730&Type=search", "url2": "http://www.ibarakikouseikai.or.jp/" }, "geometry": { "type": "Point", "coordinates": [ 135.575459799999976, 34.8082866 ] } },
{ "type": "Feature", "properties": { "内容": "小規模多機能センター　ききょう【小規模多機能型居宅介護】茨木市見付山1-11-1", "url": "https://www.kaigokensaku.mhlw.go.jp/27/index.php?action_kouhyou_detail_004_kani=true&JigyosyoCd=2794200044-00&ServiceCd=730&Type=search", "url2": "http://www.keitokukai.or.jp" }, "geometry": { "type": "Point", "coordinates": [ 135.553917404893468, 34.8197080803738 ] } },
{ "type": "Feature", "properties": { "内容": "小規模多機能センター　なでしこ【小規模多機能型居宅介護】大阪府茨木市見付山１－３－２９", "url": "https://www.kaigokensaku.mhlw.go.jp/27/index.php?action_kouhyou_detail_004_kani=true&JigyosyoCd=2794200119-00&ServiceCd=730&Type=search", "url2": "http://www.keitokukai.or.jp/" }, "geometry": { "type": "Point", "coordinates": [ 135.55383089999998, 34.8192905 ] } },
{ "type": "Feature", "properties": { "内容": "小規模多機能センターはぎ【小規模多機能型居宅介護】大阪府茨木市見付山1丁目11番18号", "url": "https://www.kaigokensaku.mhlw.go.jp/27/index.php?action_kouhyou_detail_004_kani=true&JigyosyoCd=2794200432-00&ServiceCd=730&Type=search", "url2": "http://ｗｗｗ.keitokukai.or.jp" }, "geometry": { "type": "Point", "coordinates": [ 135.553908803704871, 34.820113770529254 ] } },
{ "type": "Feature", "properties": { "内容": "小規模多機能センター春日丘荘「彩の家」【小規模多機能型居宅介護】大阪府茨木市南春日丘７丁目１１番４８号", "url": "https://www.kaigokensaku.mhlw.go.jp/27/index.php?action_kouhyou_detail_004_kani=true&JigyosyoCd=2794200168-00&ServiceCd=730&Type=search", "url2": "http://www.kasugaoka.net/" }, "geometry": { "type": "Point", "coordinates": [ 135.531471699999969, 34.821220500000024 ] } },
{ "type": "Feature", "properties": { "内容": "小規模多機能ホーム安威ゆとり【小規模多機能型居宅介護】大阪府茨木市安威四丁目13-20小規模多機能ホーム安威ゆとり", "url": "https://www.kaigokensaku.mhlw.go.jp/27/index.php?action_kouhyou_detail_004_kani=true&JigyosyoCd=2794200812-00&ServiceCd=730&Type=search", "url2": null }, "geometry": { "type": "Point", "coordinates": [ 135.562320371163906, 34.856406931573176 ] } },
{ "type": "Feature", "properties": { "内容": "小規模多機能ホーム大手町ゆとり【小規模多機能型居宅介護】大阪府茨木市２丁目３０　３Ｆ", "url": "https://www.kaigokensaku.mhlw.go.jp/27/index.php?action_kouhyou_detail_004_kani=true&JigyosyoCd=2794200382-00&ServiceCd=730&Type=search", "url2": "http://fureai-poppo.jp/index.html" }, "geometry": { "type": "Point", "coordinates": [ 135.581268099999988, 34.8349982 ] } },
{ "type": "Feature", "properties": { "内容": "パナソニックエイジフリーケアセンター茨木総持寺・小規模多機能【小規模多機能型居宅介護】大阪府茨木市橋の内二丁目12番31号", "url": "https://www.kaigokensaku.mhlw.go.jp/27/index.php?action_kouhyou_detail_004_kani=true&JigyosyoCd=2794200556-00&ServiceCd=730&Type=search", "url2": "http://panasonic.co.jp/es/pesaf/" }, "geometry": { "type": "Point", "coordinates": [ 135.5850418, 34.8243215 ] } },
{ "type": "Feature", "properties": { "内容": "茨木小規模多機能施設ラガール【小規模多機能型居宅介護】大阪府茨木市太田東芝町2－9", "url": "https://www.kaigokensaku.mhlw.go.jp/27/index.php?action_kouhyou_detail_004_kani=true&JigyosyoCd=2794200705-00&ServiceCd=730&Type=search", "url2": "http://ibaraki-cc.koudoukai.or.jp/" }, "geometry": { "type": "Point", "coordinates": [ 135.57674590000002, 34.8398103 ] } },
{ "type": "Feature", "properties": { "内容": "小規模多機能センター　みやけの里【小規模多機能型居宅介護】大阪府茨木市丑寅二丁目1-8", "url": "https://www.kaigokensaku.mhlw.go.jp/27/index.php?action_kouhyou_detail_004_kani=true&JigyosyoCd=2794200424-00&ServiceCd=730&Type=search", "url2": "http://www.tenno.or.jp/" }, "geometry": { "type": "Point", "coordinates": [ 135.558183699999972, 34.7967429 ] } },
{ "type": "Feature", "properties": { "内容": "パナソニックエイジフリーケアセンター茨木平田台・小規模多機能【小規模多機能型居宅介護】大阪府茨木市平田台２番１号パナソニックエイジフリーハウス茨木平田台", "url": "https://www.kaigokensaku.mhlw.go.jp/27/index.php?action_kouhyou_detail_004_kani=true&JigyosyoCd=2794200457-00&ServiceCd=730&Type=search", "url2": "http://sumai.panasonic.jp/agefree/facility_care/agefree-house/" }, "geometry": { "type": "Point", "coordinates": [ 135.584378499999957, 34.8071925 ] } },
{ "type": "Feature", "properties": { "内容": "パナソニックエイジフリーケアセンター茨木沢良宜・小規模多機能【小規模多機能型居宅介護】大阪府茨木市沢良宜東町６番１３号", "url": "https://www.kaigokensaku.mhlw.go.jp/27/index.php?action_kouhyou_detail_004_kani=true&JigyosyoCd=2794200465-00&ServiceCd=730&Type=search", "url2": "http://sumai.panasonic.jp/agefree/" }, "geometry": { "type": "Point", "coordinates": [ 135.5719464, 34.7985208 ] } },
{ "type": "Feature", "properties": { "内容": "ゆとり庵小柳【小規模多機能型居宅介護】大阪府茨木市小柳町13-3", "url": "https://www.kaigokensaku.mhlw.go.jp/27/index.php?action_kouhyou_detail_004_kani=true&JigyosyoCd=2794200937-00&ServiceCd=730&Type=search", "url2": "https://hinode.or.jp/about/hinodefukushikai/" }, "geometry": { "type": "Point", "coordinates": [ 135.5788068, 34.7956991 ] } },
{ "type": "Feature", "properties": { "内容": "小規模多機能ホームよおぎ【小規模多機能型居宅介護】大阪府八尾市八尾木6-100ふれあいセンター八尾", "url": "https://www.kaigokensaku.mhlw.go.jp/27/index.php?action_kouhyou_detail_004_kani=true&JigyosyoCd=2795500632-00&ServiceCd=730&Type=search", "url2": "https://www.iseikyoukawachino.jp/yao-clinic/care/takinou" }, "geometry": { "type": "Point", "coordinates": [ 135.6144016, 34.606143500000016 ] } },
{ "type": "Feature", "properties": { "内容": "優人会小規模多機能センター【小規模多機能型居宅介護】大阪府泉佐野市湊4丁目5番13号レジデント泉佐野　１階", "url": "https://www.kaigokensaku.mhlw.go.jp/27/index.php?action_kouhyou_detail_004_kani=true&JigyosyoCd=2794500013-00&ServiceCd=730&Type=search", "url2": "http://yujinkai.or.jp/shokibo/" }, "geometry": { "type": "Point", "coordinates": [ 135.326876, 34.4184744 ] } },
{ "type": "Feature", "properties": { "内容": "小規模多機能　せんじゅ【小規模多機能型居宅介護】泉佐野市中町1丁目7番41号", "url": "https://www.kaigokensaku.mhlw.go.jp/27/index.php?action_kouhyou_detail_004_kani=true&JigyosyoCd=2794500070-00&ServiceCd=730&Type=search", "url2": null }, "geometry": { "type": "Point", "coordinates": [ 135.318443800000068, 34.401437 ] } },
{ "type": "Feature", "properties": { "内容": "小規模多機能ホームくすのき【小規模多機能型居宅介護】大阪府泉佐野市春日町2番28号", "url": "https://www.kaigokensaku.mhlw.go.jp/27/index.php?action_kouhyou_detail_004_kani=true&JigyosyoCd=2794500062-00&ServiceCd=730&Type=search", "url2": "http://raiyu-kai.com/" }, "geometry": { "type": "Point", "coordinates": [ 135.316926108004054, 34.415039164522945 ] } },
{ "type": "Feature", "properties": { "内容": "サテライト型小規模多機能型居宅介護事業所　つぐみ【小規模多機能型居宅介護】大阪府富田林市山手町20-22", "url": "https://www.kaigokensaku.mhlw.go.jp/27/index.php?action_kouhyou_detail_004_kani=true&JigyosyoCd=2794900130-00&ServiceCd=730&Type=search", "url2": "http://www.imajo.org" }, "geometry": { "type": "Point", "coordinates": [ 135.609146, 34.4830183 ] } },
{ "type": "Feature", "properties": { "内容": "医療法人今城クリニック小規模多機能型居宅介護事業所愛【小規模多機能型居宅介護】大阪府富田林市錦織東1丁目18-2", "url": "https://www.kaigokensaku.mhlw.go.jp/27/index.php?action_kouhyou_detail_004_kani=true&JigyosyoCd=2794900304-00&ServiceCd=730&Type=search", "url2": "https://imajo.org/" }, "geometry": { "type": "Point", "coordinates": [ 135.589484790074181, 34.487859624042869 ] } },
{ "type": "Feature", "properties": { "内容": "医療法人今城クリニックファミリーハウス今城【小規模多機能型居宅介護】大阪府富田林市向陽台2丁目6-10", "url": "https://www.kaigokensaku.mhlw.go.jp/27/index.php?action_kouhyou_detail_004_kani=true&JigyosyoCd=2794900049-00&ServiceCd=730&Type=search", "url2": null }, "geometry": { "type": "Point", "coordinates": [ 135.5823292, 34.5014881 ] } },
{ "type": "Feature", "properties": { "内容": "特別養護老人ホーム寿里苑夢の杜　小規模多機能型居宅介護【小規模多機能型居宅介護】大阪府富田林市高辺台2-8-12", "url": "https://www.kaigokensaku.mhlw.go.jp/27/index.php?action_kouhyou_detail_004_kani=true&JigyosyoCd=2794900015-00&ServiceCd=730&Type=search", "url2": "http://www.julien.or.jp" }, "geometry": { "type": "Point", "coordinates": [ 135.5715219, 34.4990631 ] } },
{ "type": "Feature", "properties": { "内容": "小規模多機能ホームだんらん【小規模多機能型居宅介護】大阪府寝屋川市三井南町２０－１７みい診療所２階", "url": "https://www.kaigokensaku.mhlw.go.jp/27/index.php?action_kouhyou_detail_004_kani=true&JigyosyoCd=2790300020-00&ServiceCd=730&Type=search", "url2": "http://www.keihan-healthcoop.net/" }, "geometry": { "type": "Point", "coordinates": [ 135.63841530000002, 34.7748085 ] } },
{ "type": "Feature", "properties": { "内容": "小規模多機能型居宅介護施設　ＦＭＣ大利ホーム【小規模多機能型居宅介護】大阪府寝屋川市北大利町19番10号", "url": "https://www.kaigokensaku.mhlw.go.jp/27/index.php?action_kouhyou_detail_004_kani=true&JigyosyoCd=2790300129-00&ServiceCd=730&Type=search", "url2": "http://www.fmckaigo.com/otoshi/" }, "geometry": { "type": "Point", "coordinates": [ 135.61765349999996, 34.7673093 ] } },
{ "type": "Feature", "properties": { "内容": "小規模多機能ホーム錦の里【小規模多機能型居宅介護】寝屋川市錦町２０－５", "url": "https://www.kaigokensaku.mhlw.go.jp/27/index.php?action_kouhyou_detail_004_kani=true&JigyosyoCd=2790300103-00&ServiceCd=730&Type=search", "url2": "http://www.iwaki-kai.or.jp" }, "geometry": { "type": "Point", "coordinates": [ 135.61502889999997, 34.7614321 ] } },
{ "type": "Feature", "properties": { "内容": "小規模多機能居宅介護パル寝屋川【小規模多機能型居宅介護】大阪府寝屋川市本町16-11", "url": "https://www.kaigokensaku.mhlw.go.jp/27/index.php?action_kouhyou_detail_004_kani=true&JigyosyoCd=2790300566-00&ServiceCd=730&Type=search", "url2": "http://wwwpalcoop.or.jp/" }, "geometry": { "type": "Point", "coordinates": [ 135.6271668, 34.7660067 ] } },
{ "type": "Feature", "properties": { "内容": "ここから木田元宮　小規模多機能型居宅介護【小規模多機能型居宅介護】大阪府寝屋川市　木田元宮２丁目６－１３", "url": "https://www.kaigokensaku.mhlw.go.jp/27/index.php?action_kouhyou_detail_004_kani=true&JigyosyoCd=2790300061-00&ServiceCd=730&Type=search", "url2": "http://www.cocokaragp.com" }, "geometry": { "type": "Point", "coordinates": [ 135.620495300000016, 34.7527917 ] } },
{ "type": "Feature", "properties": { "内容": "小規模多機能ホーム千寿【小規模多機能型居宅介護】大阪府河内長野市木戸2丁目33-5", "url": "https://www.kaigokensaku.mhlw.go.jp/27/index.php?action_kouhyou_detail_004_kani=true&JigyosyoCd=2790700054-00&ServiceCd=730&Type=search", "url2": "http://www.rapport-kuminoki.jp/" }, "geometry": { "type": "Point", "coordinates": [ 135.5638049, 34.4749429 ] } },
{ "type": "Feature", "properties": { "内容": "リアンまつばら【小規模多機能型居宅介護】松原市阿保3-15-22", "url": "https://www.kaigokensaku.mhlw.go.jp/27/index.php?action_kouhyou_detail_004_kani=true&JigyosyoCd=2794800108-00&ServiceCd=730&Type=search", "url2": "http://www.shoutokukai.net" }, "geometry": { "type": "Point", "coordinates": [ 135.555178599999977, 34.579516 ] } },
{ "type": "Feature", "properties": { "内容": "小規模多機能ホーム　ごりょうの家【小規模多機能型居宅介護】大阪府大東市御領３丁目１２番４８号小規模多機能ホーム　ごりょうの家", "url": "https://www.kaigokensaku.mhlw.go.jp/27/index.php?action_kouhyou_detail_004_kani=true&JigyosyoCd=2791900216-00&ServiceCd=730&Type=search", "url2": "http://kawafukukai.or.jp" }, "geometry": { "type": "Point", "coordinates": [ 135.6104163, 34.7198367 ] } },
{ "type": "Feature", "properties": { "内容": "医療福祉生協おおさか小規模多機能ホーム　さんがの杜【小規模多機能型居宅介護】大阪府大東市三箇５-６-２２", "url": "https://www.kaigokensaku.mhlw.go.jp/27/index.php?action_kouhyou_detail_004_kani=true&JigyosyoCd=2791900075-00&ServiceCd=730&Type=search", "url2": "http://sgroup00.sakura.ne.jp/daitou/index.html" }, "geometry": { "type": "Point", "coordinates": [ 135.624920400000065, 34.7251169 ] } },
{ "type": "Feature", "properties": { "内容": "サニーヴィラひまわり【小規模多機能型居宅介護】大阪府和泉市府中町5-8-16", "url": "https://www.kaigokensaku.mhlw.go.jp/27/index.php?action_kouhyou_detail_004_kani=true&JigyosyoCd=2790500017-00&ServiceCd=730&Type=search", "url2": "http://www.sunnyvilla.or.jp" }, "geometry": { "type": "Point", "coordinates": [ 135.4319372, 34.4879514 ] } },
{ "type": "Feature", "properties": { "内容": "ヒューマンライフケアみのお乃宿【小規模多機能型居宅介護】大阪府箕面市坊島４－８－１５", "url": "https://www.kaigokensaku.mhlw.go.jp/27/index.php?action_kouhyou_detail_004_kani=true&JigyosyoCd=2791400092-00&ServiceCd=730&Type=search", "url2": "https://human-lifecare.jp/" }, "geometry": { "type": "Point", "coordinates": [ 135.486094800000046, 34.8331771 ] } },
{ "type": "Feature", "properties": { "内容": "白島荘小規模多機能型居宅介護事業所「ひねもす」【小規模多機能型居宅介護】大阪府箕面市粟生新家三丁目１２番５号", "url": "https://www.kaigokensaku.mhlw.go.jp/27/index.php?action_kouhyou_detail_004_kani=true&JigyosyoCd=2791400050-00&ServiceCd=730&Type=search", "url2": "http://www.osj.or.jp/hakushima/" }, "geometry": { "type": "Point", "coordinates": [ 135.513506199999938, 34.83826 ] } },
{ "type": "Feature", "properties": { "内容": "小規模多機能ホームこのか【小規模多機能型居宅介護】大阪府箕面市半町2-2-10小規模多機能ホームこのか", "url": "https://www.kaigokensaku.mhlw.go.jp/27/index.php?action_kouhyou_detail_004_kani=true&JigyosyoCd=2791400134-00&ServiceCd=730&Type=search", "url2": null }, "geometry": { "type": "Point", "coordinates": [ 135.459102100000024, 34.816265299999976 ] } },
{ "type": "Feature", "properties": { "内容": "医療法人健泉会　小規模多機能型居宅介護びはーら西松庵【小規模多機能型居宅介護】羽曳野市野435-1", "url": "https://www.kaigokensaku.mhlw.go.jp/27/index.php?action_kouhyou_detail_004_kani=true&JigyosyoCd=2793800042-00&ServiceCd=730&Type=search", "url2": "http://saisyouan.jp/" }, "geometry": { "type": "Point", "coordinates": [ 135.574076200000036, 34.5621949 ] } },
{ "type": "Feature", "properties": { "内容": "小規模多機能そらまめ【小規模多機能型居宅介護】大阪府羽曳野市南古市3-20", "url": "https://www.kaigokensaku.mhlw.go.jp/27/index.php?action_kouhyou_detail_004_kani=true&JigyosyoCd=2793800067-00&ServiceCd=730&Type=search", "url2": null }, "geometry": { "type": "Point", "coordinates": [ 135.616004834393323, 34.543003470553558 ] } },
{ "type": "Feature", "properties": { "内容": "ちいさなぶどうの家２番館【小規模多機能型居宅介護】大阪府羽曳野市駒ヶ谷1105番地ぶどうの家２番館", "url": "https://www.kaigokensaku.mhlw.go.jp/27/index.php?action_kouhyou_detail_004_kani=true&JigyosyoCd=2793800117-00&ServiceCd=730&Type=search", "url2": "http://www.budo-s.com/" }, "geometry": { "type": "Point", "coordinates": [ 135.627803205973805, 34.547018531547963 ] } },
{ "type": "Feature", "properties": { "内容": "けいはん医療生活協同組合小規模多機能ホームはすね【小規模多機能型居宅介護】大阪府門真市城垣町2-33", "url": "https://www.kaigokensaku.mhlw.go.jp/27/index.php?action_kouhyou_detail_004_kani=true&JigyosyoCd=2792600013-00&ServiceCd=730&Type=search", "url2": "http://www.keihan-healthcoop.net/" }, "geometry": { "type": "Point", "coordinates": [ 135.613410199999947, 34.7418428 ] } },
{ "type": "Feature", "properties": { "内容": "小規模多機能ホーム大和田ちどり【小規模多機能型居宅介護】大阪府門真市野里町26番17号", "url": "https://www.kaigokensaku.mhlw.go.jp/27/index.php?action_kouhyou_detail_004_kani=true&JigyosyoCd=2792600021-00&ServiceCd=730&Type=search", "url2": "http://www.chidori.or.jp" }, "geometry": { "type": "Point", "coordinates": [ 135.604797100000042, 34.7398177 ] } },
{ "type": "Feature", "properties": { "内容": "門真小規模多機能施設ラガール【小規模多機能型居宅介護】大阪府門真市新橋町２７番１２号", "url": "https://www.kaigokensaku.mhlw.go.jp/27/index.php?action_kouhyou_detail_004_kani=true&JigyosyoCd=2792600120-00&ServiceCd=730&Type=search", "url2": "http://www.koudoukai.or.jp/k-cc/" }, "geometry": { "type": "Point", "coordinates": [ 135.584624100000013, 34.7340929 ] } },
{ "type": "Feature", "properties": { "内容": "小規模多機能ホーム摂津いやし園【小規模多機能型居宅介護】大阪府摂津市鳥飼下1丁目15番6号", "url": "https://www.kaigokensaku.mhlw.go.jp/27/index.php?action_kouhyou_detail_004_kani=true&JigyosyoCd=2793700010-00&ServiceCd=730&Type=search", "url2": "http://iyashien.web.fc2.com/" }, "geometry": { "type": "Point", "coordinates": [ 135.587608899999964, 34.7758407 ] } },
{ "type": "Feature", "properties": { "内容": "エルケア株式会社エルケアローズガーデン高石【小規模多機能型居宅介護】高石市西取石7-3-8", "url": "https://www.kaigokensaku.mhlw.go.jp/27/index.php?action_kouhyou_detail_004_kani=true&JigyosyoCd=2795300041-00&ServiceCd=730&Type=search", "url2": "https://www.l-care.jp/" }, "geometry": { "type": "Point", "coordinates": [ 135.443746899999951, 34.5149872 ] } },
{ "type": "Feature", "properties": { "内容": "小規模多機能ホームアムール高石【小規模多機能型居宅介護】高石市加茂２丁目７番８号", "url": "https://www.kaigokensaku.mhlw.go.jp/27/index.php?action_kouhyou_detail_004_kani=true&JigyosyoCd=2795300017-00&ServiceCd=730&Type=search", "url2": "https://www.-lifepartner.co.jp" }, "geometry": { "type": "Point", "coordinates": [ 135.440666400000026, 34.5244501 ] } },
{ "type": "Feature", "properties": { "内容": "小規模多機能型居宅介護　ソラスト高石【小規模多機能型居宅介護】大阪府高石市綾園3-1-28", "url": "https://www.kaigokensaku.mhlw.go.jp/27/index.php?action_kouhyou_detail_004_kani=true&JigyosyoCd=2795300033-00&ServiceCd=730&Type=search", "url2": "https://solasto-kaigo.com/care/area/solastotakaishi2.html" }, "geometry": { "type": "Point", "coordinates": [ 135.431850599999962, 34.5204531 ] } },
{ "type": "Feature", "properties": { "内容": "フォレストガーデン　くさか【小規模多機能型居宅介護】大阪府東大阪市日下町3丁目7番14号", "url": "https://www.kaigokensaku.mhlw.go.jp/27/index.php?action_kouhyou_detail_004_kani=true&JigyosyoCd=2795000542-00&ServiceCd=730&Type=search", "url2": "http://care-net.biz/27/fg-kusaka/" }, "geometry": { "type": "Point", "coordinates": [ 135.645640599999979, 34.6930942 ] } },
{ "type": "Feature", "properties": { "内容": "あいおいホーム小規模多機能事業所英田【小規模多機能型居宅介護】大阪府東大阪市吉田本町一丁目5番26号", "url": "https://www.kaigokensaku.mhlw.go.jp/27/index.php?action_kouhyou_detail_004_kani=true&JigyosyoCd=2795000492-00&ServiceCd=730&Type=search", "url2": "https://sinsir.jp/aioihomeakada/" }, "geometry": { "type": "Point", "coordinates": [ 135.623115557112442, 34.673492565313545 ] } },
{ "type": "Feature", "properties": { "内容": "小規模多機能ホームはなぞの【小規模多機能型居宅介護】大阪府東大阪市玉串町西1-3-33", "url": "https://www.kaigokensaku.mhlw.go.jp/27/index.php?action_kouhyou_detail_004_kani=true&JigyosyoCd=2795000229-00&ServiceCd=730&Type=search", "url2": "http://iseikyoukawachino.jp/kawachino/" }, "geometry": { "type": "Point", "coordinates": [ 135.615642100000059, 34.6554967 ] } },
{ "type": "Feature", "properties": { "内容": "小規模多機能型居宅介護事業　なでしこ泉南【小規模多機能型居宅介護】大阪府泉南市　りんくう南浜　3番23", "url": "https://www.kaigokensaku.mhlw.go.jp/27/index.php?action_kouhyou_detail_004_kani=true&JigyosyoCd=2795600044-00&ServiceCd=730&Type=search", "url2": "http://www.saiseikaisennan.jp/" }, "geometry": { "type": "Point", "coordinates": [ 135.265055539217428, 34.378137978838886 ] } },
{ "type": "Feature", "properties": { "内容": "あっとほーむ六尾の郷【小規模多機能型居宅介護】大阪府泉南市信達六尾554番地1", "url": "https://www.kaigokensaku.mhlw.go.jp/27/index.php?action_kouhyou_detail_004_kani=true&JigyosyoCd=2795600036-00&ServiceCd=730&Type=search", "url2": "http://www.choujukai.or.jp" }, "geometry": { "type": "Point", "coordinates": [ 135.285550199999989, 34.3474489 ] } },
{ "type": "Feature", "properties": { "内容": "小規模多機能のおうち　にこにこ【小規模多機能型居宅介護】大阪府泉南市樽井9丁目22番17", "url": "https://www.kaigokensaku.mhlw.go.jp/27/index.php?action_kouhyou_detail_004_kani=true&JigyosyoCd=2795600069-00&ServiceCd=730&Type=search", "url2": null }, "geometry": { "type": "Point", "coordinates": [ 135.271692, 34.3729677 ] } },
{ "type": "Feature", "properties": { "内容": "小規模多機能型居宅介護　ぶどうの枝【小規模多機能型居宅介護】大阪府泉南市樽井7-23-3", "url": "https://www.kaigokensaku.mhlw.go.jp/27/index.php?action_kouhyou_detail_004_kani=true&JigyosyoCd=2795600077-00&ServiceCd=730&Type=search", "url2": "http://budo-no-ki.com" }, "geometry": { "type": "Point", "coordinates": [ 135.264553500000034, 34.3739508 ] } },
{ "type": "Feature", "properties": { "内容": "小規模多機能ホームみらい【小規模多機能型居宅介護】交野市倉治四丁目４０番７号", "url": "https://www.kaigokensaku.mhlw.go.jp/27/index.php?action_kouhyou_detail_004_kani=true&JigyosyoCd=2793600012-00&ServiceCd=730&Type=search", "url2": "http://www.misugikai.jp" }, "geometry": { "type": "Point", "coordinates": [ 135.684886199999937, 34.7956513 ] } },
{ "type": "Feature", "properties": { "内容": "小規模多機能ホーム　わかば交野【小規模多機能型居宅介護】大阪府交野市星田北７丁目７-１３", "url": "https://www.kaigokensaku.mhlw.go.jp/27/index.php?action_kouhyou_detail_004_kani=true&JigyosyoCd=2793600152-00&ServiceCd=730&Type=search", "url2": "https://kouei-kai.com/" }, "geometry": { "type": "Point", "coordinates": [ 135.662070699999987, 34.7670068 ] } },
{ "type": "Feature", "properties": { "内容": "小規模多機能ホーム　ひなた【小規模多機能型居宅介護】大阪狭山市池ノ原3丁目564番地１", "url": "https://www.kaigokensaku.mhlw.go.jp/27/index.php?action_kouhyou_detail_004_kani=true&JigyosyoCd=2799300039-00&ServiceCd=730&Type=search", "url2": "http://www.rapport-kuminoki.jp/" }, "geometry": { "type": "Point", "coordinates": [ 135.546686543685951, 34.49946003548547 ] } },
{ "type": "Feature", "properties": { "内容": "小規模多機能型居宅介護　寿里苑花舞の郷【小規模多機能型居宅介護】大阪狭山市東池尻４－１３３６－１", "url": "https://www.kaigokensaku.mhlw.go.jp/27/index.php?action_kouhyou_detail_004_kani=true&JigyosyoCd=2799300062-00&ServiceCd=730&Type=search", "url2": "http://www.julien.or.jp/hanamainosato/" }, "geometry": { "type": "Point", "coordinates": [ 135.5550925, 34.5140556 ] } },
{ "type": "Feature", "properties": { "内容": "小規模多機能型居宅介護　ふれ愛四季の郷【小規模多機能型居宅介護】大阪府阪南市尾崎町５０４番１", "url": "https://www.kaigokensaku.mhlw.go.jp/27/index.php?action_kouhyou_detail_004_kani=true&JigyosyoCd=2799500075-00&ServiceCd=730&Type=search", "url2": "http://www.shikinosato-fureai.net" }, "geometry": { "type": "Point", "coordinates": [ 135.249885400000039, 34.3610519 ] } },
{ "type": "Feature", "properties": { "内容": "小規模多機能型居宅介護下荘【小規模多機能型居宅介護】大阪府阪南市箱作1037-1", "url": "https://www.kaigokensaku.mhlw.go.jp/27/index.php?action_kouhyou_detail_004_kani=true&JigyosyoCd=2799500083-00&ServiceCd=730&Type=search", "url2": null }, "geometry": { "type": "Point", "coordinates": [ 135.209429369616942, 34.342909812973062 ] } },
{ "type": "Feature", "properties": { "内容": "小規模多機能ホーム　アムール忠岡【小規模多機能型居宅介護】大阪府泉北郡忠岡町忠岡中1丁目5番26号", "url": "https://www.kaigokensaku.mhlw.go.jp/27/index.php?action_kouhyou_detail_004_kani=true&JigyosyoCd=2795400031-00&ServiceCd=730&Type=search", "url2": "https://www.e-lifepartner.co.jp" }, "geometry": { "type": "Point", "coordinates": [ 135.397545900000068, 34.4904423 ] } }
]
}
