{
"type": "FeatureCollection",
"name": "geo_27_特定施設入居者生活介護（軽費老人ホーム）",
"crs": { "type": "name", "properties": { "name": "urn:ogc:def:crs:OGC:1.3:CRS84" } },
"features": [
{ "type": "Feature", "properties": { "内容": "ケアハウス豊泉家住之江【特定施設入居者生活介護（軽費老人ホーム）】大阪府大阪市住之江区新北島7-4-20", "url": "https://www.kaigokensaku.mhlw.go.jp/27/index.php?action_kouhyou_detail_004_kani=true&JigyosyoCd=2775900505-00&ServiceCd=332&Type=search", "url2": "http://housenka.com" }, "geometry": { "type": "Point", "coordinates": [ 135.461613, 34.6079164 ] } },
{ "type": "Feature", "properties": { "内容": "ケアハウス　ゆーとりあ【特定施設入居者生活介護（軽費老人ホーム）】大阪府堺市中区見野山１６２番地", "url": "https://www.kaigokensaku.mhlw.go.jp/27/index.php?action_kouhyou_detail_004_kani=true&JigyosyoCd=2776100196-00&ServiceCd=332&Type=search", "url2": "http://yutoria.or.jp/" }, "geometry": { "type": "Point", "coordinates": [ 135.5350724, 34.5025372 ] } },
{ "type": "Feature", "properties": { "内容": "社会福祉法人　シャローム【特定施設入居者生活介護（軽費老人ホーム）】大阪府堺市南区檜尾３３６０－１０", "url": "https://www.kaigokensaku.mhlw.go.jp/27/index.php?action_kouhyou_detail_004_kani=true&JigyosyoCd=2776400208-00&ServiceCd=332&Type=search", "url2": "http://setton.jp/" }, "geometry": { "type": "Point", "coordinates": [ 135.46734790000005, 34.4903404 ] } },
{ "type": "Feature", "properties": { "内容": "特定施設入居者生活介護事業所美和【特定施設入居者生活介護（軽費老人ホーム）】大阪府堺市南区三木閉57番地ケアハウス美和", "url": "https://www.kaigokensaku.mhlw.go.jp/27/index.php?action_kouhyou_detail_004_kani=true&JigyosyoCd=2776401693-00&ServiceCd=332&Type=search", "url2": null }, "geometry": { "type": "Point", "coordinates": [ 135.488237300000037, 34.4966656 ] } },
{ "type": "Feature", "properties": { "内容": "軽費老人ホーム（ケアハウス）和風荘【特定施設入居者生活介護（軽費老人ホーム）】大阪府堺市美原区平尾2196", "url": "https://www.kaigokensaku.mhlw.go.jp/27/index.php?action_kouhyou_detail_004_kani=true&JigyosyoCd=2770108914-00&ServiceCd=332&Type=search", "url2": "http://miharasou-group.net/wafu/" }, "geometry": { "type": "Point", "coordinates": [ 135.5701851, 34.5281405 ] } },
{ "type": "Feature", "properties": { "内容": "岸和田軽費老人ホーム幸福荘【特定施設入居者生活介護（軽費老人ホーム）】大阪府岸和田市神須屋町1丁目10-12", "url": "https://www.kaigokensaku.mhlw.go.jp/27/index.php?action_kouhyou_detail_004_kani=true&JigyosyoCd=2771102353-00&ServiceCd=332&Type=search", "url2": "https://koufukusou.com/" }, "geometry": { "type": "Point", "coordinates": [ 135.394702400000028, 34.441337200000014 ] } },
{ "type": "Feature", "properties": { "内容": "ケアハウス豊泉家桃山台【特定施設入居者生活介護（軽費老人ホーム）】大阪府豊中市上新田3丁目10番35号", "url": "https://www.kaigokensaku.mhlw.go.jp/27/index.php?action_kouhyou_detail_004_kani=true&JigyosyoCd=2774002550-00&ServiceCd=332&Type=search", "url2": "http://www.housenka.com/" }, "geometry": { "type": "Point", "coordinates": [ 135.498075299999982, 34.7990501 ] } },
{ "type": "Feature", "properties": { "内容": "古江台ホールひまわり【特定施設入居者生活介護（軽費老人ホーム）】大阪府池田市古江町18番地の10", "url": "https://www.kaigokensaku.mhlw.go.jp/27/index.php?action_kouhyou_detail_004_kani=true&JigyosyoCd=2772501959-00&ServiceCd=332&Type=search", "url2": "http://www.nozomi-care.jp" }, "geometry": { "type": "Point", "coordinates": [ 135.428237500000023, 34.8539877 ] } },
{ "type": "Feature", "properties": { "内容": "ケアハウスぐんげ今城の丘【特定施設入居者生活介護（軽費老人ホーム）】大阪府高槻市郡家本町13番18号", "url": "https://www.kaigokensaku.mhlw.go.jp/27/index.php?action_kouhyou_detail_004_kani=true&JigyosyoCd=2770903074-00&ServiceCd=332&Type=search", "url2": "http://www.syunjyukai.or.jp/" }, "geometry": { "type": "Point", "coordinates": [ 135.5978096, 34.8537297 ] } },
{ "type": "Feature", "properties": { "内容": "ケアハウス　リヴェスタひろの【特定施設入居者生活介護（軽費老人ホーム）】大阪府高槻市唐崎南３丁目３０番５号", "url": "https://www.kaigokensaku.mhlw.go.jp/27/index.php?action_kouhyou_detail_004_kani=true&JigyosyoCd=2770902639-00&ServiceCd=332&Type=search", "url2": "https://hironokai.com/" }, "geometry": { "type": "Point", "coordinates": [ 135.612866899999972, 34.8095569 ] } },
{ "type": "Feature", "properties": { "内容": "社会福祉法人清水福祉会　ケアハウス鶴見緑地【特定施設入居者生活介護（軽費老人ホーム）】大阪府守口市南寺方南通３丁目４番１６号", "url": "https://www.kaigokensaku.mhlw.go.jp/27/index.php?action_kouhyou_detail_004_kani=true&JigyosyoCd=2773201807-00&ServiceCd=332&Type=search", "url2": "http://www.seisuikai.net/carehouse/" }, "geometry": { "type": "Point", "coordinates": [ 135.5686399, 34.7183473 ] } },
{ "type": "Feature", "properties": { "内容": "つくしんぼ藤阪【特定施設入居者生活介護（軽費老人ホーム）】大阪府枚方市藤阪南町1丁目10番1号つくしんぼ藤阪", "url": "https://www.kaigokensaku.mhlw.go.jp/27/index.php?action_kouhyou_detail_004_kani=true&JigyosyoCd=2772402547-00&ServiceCd=332&Type=search", "url2": "http://www.syoujukai.org/" }, "geometry": { "type": "Point", "coordinates": [ 135.695587058860838, 34.814737433607512 ] } },
{ "type": "Feature", "properties": { "内容": "軽費老人ホーム　悠々の苑【特定施設入居者生活介護（軽費老人ホーム）】大阪府枚方市交北３－１－５０", "url": "https://www.kaigokensaku.mhlw.go.jp/27/index.php?action_kouhyou_detail_004_kani=true&JigyosyoCd=2772402794-00&ServiceCd=332&Type=search", "url2": "https://care-net.biz/27/yuuyuunosono/" }, "geometry": { "type": "Point", "coordinates": [ 135.67712210000002, 34.8346912 ] } },
{ "type": "Feature", "properties": { "内容": "ケアハウス　グリーンビラいばらき【特定施設入居者生活介護（軽費老人ホーム）】大阪府茨木市泉原62", "url": "https://www.kaigokensaku.mhlw.go.jp/27/index.php?action_kouhyou_detail_004_kani=true&JigyosyoCd=2774201418-00&ServiceCd=332&Type=search", "url2": "http://www.tenno.or.jp" }, "geometry": { "type": "Point", "coordinates": [ 135.530592699999943, 34.889122 ] } },
{ "type": "Feature", "properties": { "内容": "ケアハウス泉佐野【特定施設入居者生活介護（軽費老人ホーム）】大阪府泉佐野市南泉ヶ丘一丁目8番9号", "url": "https://www.kaigokensaku.mhlw.go.jp/27/index.php?action_kouhyou_detail_004_kani=true&JigyosyoCd=2774501064-00&ServiceCd=332&Type=search", "url2": "http://www.yuuwakai-care.com" }, "geometry": { "type": "Point", "coordinates": [ 135.34879090000004, 34.4118533 ] } },
{ "type": "Feature", "properties": { "内容": "ケアハウス春の家【特定施設入居者生活介護（軽費老人ホーム）】大阪府富田林市大字佐備2497番地5", "url": "https://www.kaigokensaku.mhlw.go.jp/27/index.php?action_kouhyou_detail_004_kani=true&JigyosyoCd=2774901207-00&ServiceCd=332&Type=search", "url2": "http://www.harunoie.net/" }, "geometry": { "type": "Point", "coordinates": [ 135.61466530000007, 34.4534551 ] } },
{ "type": "Feature", "properties": { "内容": "ケアハウス　いちょう園【特定施設入居者生活介護（軽費老人ホーム）】大阪府寝屋川市打上南町１４番１号", "url": "https://www.kaigokensaku.mhlw.go.jp/27/index.php?action_kouhyou_detail_004_kani=true&JigyosyoCd=2770301816-00&ServiceCd=332&Type=search", "url2": "https://ichouen.org/" }, "geometry": { "type": "Point", "coordinates": [ 135.649331599999982, 34.7535138 ] } },
{ "type": "Feature", "properties": { "内容": "輝きのまちケアハウス池田【特定施設入居者生活介護（軽費老人ホーム）】大阪府寝屋川市池田本町５－１５", "url": "https://www.kaigokensaku.mhlw.go.jp/27/index.php?action_kouhyou_detail_004_kani=true&JigyosyoCd=2770302210-00&ServiceCd=332&Type=search", "url2": "http://www.kagayakinomachi.jp/" }, "geometry": { "type": "Point", "coordinates": [ 135.615634099999966, 34.77022 ] } },
{ "type": "Feature", "properties": { "内容": "特定施設入居者生活介護事業所オーパス【特定施設入居者生活介護（軽費老人ホーム）】大阪府河内長野市松ヶ丘中町１４５４－１", "url": "https://www.kaigokensaku.mhlw.go.jp/27/index.php?action_kouhyou_detail_004_kani=true&JigyosyoCd=2770701361-00&ServiceCd=332&Type=search", "url2": "https://www.tenshokai.jp" }, "geometry": { "type": "Point", "coordinates": [ 135.559111900000062, 34.4775292 ] } },
{ "type": "Feature", "properties": { "内容": "特定施設　マイハウス和【特定施設入居者生活介護（軽費老人ホーム）】大阪府和泉市鶴山台2-4-50", "url": "https://www.kaigokensaku.mhlw.go.jp/27/index.php?action_kouhyou_detail_004_kani=true&JigyosyoCd=2770505457-00&ServiceCd=332&Type=search", "url2": "https://namihaya.net" }, "geometry": { "type": "Point", "coordinates": [ 135.4538896, 34.5051812 ] } },
{ "type": "Feature", "properties": { "内容": "ケアハウス・ＯＳＡＫＡ歓の里【特定施設入居者生活介護（軽費老人ホーム）】大阪府和泉市伏屋町5丁目10番11号", "url": "https://www.kaigokensaku.mhlw.go.jp/27/index.php?action_kouhyou_detail_004_kani=true&JigyosyoCd=2770501555-00&ServiceCd=332&Type=search", "url2": "http://www.yorokobinosato.jp/" }, "geometry": { "type": "Point", "coordinates": [ 135.4696394, 34.4724481 ] } },
{ "type": "Feature", "properties": { "内容": "アンジュ・特定施設入所者生活介護【特定施設入居者生活介護（軽費老人ホーム）】大阪府羽曳野市野３７１番地", "url": "https://www.kaigokensaku.mhlw.go.jp/27/index.php?action_kouhyou_detail_004_kani=true&JigyosyoCd=2773800400-00&ServiceCd=332&Type=search", "url2": "http://tokuyou-ange.jp" }, "geometry": { "type": "Point", "coordinates": [ 135.573267900000019, 34.5612756 ] } },
{ "type": "Feature", "properties": { "内容": "ケアハウス　どうみょうじ高殿苑【特定施設入居者生活介護（軽費老人ホーム）】大阪府藤井寺市道明寺３－２－２", "url": "https://www.kaigokensaku.mhlw.go.jp/27/index.php?action_kouhyou_detail_004_kani=true&JigyosyoCd=2773400953-00&ServiceCd=332&Type=search", "url2": "https://www.houjukai.jp/domyoji/" }, "geometry": { "type": "Point", "coordinates": [ 135.620468399999936, 34.5662843 ] } },
{ "type": "Feature", "properties": { "内容": "ケアハウス八戸ノ里向日葵【特定施設入居者生活介護（軽費老人ホーム）】大阪府東大阪市若江西新町3-1-9総合ケアセンター八戸ノ里向日葵", "url": "https://www.kaigokensaku.mhlw.go.jp/27/index.php?action_kouhyou_detail_004_kani=true&JigyosyoCd=2775016583-00&ServiceCd=332&Type=search", "url2": "http://www.tamami.or.jp" }, "geometry": { "type": "Point", "coordinates": [ 135.596546077909863, 34.655618271644485 ] } },
{ "type": "Feature", "properties": { "内容": "ケアハウス　和久田苑【特定施設入居者生活介護（軽費老人ホーム）】大阪府東大阪市善根寺町１－５－４１", "url": "https://www.kaigokensaku.mhlw.go.jp/27/index.php?action_kouhyou_detail_004_kani=true&JigyosyoCd=2775003698-00&ServiceCd=332&Type=search", "url2": "http://www.jinpu-kai.jp/103.php" }, "geometry": { "type": "Point", "coordinates": [ 135.649949600000014, 34.6986119 ] } },
{ "type": "Feature", "properties": { "内容": "ケアハウス田園【特定施設入居者生活介護（軽費老人ホーム）】大阪府泉南市幡代三丁目４４番", "url": "https://www.kaigokensaku.mhlw.go.jp/27/index.php?action_kouhyou_detail_004_kani=true&JigyosyoCd=2775600725-00&ServiceCd=332&Type=search", "url2": "https://www.dennenn.jp" }, "geometry": { "type": "Point", "coordinates": [ 135.267603799999961, 34.3564945 ] } }
]
}
