{
"type": "FeatureCollection",
"name": "geo_27_訪問入浴介護",
"crs": { "type": "name", "properties": { "name": "urn:ogc:def:crs:OGC:1.3:CRS84" } },
"features": [
{ "type": "Feature", "properties": { "内容": "アスケア訪問入浴　大阪西【訪問入浴介護】大阪府大阪市西区南堀江4丁目2番9号芙蓉ビル1階１Ａ号", "url": "https://www.kaigokensaku.mhlw.go.jp/27/index.php?action_kouhyou_detail_004_kani=true&JigyosyoCd=2771802473-00&ServiceCd=120&Type=search", "url2": "https://www.as-care.co.jp/" }, "geometry": { "type": "Point", "coordinates": [ 135.4859755, 34.6725242 ] } },
{ "type": "Feature", "properties": { "内容": "パナソニックエイジフリーケアセンター天保山・訪問入浴【訪問入浴介護】大阪府大阪市港区築港三丁目７番５号　港振興ビル1階", "url": "https://www.kaigokensaku.mhlw.go.jp/27/index.php?action_kouhyou_detail_004_kani=true&JigyosyoCd=2770400642-00&ServiceCd=120&Type=search", "url2": "http://panasonic.co.jp/es/pesasv/" }, "geometry": { "type": "Point", "coordinates": [ 135.433312300000011, 34.6544041 ] } },
{ "type": "Feature", "properties": { "内容": "ニチイケアセンター大正【訪問入浴介護】大阪市大正区三軒家東５－６－７和田ビル本館２０１号", "url": "https://www.kaigokensaku.mhlw.go.jp/27/index.php?action_kouhyou_detail_004_kani=true&JigyosyoCd=2772701195-00&ServiceCd=120&Type=search", "url2": "https://www.nichiigakkan.co.jp/" }, "geometry": { "type": "Point", "coordinates": [ 135.4753925, 34.6595051 ] } },
{ "type": "Feature", "properties": { "内容": "エルケア株式会社エルケア日本橋入浴センター【訪問入浴介護】大阪府大阪市浪速区日本橋5丁目14-10松竹ビル4B号室", "url": "https://www.kaigokensaku.mhlw.go.jp/27/index.php?action_kouhyou_detail_004_kani=true&JigyosyoCd=2774301929-00&ServiceCd=120&Type=search", "url2": "https://www.l-care.jp/" }, "geometry": { "type": "Point", "coordinates": [ 135.504997510604284, 34.655680195922244 ] } },
{ "type": "Feature", "properties": { "内容": "入浴サービス株式会社　訪問入浴介護事業所【訪問入浴介護】大阪市西淀川区大和田４丁目６－１７", "url": "https://www.kaigokensaku.mhlw.go.jp/27/index.php?action_kouhyou_detail_004_kani=true&JigyosyoCd=2771000789-00&ServiceCd=120&Type=search", "url2": "http://www.nyuyoku.srvc.jp/" }, "geometry": { "type": "Point", "coordinates": [ 135.444556, 34.7072346 ] } },
{ "type": "Feature", "properties": { "内容": "パナソニックエイジフリーケアセンター大阪西淀川・訪問入浴【訪問入浴介護】大阪市西淀川区野里3-6-3", "url": "https://www.kaigokensaku.mhlw.go.jp/27/index.php?action_kouhyou_detail_004_kani=true&JigyosyoCd=2771001365-00&ServiceCd=120&Type=search", "url2": "http://www.net-kaigo.com/" }, "geometry": { "type": "Point", "coordinates": [ 135.460757037470103, 34.711690381142098 ] } },
{ "type": "Feature", "properties": { "内容": "セントケア大阪【訪問入浴介護】大阪市東淀川区東淡路4－3－9リセスビル4F", "url": "https://www.kaigokensaku.mhlw.go.jp/27/index.php?action_kouhyou_detail_004_kani=true&JigyosyoCd=2773001793-00&ServiceCd=120&Type=search", "url2": null }, "geometry": { "type": "Point", "coordinates": [ 135.518917099999953, 34.7371496 ] } },
{ "type": "Feature", "properties": { "内容": "さわやか入浴サービス【訪問入浴介護】大阪府大阪市東淀川区東中島2-19-7", "url": "https://www.kaigokensaku.mhlw.go.jp/27/index.php?action_kouhyou_detail_004_kani=true&JigyosyoCd=2773000175-00&ServiceCd=120&Type=search", "url2": "http://www.sawayaka-service.co.jp" }, "geometry": { "type": "Point", "coordinates": [ 135.505806099999973, 34.7291698 ] } },
{ "type": "Feature", "properties": { "内容": "アースサポート大阪【訪問入浴介護】大阪府大阪市東成区大今里西2丁目5番12号セルロイド会館", "url": "https://www.kaigokensaku.mhlw.go.jp/27/index.php?action_kouhyou_detail_004_kani=true&JigyosyoCd=2771500234-00&ServiceCd=120&Type=search", "url2": "http://www.earthsupport.co.jp" }, "geometry": { "type": "Point", "coordinates": [ 135.540051299999959, 34.6697492 ] } },
{ "type": "Feature", "properties": { "内容": "パナソニックエイジフリー　ケアセンター今里訪問入浴【訪問入浴介護】大阪府大阪市東成区大今里南2-4-6エレガンス川上", "url": "https://www.kaigokensaku.mhlw.go.jp/27/index.php?action_kouhyou_detail_004_kani=true&JigyosyoCd=2771502164-00&ServiceCd=120&Type=search", "url2": null }, "geometry": { "type": "Point", "coordinates": [ 135.5485172, 34.667372 ] } },
{ "type": "Feature", "properties": { "内容": "ニチイケアセンター大阪生野【訪問入浴介護】大阪府大阪市生野区林寺5丁目9-13", "url": "https://www.kaigokensaku.mhlw.go.jp/27/index.php?action_kouhyou_detail_004_kani=true&JigyosyoCd=2772201105-00&ServiceCd=120&Type=search", "url2": "http://www.nichiigakkan.co.jp" }, "geometry": { "type": "Point", "coordinates": [ 135.5390049, 34.6444161 ] } },
{ "type": "Feature", "properties": { "内容": "アスケア訪問入浴　生野【訪問入浴介護】大阪府大阪市生野区巽中一丁目１２番２４号ＣＯＭＰＬＡＺＡ巽中Ａ－５号室", "url": "https://www.kaigokensaku.mhlw.go.jp/27/index.php?action_kouhyou_detail_004_kani=true&JigyosyoCd=2772207177-00&ServiceCd=120&Type=search", "url2": "https://www.as-care.co.jp/" }, "geometry": { "type": "Point", "coordinates": [ 135.550668800000011, 34.6510303 ] } },
{ "type": "Feature", "properties": { "内容": "アスケア訪問入浴　旭【訪問入浴介護】大阪府大阪市旭区生江1丁目10-41", "url": "https://www.kaigokensaku.mhlw.go.jp/27/index.php?action_kouhyou_detail_004_kani=true&JigyosyoCd=2773101791-00&ServiceCd=120&Type=search", "url2": "https://www.as-care.co.jp/" }, "geometry": { "type": "Point", "coordinates": [ 135.5383698, 34.722362499999988 ] } },
{ "type": "Feature", "properties": { "内容": "ベストパルス大阪旭【訪問入浴介護】大阪府大阪市旭区新森6丁目9番12号クレール新森106号", "url": "https://www.kaigokensaku.mhlw.go.jp/27/index.php?action_kouhyou_detail_004_kani=true&JigyosyoCd=2773103243-00&ServiceCd=120&Type=search", "url2": "http://hp.kaipoke.biz/x05/" }, "geometry": { "type": "Point", "coordinates": [ 135.564512499999978, 34.7183306 ] } },
{ "type": "Feature", "properties": { "内容": "ベストパルス城東【訪問入浴介護】大阪府大阪市城東区東中浜3－9－3西林マンション101号", "url": "https://www.kaigokensaku.mhlw.go.jp/27/index.php?action_kouhyou_detail_004_kani=true&JigyosyoCd=2774404202-00&ServiceCd=120&Type=search", "url2": "https://best-pulse.com/index.html" }, "geometry": { "type": "Point", "coordinates": [ 135.5458505, 34.683813 ] } },
{ "type": "Feature", "properties": { "内容": "訪問入浴　びーはっぴー【訪問入浴介護】大阪府大阪市城東区放出西3-11-1大東マンション1F", "url": "https://www.kaigokensaku.mhlw.go.jp/27/index.php?action_kouhyou_detail_004_kani=true&JigyosyoCd=2774404921-00&ServiceCd=120&Type=search", "url2": null }, "geometry": { "type": "Point", "coordinates": [ 135.556846, 34.6918804 ] } },
{ "type": "Feature", "properties": { "内容": "リトルバード住吉訪問入浴センター【訪問入浴介護】大阪市住吉区長居東四丁目１１番１９号", "url": "https://www.kaigokensaku.mhlw.go.jp/27/index.php?action_kouhyou_detail_004_kani=true&JigyosyoCd=2772002966-00&ServiceCd=120&Type=search", "url2": "http://littlebird-nyuyoku.com" }, "geometry": { "type": "Point", "coordinates": [ 135.513041, 34.608906 ] } },
{ "type": "Feature", "properties": { "内容": "株式会社ウイル　長居サービスセンター【訪問入浴介護】大阪府大阪市住吉区長居4-9-23サンフラワー長居105", "url": "https://www.kaigokensaku.mhlw.go.jp/27/index.php?action_kouhyou_detail_004_kani=true&JigyosyoCd=2772003063-00&ServiceCd=120&Type=search", "url2": "https://www.w-ill.jp/" }, "geometry": { "type": "Point", "coordinates": [ 135.510027499999978, 34.6074978 ] } },
{ "type": "Feature", "properties": { "内容": "はるす・訪問入浴サービス住吉【訪問入浴介護】大阪府大阪市住吉区長居東3丁目12番23号ユニハイツ長居101号室", "url": "https://www.kaigokensaku.mhlw.go.jp/27/index.php?action_kouhyou_detail_004_kani=true&JigyosyoCd=2772004483-00&ServiceCd=120&Type=search", "url2": "http://www.hals-hals.co.jp/" }, "geometry": { "type": "Point", "coordinates": [ 135.51459264785035, 34.606871138206351 ] } },
{ "type": "Feature", "properties": { "内容": "アースサポート大阪西成【訪問入浴介護】大阪府大阪市西成区橘1丁目3番6号", "url": "https://www.kaigokensaku.mhlw.go.jp/27/index.php?action_kouhyou_detail_004_kani=true&JigyosyoCd=2773300658-00&ServiceCd=120&Type=search", "url2": "http://www.earthsupport.co.jp" }, "geometry": { "type": "Point", "coordinates": [ 135.494956300000013, 34.6391135 ] } },
{ "type": "Feature", "properties": { "内容": "ドリー夢1　天下茶屋【訪問入浴介護】大阪府大阪市西成区潮路2-1-19", "url": "https://www.kaigokensaku.mhlw.go.jp/27/index.php?action_kouhyou_detail_004_kani=true&JigyosyoCd=2773302357-00&ServiceCd=120&Type=search", "url2": null }, "geometry": { "type": "Point", "coordinates": [ 135.491416006407263, 34.637711602977561 ] } },
{ "type": "Feature", "properties": { "内容": "アースサポート大阪淀川【訪問入浴介護】大阪府大阪市淀川区十三東1丁目17番21号", "url": "https://www.kaigokensaku.mhlw.go.jp/27/index.php?action_kouhyou_detail_004_kani=true&JigyosyoCd=2779101084-00&ServiceCd=120&Type=search", "url2": "http://www.earthsupport.co.jp" }, "geometry": { "type": "Point", "coordinates": [ 135.485269099999982, 34.7198065 ] } },
{ "type": "Feature", "properties": { "内容": "ブービー訪問入浴介護ステーション【訪問入浴介護】大阪府大阪市淀川区東三国5丁目15-2セントローリエ東三国302号室", "url": "https://www.kaigokensaku.mhlw.go.jp/27/index.php?action_kouhyou_detail_004_kani=true&JigyosyoCd=2779103940-00&ServiceCd=120&Type=search", "url2": "https://booby-you.com/" }, "geometry": { "type": "Point", "coordinates": [ 135.494083926458813, 34.742616277391761 ] } },
{ "type": "Feature", "properties": { "内容": "アスケア訪問入浴　淀川【訪問入浴介護】大阪府大阪市淀川区西中島四丁目１２番２２－２０１号西中島ユーリプラザ", "url": "https://www.kaigokensaku.mhlw.go.jp/27/index.php?action_kouhyou_detail_004_kani=true&JigyosyoCd=2779105309-00&ServiceCd=120&Type=search", "url2": "https://www.as-care.co.jp/" }, "geometry": { "type": "Point", "coordinates": [ 135.4950955, 34.7271669 ] } },
{ "type": "Feature", "properties": { "内容": "株式会社ゼスト訪問入浴サービス【訪問入浴介護】大阪市鶴見区横堤五丁目１番１８号", "url": "https://www.kaigokensaku.mhlw.go.jp/27/index.php?action_kouhyou_detail_004_kani=true&JigyosyoCd=2779201108-00&ServiceCd=120&Type=search", "url2": "http://www.zest-ltd.net/" }, "geometry": { "type": "Point", "coordinates": [ 135.571806700000025, 34.7037766 ] } },
{ "type": "Feature", "properties": { "内容": "パナソニック　エイジフリー　ケアセンター鶴見緑地・訪問入浴【訪問入浴介護】大阪府大阪市鶴見区浜2-5-5パークリッジ現代2Ｆ", "url": "https://www.kaigokensaku.mhlw.go.jp/27/index.php?action_kouhyou_detail_004_kani=true&JigyosyoCd=2779201074-00&ServiceCd=120&Type=search", "url2": null }, "geometry": { "type": "Point", "coordinates": [ 135.582005799999934, 34.7116581 ] } },
{ "type": "Feature", "properties": { "内容": "アスケア訪問入浴　住之江【訪問入浴介護】大阪府大阪市住之江区平林南1-2-82", "url": "https://www.kaigokensaku.mhlw.go.jp/27/index.php?action_kouhyou_detail_004_kani=true&JigyosyoCd=2775901800-00&ServiceCd=120&Type=search", "url2": "https://www.as-care.co.jp/" }, "geometry": { "type": "Point", "coordinates": [ 135.458418700000038, 34.6109104 ] } },
{ "type": "Feature", "properties": { "内容": "アースサポート大阪平野【訪問入浴介護】大阪府大阪市平野区長吉長原西2丁目8番22号", "url": "https://www.kaigokensaku.mhlw.go.jp/27/index.php?action_kouhyou_detail_004_kani=true&JigyosyoCd=2775800978-00&ServiceCd=120&Type=search", "url2": "http://www.earthsupport.co.jp" }, "geometry": { "type": "Point", "coordinates": [ 135.566789699999958, 34.604093 ] } },
{ "type": "Feature", "properties": { "内容": "アスケア訪問入浴　平野【訪問入浴介護】大阪府大阪市平野区長吉長原西2丁目7-5G号", "url": "https://www.kaigokensaku.mhlw.go.jp/27/index.php?action_kouhyou_detail_004_kani=true&JigyosyoCd=2775805100-00&ServiceCd=120&Type=search", "url2": "https://www.as-care.co.jp/" }, "geometry": { "type": "Point", "coordinates": [ 135.56692480000001, 34.60474080000003 ] } },
{ "type": "Feature", "properties": { "内容": "リトルバード堺訪問入浴センター【訪問入浴介護】大阪府堺市堺区向陵西町四丁1番6号", "url": "https://www.kaigokensaku.mhlw.go.jp/27/index.php?action_kouhyou_detail_004_kani=true&JigyosyoCd=2770106827-00&ServiceCd=120&Type=search", "url2": "http://www.littlebird-nyuyoku.com/" }, "geometry": { "type": "Point", "coordinates": [ 135.490144800000053, 34.5678433 ] } },
{ "type": "Feature", "properties": { "内容": "ミルキー訪問入浴センター【訪問入浴介護】大阪府堺市堺区賑町3丁1番8号", "url": "https://www.kaigokensaku.mhlw.go.jp/27/index.php?action_kouhyou_detail_004_kani=true&JigyosyoCd=2776001527-00&ServiceCd=120&Type=search", "url2": "http://www.milky-houmon.com/" }, "geometry": { "type": "Point", "coordinates": [ 135.477117899999939, 34.5688011 ] } },
{ "type": "Feature", "properties": { "内容": "エルケア株式会社エルケア堺入浴センター【訪問入浴介護】大阪府堺市中区深井中町897-1ロングライフ上野芝２階", "url": "https://www.kaigokensaku.mhlw.go.jp/27/index.php?action_kouhyou_detail_004_kani=true&JigyosyoCd=2776100451-00&ServiceCd=120&Type=search", "url2": "https://www.l-care.jp/" }, "geometry": { "type": "Point", "coordinates": [ 135.482245599999942, 34.5363968 ] } },
{ "type": "Feature", "properties": { "内容": "はるす・訪問入浴サービス堺【訪問入浴介護】大阪府堺市東区日置荘原寺町411番地の1", "url": "https://www.kaigokensaku.mhlw.go.jp/27/index.php?action_kouhyou_detail_004_kani=true&JigyosyoCd=2770103501-00&ServiceCd=120&Type=search", "url2": "http://hals-hals.co.jp/" }, "geometry": { "type": "Point", "coordinates": [ 135.54036259999998, 34.5375447 ] } },
{ "type": "Feature", "properties": { "内容": "アスケア訪問入浴　東堺【訪問入浴介護】大阪府堺市東区大美野２８番２", "url": "https://www.kaigokensaku.mhlw.go.jp/27/index.php?action_kouhyou_detail_004_kani=true&JigyosyoCd=2776201812-00&ServiceCd=120&Type=search", "url2": "https://www.as-care.co.jp/" }, "geometry": { "type": "Point", "coordinates": [ 135.537597200000022, 34.5243647 ] } },
{ "type": "Feature", "properties": { "内容": "アースサポート堺浜寺【訪問入浴介護】大阪府堺市西区浜寺石津町中1丁9番24号", "url": "https://www.kaigokensaku.mhlw.go.jp/27/index.php?action_kouhyou_detail_004_kani=true&JigyosyoCd=2776303592-00&ServiceCd=120&Type=search", "url2": "http://www.earthsupport.co.jp" }, "geometry": { "type": "Point", "coordinates": [ 135.455172800000014, 34.5621376 ] } },
{ "type": "Feature", "properties": { "内容": "リトルバード泉北訪問入浴センター【訪問入浴介護】大阪府堺市南区三原台三丁1-14", "url": "https://www.kaigokensaku.mhlw.go.jp/27/index.php?action_kouhyou_detail_004_kani=true&JigyosyoCd=2776401602-00&ServiceCd=120&Type=search", "url2": "http://littlebird-nyuyoku.com" }, "geometry": { "type": "Point", "coordinates": [ 135.522456199999965, 34.5009133 ] } },
{ "type": "Feature", "properties": { "内容": "アスケア訪問入浴　北堺【訪問入浴介護】大阪府堺市北区長曾根町3029-14プルミエールコート102号室", "url": "https://www.kaigokensaku.mhlw.go.jp/27/index.php?action_kouhyou_detail_004_kani=true&JigyosyoCd=2776502839-00&ServiceCd=120&Type=search", "url2": "https://www.as-care.co.jp/" }, "geometry": { "type": "Point", "coordinates": [ 135.506887299999988, 34.5612184 ] } },
{ "type": "Feature", "properties": { "内容": "あいわ園訪問入浴サービス岸和田【訪問入浴介護】大阪府岸和田市下野2丁目10－55", "url": "https://www.kaigokensaku.mhlw.go.jp/27/index.php?action_kouhyou_detail_004_kani=true&JigyosyoCd=2771102916-00&ServiceCd=120&Type=search", "url2": "https://aiwa-en.com" }, "geometry": { "type": "Point", "coordinates": [ 135.379502007048131, 34.473836453001262 ] } },
{ "type": "Feature", "properties": { "内容": "リトルバード訪問入浴センター【訪問入浴介護】大阪府岸和田市上松町２丁目１番１６号", "url": "https://www.kaigokensaku.mhlw.go.jp/27/index.php?action_kouhyou_detail_004_kani=true&JigyosyoCd=2771101124-00&ServiceCd=120&Type=search", "url2": "http://www.littlebird-nyuyoku.com/" }, "geometry": { "type": "Point", "coordinates": [ 135.393888299999958, 34.4541523 ] } },
{ "type": "Feature", "properties": { "内容": "アスケア訪問入浴　岸和田【訪問入浴介護】大阪府岸和田市土生町4187EASTBOURNE1階", "url": "https://www.kaigokensaku.mhlw.go.jp/27/index.php?action_kouhyou_detail_004_kani=true&JigyosyoCd=2771104623-00&ServiceCd=120&Type=search", "url2": "https://www.as-care.co.jp/" }, "geometry": { "type": "Point", "coordinates": [ 135.385711825536646, 34.450926191249209 ] } },
{ "type": "Feature", "properties": { "内容": "エルケア株式会社エルケア豊中入浴センター【訪問入浴介護】大阪府豊中市長興寺南4-5-1イーグルリーチ202", "url": "https://www.kaigokensaku.mhlw.go.jp/27/index.php?action_kouhyou_detail_004_kani=true&JigyosyoCd=2774006411-00&ServiceCd=120&Type=search", "url2": "https://www.l-care.jp/" }, "geometry": { "type": "Point", "coordinates": [ 135.477702702902548, 34.774872860297755 ] } },
{ "type": "Feature", "properties": { "内容": "ニチイケアセンター豊中北【訪問入浴介護】大阪府豊中市柴原町3丁目1番24号北摂測量ビル３階", "url": "https://www.kaigokensaku.mhlw.go.jp/27/index.php?action_kouhyou_detail_004_kani=true&JigyosyoCd=2774001438-00&ServiceCd=120&Type=search", "url2": "http://www.nichiigakkan.co.jp" }, "geometry": { "type": "Point", "coordinates": [ 135.462838899999952, 34.7998386 ] } },
{ "type": "Feature", "properties": { "内容": "アスケア訪問入浴　豊中【訪問入浴介護】大阪府豊中市庄内西町2丁目15番8号グランツ豊中　1階2号室", "url": "https://www.kaigokensaku.mhlw.go.jp/27/index.php?action_kouhyou_detail_004_kani=true&JigyosyoCd=2774005090-00&ServiceCd=120&Type=search", "url2": "https://www.as-care.co.jp/" }, "geometry": { "type": "Point", "coordinates": [ 135.473023899999987, 34.7508155 ] } },
{ "type": "Feature", "properties": { "内容": "介護サービス　ぱーそんず【訪問入浴介護】大阪府吹田市内本町3-5-3グランメゾン内本町501", "url": "https://www.kaigokensaku.mhlw.go.jp/27/index.php?action_kouhyou_detail_004_kani=true&JigyosyoCd=2771605124-00&ServiceCd=120&Type=search", "url2": null }, "geometry": { "type": "Point", "coordinates": [ 135.525756499999943, 34.7570087 ] } },
{ "type": "Feature", "properties": { "内容": "パナソニックエイジフリーケアセンター吹田・訪問入浴【訪問入浴介護】大阪府吹田市佐竹台2-5-13ルワーブル南千里202", "url": "https://www.kaigokensaku.mhlw.go.jp/27/index.php?action_kouhyou_detail_004_kani=true&JigyosyoCd=2771601347-00&ServiceCd=120&Type=search", "url2": null }, "geometry": { "type": "Point", "coordinates": [ 135.5144785, 34.790747 ] } },
{ "type": "Feature", "properties": { "内容": "ヒソップ高槻【訪問入浴介護】高槻市山手町1丁目13番3号", "url": "https://www.kaigokensaku.mhlw.go.jp/27/index.php?action_kouhyou_detail_004_kani=true&JigyosyoCd=2770905400-00&ServiceCd=120&Type=search", "url2": "https://hyssop-care.com/" }, "geometry": { "type": "Point", "coordinates": [ 135.6364137, 34.8605081 ] } },
{ "type": "Feature", "properties": { "内容": "アスケア訪問入浴　高槻【訪問入浴介護】大阪府高槻市上田辺町2-20松尾ビル2階201号", "url": "https://www.kaigokensaku.mhlw.go.jp/27/index.php?action_kouhyou_detail_004_kani=true&JigyosyoCd=2770903090-00&ServiceCd=120&Type=search", "url2": "https://www.as-care.co.jp/" }, "geometry": { "type": "Point", "coordinates": [ 135.615929599999959, 34.850343600000016 ] } },
{ "type": "Feature", "properties": { "内容": "守口居宅サービス事業所ラガール【訪問入浴介護】大阪府守口市大久保町３－３０－２１", "url": "https://www.kaigokensaku.mhlw.go.jp/27/index.php?action_kouhyou_detail_004_kani=true&JigyosyoCd=2773200221-00&ServiceCd=120&Type=search", "url2": "http://www.koudoukai.jp/m-lagare/" }, "geometry": { "type": "Point", "coordinates": [ 135.596828542991602, 34.754428851650793 ] } },
{ "type": "Feature", "properties": { "内容": "訪問入浴ステーション　ナービスくずは【訪問入浴介護】大阪府枚方市楠葉花園町14-1", "url": "https://www.kaigokensaku.mhlw.go.jp/27/index.php?action_kouhyou_detail_004_kani=true&JigyosyoCd=2772410508-00&ServiceCd=120&Type=search", "url2": "https://joylife.alsok.co.jp" }, "geometry": { "type": "Point", "coordinates": [ 135.6757347, 34.8621136 ] } },
{ "type": "Feature", "properties": { "内容": "ぽぷらメディカルサービス訪問入浴介護【訪問入浴介護】大阪府枚方市香里園町14番28号", "url": "https://www.kaigokensaku.mhlw.go.jp/27/index.php?action_kouhyou_detail_004_kani=true&JigyosyoCd=2772409922-00&ServiceCd=120&Type=search", "url2": "http://www.popura.jp" }, "geometry": { "type": "Point", "coordinates": [ 135.635816600000027, 34.7865924 ] } },
{ "type": "Feature", "properties": { "内容": "アースサポート枚方【訪問入浴介護】大阪府枚方市禁野本町1丁目16番1号北村ビル201", "url": "https://www.kaigokensaku.mhlw.go.jp/27/index.php?action_kouhyou_detail_004_kani=true&JigyosyoCd=2772405078-00&ServiceCd=120&Type=search", "url2": "http://www.earthsupport.co.jp" }, "geometry": { "type": "Point", "coordinates": [ 135.654824599999984, 34.8170427 ] } },
{ "type": "Feature", "properties": { "内容": "美杉会訪問入浴センター【訪問入浴介護】大阪府枚方市西招提町２１６６番地", "url": "https://www.kaigokensaku.mhlw.go.jp/27/index.php?action_kouhyou_detail_004_kani=true&JigyosyoCd=2772400285-00&ServiceCd=120&Type=search", "url2": "http://www.misugikai.jp" }, "geometry": { "type": "Point", "coordinates": [ 135.681977, 34.8444625 ] } },
{ "type": "Feature", "properties": { "内容": "アスケア訪問入浴　枚方【訪問入浴介護】大阪府枚方市走谷2丁目42-7ドムール大倉1号室", "url": "https://www.kaigokensaku.mhlw.go.jp/27/index.php?action_kouhyou_detail_004_kani=true&JigyosyoCd=2772410144-00&ServiceCd=120&Type=search", "url2": "https://www.as-care.co.jp/" }, "geometry": { "type": "Point", "coordinates": [ 135.633000900000013, 34.8023571 ] } },
{ "type": "Feature", "properties": { "内容": "アースサポート茨木【訪問入浴介護】大阪府茨木市大手町9番26号", "url": "https://www.kaigokensaku.mhlw.go.jp/27/index.php?action_kouhyou_detail_004_kani=true&JigyosyoCd=2774201244-00&ServiceCd=120&Type=search", "url2": "http://www.earthsupport.co.jp" }, "geometry": { "type": "Point", "coordinates": [ 135.570015600000033, 34.8168579 ] } },
{ "type": "Feature", "properties": { "内容": "パナソニッエイジフリーケアセンター茨木鮎川・訪問入浴【訪問入浴介護】大阪府茨木市鮎川4丁目26-22", "url": "https://www.kaigokensaku.mhlw.go.jp/27/index.php?action_kouhyou_detail_004_kani=true&JigyosyoCd=2774202770-00&ServiceCd=120&Type=search", "url2": null }, "geometry": { "type": "Point", "coordinates": [ 135.596725699999979, 34.8174078 ] } },
{ "type": "Feature", "properties": { "内容": "アスケア訪問入浴　茨木【訪問入浴介護】大阪府茨木市本町6-12安田第３ビル101号室", "url": "https://www.kaigokensaku.mhlw.go.jp/27/index.php?action_kouhyou_detail_004_kani=true&JigyosyoCd=2774204396-00&ServiceCd=120&Type=search", "url2": "https://www.as-care.co.jp/" }, "geometry": { "type": "Point", "coordinates": [ 135.57344889999996, 34.8196008 ] } },
{ "type": "Feature", "properties": { "内容": "ニチイケアセンター茨木東【訪問入浴介護】大阪府茨木市大同町1番27号サンビレッジハイツ２階", "url": "https://www.kaigokensaku.mhlw.go.jp/27/index.php?action_kouhyou_detail_004_kani=true&JigyosyoCd=2774201145-00&ServiceCd=120&Type=search", "url2": null }, "geometry": { "type": "Point", "coordinates": [ 135.585196600000017, 34.8082071 ] } },
{ "type": "Feature", "properties": { "内容": "訪問入浴サービスラララ【訪問入浴介護】大阪府茨木市彩都やまぶき三丁目４番３号", "url": "https://www.kaigokensaku.mhlw.go.jp/27/index.php?action_kouhyou_detail_004_kani=true&JigyosyoCd=2774205856-00&ServiceCd=120&Type=search", "url2": "https://1126lalala.com/" }, "geometry": { "type": "Point", "coordinates": [ 135.5191088, 34.85777520000002 ] } },
{ "type": "Feature", "properties": { "内容": "パナソニックエイジフリーケアセンター茨木美穂ヶ丘・訪問入浴【訪問入浴介護】大阪府茨木市美穂ヶ丘13番4号", "url": "https://www.kaigokensaku.mhlw.go.jp/27/index.php?action_kouhyou_detail_004_kani=true&JigyosyoCd=2774205849-00&ServiceCd=120&Type=search", "url2": null }, "geometry": { "type": "Point", "coordinates": [ 135.5279638, 34.8240174 ] } },
{ "type": "Feature", "properties": { "内容": "アスケア訪問入浴　八尾【訪問入浴介護】大阪府八尾市桜ケ丘1丁目1番地C号", "url": "https://www.kaigokensaku.mhlw.go.jp/27/index.php?action_kouhyou_detail_004_kani=true&JigyosyoCd=2775503663-00&ServiceCd=120&Type=search", "url2": "https://www.as-care.co.jp/" }, "geometry": { "type": "Point", "coordinates": [ 135.607132400000012, 34.6307851 ] } },
{ "type": "Feature", "properties": { "内容": "リトルバード泉佐野訪問入浴センター【訪問入浴介護】大阪府泉佐野市日根野５９１０－１５", "url": "https://www.kaigokensaku.mhlw.go.jp/27/index.php?action_kouhyou_detail_004_kani=true&JigyosyoCd=2774504019-00&ServiceCd=120&Type=search", "url2": null }, "geometry": { "type": "Point", "coordinates": [ 135.3231721, 34.3947108 ] } },
{ "type": "Feature", "properties": { "内容": "アスケア訪問入浴　富田林【訪問入浴介護】大阪府富田林市甲田１丁目３番６号アプローズ富田林１０２号", "url": "https://www.kaigokensaku.mhlw.go.jp/27/index.php?action_kouhyou_detail_004_kani=true&JigyosyoCd=2774901827-00&ServiceCd=120&Type=search", "url2": "https://www.as-care.co.jp/" }, "geometry": { "type": "Point", "coordinates": [ 135.595677900000027, 34.4983331 ] } },
{ "type": "Feature", "properties": { "内容": "あいわ園訪問入浴サービス富田林【訪問入浴介護】大阪府富田林市寿町2－5－43", "url": "https://www.kaigokensaku.mhlw.go.jp/27/index.php?action_kouhyou_detail_004_kani=true&JigyosyoCd=2774901769-00&ServiceCd=120&Type=search", "url2": "https://aiwa-en.com" }, "geometry": { "type": "Point", "coordinates": [ 135.5958306, 34.5029215 ] } },
{ "type": "Feature", "properties": { "内容": "エルケア株式会社エルケア寝屋川入浴センター【訪問入浴介護】大阪府寝屋川市太秦緑が丘28-8ローズパークシティロングライフ学研京阪奈K-1棟106号室", "url": "https://www.kaigokensaku.mhlw.go.jp/27/index.php?action_kouhyou_detail_004_kani=true&JigyosyoCd=2770306161-00&ServiceCd=120&Type=search", "url2": "https://www.l-care.jp/" }, "geometry": { "type": "Point", "coordinates": [ 135.639915800000011, 34.7593049 ] } },
{ "type": "Feature", "properties": { "内容": "アスケア訪問入浴　寝屋川【訪問入浴介護】大阪府寝屋川市東大利町16-13ラポール・デ・エル1階", "url": "https://www.kaigokensaku.mhlw.go.jp/27/index.php?action_kouhyou_detail_004_kani=true&JigyosyoCd=2770304117-00&ServiceCd=120&Type=search", "url2": "https://www.as-care.co.jp/" }, "geometry": { "type": "Point", "coordinates": [ 135.617560499999968, 34.76295360000001 ] } },
{ "type": "Feature", "properties": { "内容": "アースサポート河内長野【訪問入浴介護】大阪府河内長野市栄町2番3号", "url": "https://www.kaigokensaku.mhlw.go.jp/27/index.php?action_kouhyou_detail_004_kani=true&JigyosyoCd=2770701619-00&ServiceCd=120&Type=search", "url2": "http://www.earthsupport.co.jp" }, "geometry": { "type": "Point", "coordinates": [ 135.569586500000014, 34.451482400000017 ] } },
{ "type": "Feature", "properties": { "内容": "有限会社　ユニール【訪問入浴介護】大阪府松原市新堂３丁目１３－２１", "url": "https://www.kaigokensaku.mhlw.go.jp/27/index.php?action_kouhyou_detail_004_kani=true&JigyosyoCd=2774801258-00&ServiceCd=120&Type=search", "url2": "http://www.unir-kaigo.com/" }, "geometry": { "type": "Point", "coordinates": [ 135.555861199999981, 34.5659222 ] } },
{ "type": "Feature", "properties": { "内容": "アスケア訪問入浴　門真【訪問入浴介護】大阪府門真市新橋町８－８喜多ビル１階", "url": "https://www.kaigokensaku.mhlw.go.jp/27/index.php?action_kouhyou_detail_004_kani=true&JigyosyoCd=2772604480-00&ServiceCd=120&Type=search", "url2": "https://www.as-care.co.jp/" }, "geometry": { "type": "Point", "coordinates": [ 135.585897499999987, 34.7366455 ] } },
{ "type": "Feature", "properties": { "内容": "5.Vari訪問入浴【訪問入浴介護】大阪府高石市西取石7－6－15シャンロワール　206号室", "url": "https://www.kaigokensaku.mhlw.go.jp/27/index.php?action_kouhyou_detail_004_kani=true&JigyosyoCd=2775300979-00&ServiceCd=120&Type=search", "url2": "https://5vari.net" }, "geometry": { "type": "Point", "coordinates": [ 135.44290877082517, 34.515840290761837 ] } },
{ "type": "Feature", "properties": { "内容": "はるす・訪問入浴サービス藤井寺【訪問入浴介護】大阪府藤井寺市大井１丁目3番7号", "url": "https://www.kaigokensaku.mhlw.go.jp/27/index.php?action_kouhyou_detail_004_kani=true&JigyosyoCd=2773400722-00&ServiceCd=120&Type=search", "url2": "http://www.hals-hals.co.jp/" }, "geometry": { "type": "Point", "coordinates": [ 135.60870657976227, 34.57881688196457 ] } },
{ "type": "Feature", "properties": { "内容": "はるす・訪問入浴サービス東大阪【訪問入浴介護】大阪府東大阪市新家西町1-30レナジア長田1Bレナジア長田1B", "url": "https://www.kaigokensaku.mhlw.go.jp/27/index.php?action_kouhyou_detail_004_kani=true&JigyosyoCd=2775015833-00&ServiceCd=120&Type=search", "url2": "https//hals-hals.co.jp" }, "geometry": { "type": "Point", "coordinates": [ 135.589901200000014, 34.673550399999989 ] } },
{ "type": "Feature", "properties": { "内容": "アースサポート東大阪【訪問入浴介護】大阪府東大阪市西石切町3丁目6番18号竹中ビル201", "url": "https://www.kaigokensaku.mhlw.go.jp/27/index.php?action_kouhyou_detail_004_kani=true&JigyosyoCd=2775007145-00&ServiceCd=120&Type=search", "url2": "http://www.earthsupport.co.jp" }, "geometry": { "type": "Point", "coordinates": [ 135.6396449, 34.6804971 ] } },
{ "type": "Feature", "properties": { "内容": "エルケア株式会社エルケア大阪入浴センター【訪問入浴介護】大阪府東大阪市森河内1-36-9", "url": "https://www.kaigokensaku.mhlw.go.jp/27/index.php?action_kouhyou_detail_004_kani=true&JigyosyoCd=2775008507-00&ServiceCd=120&Type=search", "url2": "https://www.l-care.jp/" }, "geometry": { "type": "Point", "coordinates": [ 135.5675209, 34.6835892 ] } },
{ "type": "Feature", "properties": { "内容": "みのわの里訪問入浴サービス【訪問入浴介護】大阪府東大阪市古箕輪1-3-28", "url": "https://www.kaigokensaku.mhlw.go.jp/27/index.php?action_kouhyou_detail_004_kani=true&JigyosyoCd=2775000959-00&ServiceCd=120&Type=search", "url2": "https://www.kawafukukai.or.jp/" }, "geometry": { "type": "Point", "coordinates": [ 135.6166134, 34.6859959 ] } },
{ "type": "Feature", "properties": { "内容": "アスケア訪問入浴　東大阪【訪問入浴介護】東大阪市長田西2-1-26長田西CUBE　SPACE　A号", "url": "https://www.kaigokensaku.mhlw.go.jp/27/index.php?action_kouhyou_detail_004_kani=true&JigyosyoCd=2775006964-00&ServiceCd=120&Type=search", "url2": "https://www.as-care.co.jp/" }, "geometry": { "type": "Point", "coordinates": [ 135.586179123942543, 34.677313392272808 ] } },
{ "type": "Feature", "properties": { "内容": "あいわ園訪問入浴サービス泉南【訪問入浴介護】大阪府泉南市樽井１丁目１4－２", "url": "https://www.kaigokensaku.mhlw.go.jp/27/index.php?action_kouhyou_detail_004_kani=true&JigyosyoCd=2775601624-00&ServiceCd=120&Type=search", "url2": "https://aiwa-en.com" }, "geometry": { "type": "Point", "coordinates": [ 135.268042773340341, 34.370006560698329 ] } }
]
}
