{
"type": "FeatureCollection",
"name": "geo_27_介護医療院",
"crs": { "type": "name", "properties": { "name": "urn:ogc:def:crs:OGC:1.3:CRS84" } },
"features": [
{ "type": "Feature", "properties": { "内容": "フジタ病院介護医療院【介護医療院】大阪府大阪市福島区吉野2-10-11", "url": "https://www.kaigokensaku.mhlw.go.jp/27/index.php?action_kouhyou_detail_004_kani=true&JigyosyoCd=27B0200019-00&ServiceCd=550&Type=search", "url2": "https://www.fujitahp.com/" }, "geometry": { "type": "Point", "coordinates": [ 135.475333299999988, 34.6919809 ] } },
{ "type": "Feature", "properties": { "内容": "医療法人仁生会　介護医療院【介護医療院】大阪府大阪市西区九条1丁目15番23号", "url": "https://www.kaigokensaku.mhlw.go.jp/27/index.php?action_kouhyou_detail_004_kani=true&JigyosyoCd=27B1800023-00&ServiceCd=550&Type=search", "url2": "http://naitou-hp.or.jp" }, "geometry": { "type": "Point", "coordinates": [ 135.4758371, 34.6745421 ] } },
{ "type": "Feature", "properties": { "内容": "医療法人日新会　日新会介護医療院【介護医療院】大阪府大阪市西区4丁目4番8号", "url": "https://www.kaigokensaku.mhlw.go.jp/27/index.php?action_kouhyou_detail_004_kani=true&JigyosyoCd=27B1800015-00&ServiceCd=550&Type=search", "url2": "https://nisshinkai.jp/" }, "geometry": { "type": "Point", "coordinates": [ 135.486941251776187, 34.676271231798083 ] } },
{ "type": "Feature", "properties": { "内容": "介護医療院　港さつき苑【介護医療院】大阪府大阪市港区弁天４丁目１６番１８号", "url": "https://www.kaigokensaku.mhlw.go.jp/27/index.php?action_kouhyou_detail_004_kani=true&JigyosyoCd=27B0400015-00&ServiceCd=550&Type=search", "url2": "https://www.minato-satsukien.jp" }, "geometry": { "type": "Point", "coordinates": [ 135.456050800000014, 34.6711461 ] } },
{ "type": "Feature", "properties": { "内容": "医療法人正啓会　西下胃腸病院介護医療院【介護医療院】大阪府大阪市天王寺区北河堀町4番15号", "url": "https://www.kaigokensaku.mhlw.go.jp/27/index.php?action_kouhyou_detail_004_kani=true&JigyosyoCd=27B1700017-00&ServiceCd=550&Type=search", "url2": "https://www.seikeikai-nishishita-hp.com" }, "geometry": { "type": "Point", "coordinates": [ 135.51697470000002, 34.648618 ] } },
{ "type": "Feature", "properties": { "内容": "医療法人　西中医学会　西中病院介護医療院【介護医療院】大阪府大阪市東住吉区湯里5-9-6", "url": "https://www.kaigokensaku.mhlw.go.jp/27/index.php?action_kouhyou_detail_004_kani=true&JigyosyoCd=27B0800016-00&ServiceCd=550&Type=search", "url2": "http://www.nishinaka.or.jp" }, "geometry": { "type": "Point", "coordinates": [ 135.5372288, 34.6097442 ] } },
{ "type": "Feature", "properties": { "内容": "医療法人以和貴会　北条病院　介護医療院【介護医療院】堺市北区百舌鳥陵南町1丁77番地1", "url": "https://www.kaigokensaku.mhlw.go.jp/27/index.php?action_kouhyou_detail_004_kani=true&JigyosyoCd=27B6500016-00&ServiceCd=550&Type=search", "url2": "https://houjyou.or.jp/" }, "geometry": { "type": "Point", "coordinates": [ 135.4880249, 34.5467643 ] } },
{ "type": "Feature", "properties": { "内容": "天の川病院介護医療院【介護医療院】大阪府岸和田市春木大国町8-4", "url": "https://www.kaigokensaku.mhlw.go.jp/27/index.php?action_kouhyou_detail_004_kani=true&JigyosyoCd=27B1100010-00&ServiceCd=550&Type=search", "url2": "http://www7a.biglobe.ne.jp/~amanogawa/" }, "geometry": { "type": "Point", "coordinates": [ 135.3829029, 34.4827386 ] } },
{ "type": "Feature", "properties": { "内容": "高橋病院　介護医療院【介護医療院】大阪府貝塚市堀1丁目16-6", "url": "https://www.kaigokensaku.mhlw.go.jp/27/index.php?action_kouhyou_detail_004_kani=true&JigyosyoCd=27B1300016-00&ServiceCd=550&Type=search", "url2": "https://takahashibyoin.jp/" }, "geometry": { "type": "Point", "coordinates": [ 135.365843001852454, 34.449403514688811 ] } },
{ "type": "Feature", "properties": { "内容": "東香里介護医療院【介護医療院】大阪府枚方市高田2-28-30", "url": "https://www.kaigokensaku.mhlw.go.jp/27/index.php?action_kouhyou_detail_004_kani=true&JigyosyoCd=27B2400013-00&ServiceCd=550&Type=search", "url2": "https://higashikouri-hp.com/second/" }, "geometry": { "type": "Point", "coordinates": [ 135.662483990212962, 34.778919573952791 ] } },
{ "type": "Feature", "properties": { "内容": "医療法人中屋覚志会　津田介護医療院【介護医療院】大阪府枚方市津田北町三丁目３０番１号", "url": "https://www.kaigokensaku.mhlw.go.jp/27/index.php?action_kouhyou_detail_004_kani=true&JigyosyoCd=27B2400021-00&ServiceCd=550&Type=search", "url2": "https://nakaya-kakushikai.jp/" }, "geometry": { "type": "Point", "coordinates": [ 135.712026406745906, 34.813766481769896 ] } },
{ "type": "Feature", "properties": { "内容": "社会医療法人美杉会佐藤病院介護医療院【介護医療院】大阪府枚方市養父東町65-1", "url": "https://www.kaigokensaku.mhlw.go.jp/27/index.php?action_kouhyou_detail_004_kani=true&JigyosyoCd=27B2400039-00&ServiceCd=550&Type=search", "url2": "https://misugikai.jp/satou_h/guide/nursingcaremedical/" }, "geometry": { "type": "Point", "coordinates": [ 135.6802385, 34.844334900000014 ] } },
{ "type": "Feature", "properties": { "内容": "貴島病院本院介護医療院【介護医療院】大阪府八尾市楽音寺3-33", "url": "https://www.kaigokensaku.mhlw.go.jp/27/index.php?action_kouhyou_detail_004_kani=true&JigyosyoCd=27B5500025-00&ServiceCd=550&Type=search", "url2": "https://www.noble.or.jp" }, "geometry": { "type": "Point", "coordinates": [ 135.637774271163948, 34.642699958213406 ] } },
{ "type": "Feature", "properties": { "内容": "医療法人　永光会　介護医療院　新井病院【介護医療院】大阪府八尾市美園町4-156-3", "url": "https://www.kaigokensaku.mhlw.go.jp/27/index.php?action_kouhyou_detail_004_kani=true&JigyosyoCd=27B5500017-00&ServiceCd=550&Type=search", "url2": "https://www.eikoukai.or.jp" }, "geometry": { "type": "Point", "coordinates": [ 135.59132169999998, 34.637984 ] } },
{ "type": "Feature", "properties": { "内容": "医療法人仙寿会　泉佐野介護医療院【介護医療院】大阪府泉佐野市大宮町４番１６号", "url": "https://www.kaigokensaku.mhlw.go.jp/27/index.php?action_kouhyou_detail_004_kani=true&JigyosyoCd=27B4500018-00&ServiceCd=550&Type=search", "url2": "https://senjyukai.com/" }, "geometry": { "type": "Point", "coordinates": [ 135.3198753, 34.4135382 ] } },
{ "type": "Feature", "properties": { "内容": "松島病院介護医療院【介護医療院】大阪府寝屋川市八坂町23-21松島病院", "url": "https://www.kaigokensaku.mhlw.go.jp/27/index.php?action_kouhyou_detail_004_kani=true&JigyosyoCd=27B0300017-00&ServiceCd=550&Type=search", "url2": null }, "geometry": { "type": "Point", "coordinates": [ 135.6228012, 34.7664634 ] } },
{ "type": "Feature", "properties": { "内容": "明治橋病院　介護医療院【介護医療院】大阪府松原市三宅西1丁目358番地3", "url": "https://www.kaigokensaku.mhlw.go.jp/27/index.php?action_kouhyou_detail_004_kani=true&JigyosyoCd=27B4800012-00&ServiceCd=550&Type=search", "url2": "http://meijibashi.or.jp" }, "geometry": { "type": "Point", "coordinates": [ 135.550009800000026, 34.584646 ] } },
{ "type": "Feature", "properties": { "内容": "医療法人橘会　介護医療院　横山病院【介護医療院】大阪府和泉市仏並町２８７番地", "url": "https://www.kaigokensaku.mhlw.go.jp/27/index.php?action_kouhyou_detail_004_kani=true&JigyosyoCd=27B0500012-00&ServiceCd=550&Type=search", "url2": "http://www.tachibana-med.or.jp/yokoyama/" }, "geometry": { "type": "Point", "coordinates": [ 135.487430704229723, 34.424217698572072 ] } },
{ "type": "Feature", "properties": { "内容": "医療法人聖和錦秀会　阪和いずみ病院　介護医療院【介護医療院】大阪府　和泉市　あゆみ野　1-7-1", "url": "https://www.kaigokensaku.mhlw.go.jp/27/index.php?action_kouhyou_detail_004_kani=true&JigyosyoCd=27B0500020-00&ServiceCd=550&Type=search", "url2": "http://www.seiwa-kinshukai.or.jp/hanwaizumi/" }, "geometry": { "type": "Point", "coordinates": [ 135.4489758, 34.4471047 ] } },
{ "type": "Feature", "properties": { "内容": "社会医療法人　弘道会　門真介護医療院【介護医療院】大阪府門真市新橋町33番12号", "url": "https://www.kaigokensaku.mhlw.go.jp/27/index.php?action_kouhyou_detail_004_kani=true&JigyosyoCd=27B2600018-00&ServiceCd=550&Type=search", "url2": "http://www.koudoukai.or.jp/" }, "geometry": { "type": "Point", "coordinates": [ 135.583243452778646, 34.733998089371049 ] } },
{ "type": "Feature", "properties": { "内容": "介護医療院　菜の花【介護医療院】大阪府高石市綾園2-15-18", "url": "https://www.kaigokensaku.mhlw.go.jp/27/index.php?action_kouhyou_detail_004_kani=true&JigyosyoCd=27B5300012-00&ServiceCd=550&Type=search", "url2": "https://www.ryoshukai.or.jp/kaigo/nanohana/" }, "geometry": { "type": "Point", "coordinates": [ 135.4356141, 34.5200394 ] } },
{ "type": "Feature", "properties": { "内容": "社会福祉法人竹井病院　竹井医院介護医療院【介護医療院】大阪府東大阪市長堂一丁目２８番６号", "url": "https://www.kaigokensaku.mhlw.go.jp/27/index.php?action_kouhyou_detail_004_kani=true&JigyosyoCd=27B5000018-00&ServiceCd=550&Type=search", "url2": "https://ortho-g.co.jp/takei/hospital/" }, "geometry": { "type": "Point", "coordinates": [ 135.563485300000025, 34.6688445 ] } }
]
}
