{
"type": "FeatureCollection",
"name": "geo_27_特定施設入居者生活介護（有料老人ホーム（サービス付き高齢者向け住宅））",
"crs": { "type": "name", "properties": { "name": "urn:ogc:def:crs:OGC:1.3:CRS84" } },
"features": [
{ "type": "Feature", "properties": { "内容": "ブランシエールケア都島【特定施設入居者生活介護（有料老人ホーム（サービス付き高齢者向け住宅））】大阪府大阪市都島区善源寺町二丁目2番88ブランシエールケア都島", "url": "https://www.kaigokensaku.mhlw.go.jp/27/index.php?action_kouhyou_detail_004_kani=true&JigyosyoCd=2775202977-00&ServiceCd=&Type=search", "url2": "https://www.haseko-senior.co.jp/home/miyakojima/" }, "geometry": { "type": "Point", "coordinates": [ 135.525847199999987, 34.713410300000021 ] } },
{ "type": "Feature", "properties": { "内容": "ソーシャルケア福島【特定施設入居者生活介護（有料老人ホーム（サービス付き高齢者向け住宅））】大阪府大阪市福島区吉野5-12-25ソーシャルケア福島", "url": "https://www.kaigokensaku.mhlw.go.jp/27/index.php?action_kouhyou_detail_004_kani=true&JigyosyoCd=2770201933-00&ServiceCd=&Type=search", "url2": null }, "geometry": { "type": "Point", "coordinates": [ 135.468599, 34.6880747 ] } },
{ "type": "Feature", "properties": { "内容": "ソーシャルコート磯路【特定施設入居者生活介護（有料老人ホーム（サービス付き高齢者向け住宅））】大阪府大阪市港区磯路3-13-15", "url": "https://www.kaigokensaku.mhlw.go.jp/27/index.php?action_kouhyou_detail_004_kani=true&JigyosyoCd=2770402069-00&ServiceCd=&Type=search", "url2": null }, "geometry": { "type": "Point", "coordinates": [ 135.455581, 34.664707900000025 ] } },
{ "type": "Feature", "properties": { "内容": "サービス付き高齢者向け住宅リバーサイドふよう【特定施設入居者生活介護（有料老人ホーム（サービス付き高齢者向け住宅））】大阪府大阪市西淀川区福町二丁目11番5号リバーサイドふよう", "url": "https://www.kaigokensaku.mhlw.go.jp/27/index.php?action_kouhyou_detail_004_kani=true&JigyosyoCd=2771002272-00&ServiceCd=&Type=search", "url2": null }, "geometry": { "type": "Point", "coordinates": [ 135.442781500000024, 34.6957991 ] } },
{ "type": "Feature", "properties": { "内容": "チャーム新大阪淡路【特定施設入居者生活介護（有料老人ホーム（サービス付き高齢者向け住宅））】大阪府大阪市東淀川区淡路2丁目3番6号", "url": "https://www.kaigokensaku.mhlw.go.jp/27/index.php?action_kouhyou_detail_004_kani=true&JigyosyoCd=2773004672-00&ServiceCd=&Type=search", "url2": "http://www.charmcc.jp" }, "geometry": { "type": "Point", "coordinates": [ 135.512432300000029, 34.7353466 ] } },
{ "type": "Feature", "properties": { "内容": "学研ココファン深江橋【特定施設入居者生活介護（有料老人ホーム（サービス付き高齢者向け住宅））】大阪府大阪市東成区神路２－５－６", "url": "https://www.kaigokensaku.mhlw.go.jp/27/index.php?action_kouhyou_detail_004_kani=true&JigyosyoCd=2771502578-00&ServiceCd=&Type=search", "url2": "http://www.cocofump.co.jp/" }, "geometry": { "type": "Point", "coordinates": [ 135.55341390000001, 34.6753573 ] } },
{ "type": "Feature", "properties": { "内容": "サービス付き高齢者向け住宅　福寿【特定施設入居者生活介護（有料老人ホーム（サービス付き高齢者向け住宅））】大阪府大阪市生野区巽北2-13-14", "url": "https://www.kaigokensaku.mhlw.go.jp/27/index.php?action_kouhyou_detail_004_kani=true&JigyosyoCd=2772205734-00&ServiceCd=&Type=search", "url2": "http://www.fukujyu.jp/" }, "geometry": { "type": "Point", "coordinates": [ 135.550825799999984, 34.6545097 ] } },
{ "type": "Feature", "properties": { "内容": "学研ココファン鶴橋【特定施設入居者生活介護（有料老人ホーム（サービス付き高齢者向け住宅））】大阪市生野区鶴橋１－６－８ココファン鶴橋", "url": "https://www.kaigokensaku.mhlw.go.jp/27/index.php?action_kouhyou_detail_004_kani=true&JigyosyoCd=2772205197-00&ServiceCd=&Type=search", "url2": "http://www.cocofump.co.jp/" }, "geometry": { "type": "Point", "coordinates": [ 135.530005100000039, 34.6636302 ] } },
{ "type": "Feature", "properties": { "内容": "社会福祉法人　清水福祉会　サービス付き高齢者向け住宅さくら【特定施設入居者生活介護（有料老人ホーム（サービス付き高齢者向け住宅））】大阪府大阪市旭区新森三丁目3番31号", "url": "https://www.kaigokensaku.mhlw.go.jp/27/index.php?action_kouhyou_detail_004_kani=true&JigyosyoCd=2773103581-00&ServiceCd=&Type=search", "url2": "http://www.seisuikai.net/" }, "geometry": { "type": "Point", "coordinates": [ 135.553102, 34.719847 ] } },
{ "type": "Feature", "properties": { "内容": "グルメ杵屋社会貢献大領の家　特定施設入居者生活介護【特定施設入居者生活介護（有料老人ホーム（サービス付き高齢者向け住宅））】大阪府大阪市住吉区大領2丁目8番20号グルメ杵屋社会貢献大領の家", "url": "https://www.kaigokensaku.mhlw.go.jp/27/index.php?action_kouhyou_detail_004_kani=true&JigyosyoCd=2772003709-00&ServiceCd=&Type=search", "url2": "https://dairyou.gksc.jp/" }, "geometry": { "type": "Point", "coordinates": [ 135.5077752, 34.617162300000032 ] } },
{ "type": "Feature", "properties": { "内容": "チャーム南田辺【特定施設入居者生活介護（有料老人ホーム（サービス付き高齢者向け住宅））】大阪市東住吉区南田辺二丁目12番7号", "url": "https://www.kaigokensaku.mhlw.go.jp/27/index.php?action_kouhyou_detail_004_kani=true&JigyosyoCd=2770804892-00&ServiceCd=&Type=search", "url2": "http://www.charmcc.jp" }, "geometry": { "type": "Point", "coordinates": [ 135.521156799999972, 34.6190242 ] } },
{ "type": "Feature", "properties": { "内容": "アンセジュール田川【特定施設入居者生活介護（有料老人ホーム（サービス付き高齢者向け住宅））】大阪府大阪市淀川区田川3-9-11", "url": "https://www.kaigokensaku.mhlw.go.jp/27/index.php?action_kouhyou_detail_004_kani=true&JigyosyoCd=2779104377-00&ServiceCd=&Type=search", "url2": "http://www.shusokai.jp" }, "geometry": { "type": "Point", "coordinates": [ 135.464823700000011, 34.7188809 ] } },
{ "type": "Feature", "properties": { "内容": "レザミ鶴見緑地【特定施設入居者生活介護（有料老人ホーム（サービス付き高齢者向け住宅））】大阪府大阪市鶴見区諸口6丁目15-11", "url": "https://www.kaigokensaku.mhlw.go.jp/27/index.php?action_kouhyou_detail_004_kani=true&JigyosyoCd=2779202635-00&ServiceCd=&Type=search", "url2": "http://www.les-amis.co.jp/" }, "geometry": { "type": "Point", "coordinates": [ 135.5767241, 34.7087613 ] } },
{ "type": "Feature", "properties": { "内容": "ソーシャルコート平野【特定施設入居者生活介護（有料老人ホーム（サービス付き高齢者向け住宅））】大阪市平野区長吉出戸５丁目２番２４号", "url": "https://www.kaigokensaku.mhlw.go.jp/27/index.php?action_kouhyou_detail_004_kani=true&JigyosyoCd=2775807015-00&ServiceCd=&Type=search", "url2": "https://www.social-l.com/facility/sc-hirano/" }, "geometry": { "type": "Point", "coordinates": [ 135.569318599999974, 34.6089456 ] } },
{ "type": "Feature", "properties": { "内容": "サニーライフ　大阪平野【特定施設入居者生活介護（有料老人ホーム（サービス付き高齢者向け住宅））】大阪府大阪市平野区加美北４－７－３０", "url": "https://www.kaigokensaku.mhlw.go.jp/27/index.php?action_kouhyou_detail_004_kani=true&JigyosyoCd=2775807510-00&ServiceCd=&Type=search", "url2": "https://www.sunnylife-group.co.jp/" }, "geometry": { "type": "Point", "coordinates": [ 135.5606166, 34.637449 ] } },
{ "type": "Feature", "properties": { "内容": "介護付有料老人ホーム　ルーブル道頓堀【特定施設入居者生活介護（有料老人ホーム（サービス付き高齢者向け住宅））】大阪府大阪市中央区道頓堀1丁目東3番27号介護付有料老人ホーム　ルーブル道頓堀", "url": "https://www.kaigokensaku.mhlw.go.jp/27/index.php?action_kouhyou_detail_004_kani=true&JigyosyoCd=2779403431-00&ServiceCd=&Type=search", "url2": "http://www.global-kaigo.co.jp" }, "geometry": { "type": "Point", "coordinates": [ 135.509985, 34.668374 ] } },
{ "type": "Feature", "properties": { "内容": "潤いの杜さかい【特定施設入居者生活介護（有料老人ホーム（サービス付き高齢者向け住宅））】大阪府堺市堺区車之町西3丁1番10号", "url": "https://www.kaigokensaku.mhlw.go.jp/27/index.php?action_kouhyou_detail_004_kani=true&JigyosyoCd=2776004224-00&ServiceCd=&Type=search", "url2": null }, "geometry": { "type": "Point", "coordinates": [ 135.4749727, 34.5832805 ] } },
{ "type": "Feature", "properties": { "内容": "介護付き有料老人ホームむこうがおか【特定施設入居者生活介護（有料老人ホーム（サービス付き高齢者向け住宅））】大阪府堺市西区上野芝向ヶ丘町4丁24番39号", "url": "https://www.kaigokensaku.mhlw.go.jp/27/index.php?action_kouhyou_detail_004_kani=true&JigyosyoCd=2776303246-00&ServiceCd=&Type=search", "url2": "http://www.daisenkai.jp" }, "geometry": { "type": "Point", "coordinates": [ 135.4771515, 34.541935600000023 ] } },
{ "type": "Feature", "properties": { "内容": "けあねっととくしゅうかいきしわだ【特定施設入居者生活介護（有料老人ホーム（サービス付き高齢者向け住宅））】磯上町4-22-40ケアネット徳洲会岸和田", "url": "https://www.kaigokensaku.mhlw.go.jp/27/index.php?action_kouhyou_detail_004_kani=true&JigyosyoCd=2771106552-00&ServiceCd=&Type=search", "url2": "http://care-net.co.jp/kishiwada-kaigo" }, "geometry": { "type": "Point", "coordinates": [ 135.394924, 34.4872861 ] } },
{ "type": "Feature", "properties": { "内容": "ソレイユとよなか【特定施設入居者生活介護（有料老人ホーム（サービス付き高齢者向け住宅））】大阪府豊中市庄内西町2丁目20番18号", "url": "https://www.kaigokensaku.mhlw.go.jp/27/index.php?action_kouhyou_detail_004_kani=true&JigyosyoCd=2774010025-00&ServiceCd=&Type=search", "url2": "https://www.mediplan.jp" }, "geometry": { "type": "Point", "coordinates": [ 135.472898407686046, 34.750587676274606 ] } },
{ "type": "Feature", "properties": { "内容": "リーブル泉大津【特定施設入居者生活介護（有料老人ホーム（サービス付き高齢者向け住宅））】大阪府泉大津市条南町4番12号", "url": "https://www.kaigokensaku.mhlw.go.jp/27/index.php?action_kouhyou_detail_004_kani=true&JigyosyoCd=2770601876-00&ServiceCd=&Type=search", "url2": "http://www.e-lifepartner.co.jp" }, "geometry": { "type": "Point", "coordinates": [ 135.418224562565683, 34.51044128567343 ] } },
{ "type": "Feature", "properties": { "内容": "ソレイユ　もりぐち【特定施設入居者生活介護（有料老人ホーム（サービス付き高齢者向け住宅））】大阪府守口市下島町11番20号", "url": "https://www.kaigokensaku.mhlw.go.jp/27/index.php?action_kouhyou_detail_004_kani=true&JigyosyoCd=2773203118-00&ServiceCd=&Type=search", "url2": "https://www.mediplan.jp/" }, "geometry": { "type": "Point", "coordinates": [ 135.561362, 34.746077 ] } },
{ "type": "Feature", "properties": { "内容": "高齢者複合施設フルール長尾【特定施設入居者生活介護（有料老人ホーム（サービス付き高齢者向け住宅））】大阪府枚方市藤阪東町三丁目５番８号", "url": "https://www.kaigokensaku.mhlw.go.jp/27/index.php?action_kouhyou_detail_004_kani=true&JigyosyoCd=2772410177-00&ServiceCd=&Type=search", "url2": "https://misugikai.jp/nagao/index.html" }, "geometry": { "type": "Point", "coordinates": [ 135.714520899999968, 34.819563800000033 ] } },
{ "type": "Feature", "properties": { "内容": "介護付有料老人ホーム頂【特定施設入居者生活介護（有料老人ホーム（サービス付き高齢者向け住宅））】大阪府枚方市山之上北町4番30号介護付有料老人ホーム頂", "url": "https://www.kaigokensaku.mhlw.go.jp/27/index.php?action_kouhyou_detail_004_kani=true&JigyosyoCd=2772409104-00&ServiceCd=&Type=search", "url2": "https://www.hanamaru-day.com/" }, "geometry": { "type": "Point", "coordinates": [ 135.6534347, 34.8053351 ] } },
{ "type": "Feature", "properties": { "内容": "茨木介護付有料老人ホームラガール【特定施設入居者生活介護（有料老人ホーム（サービス付き高齢者向け住宅））】大阪府茨木市太田東芝町2-8", "url": "https://www.kaigokensaku.mhlw.go.jp/27/index.php?action_kouhyou_detail_004_kani=true&JigyosyoCd=2774206367-00&ServiceCd=&Type=search", "url2": "https://www.koudoukai.or.jp/" }, "geometry": { "type": "Point", "coordinates": [ 135.5762569, 34.8400317 ] } },
{ "type": "Feature", "properties": { "内容": "医療法人幸晴会ジ・アール北木の本【特定施設入居者生活介護（有料老人ホーム（サービス付き高齢者向け住宅））】大阪府八尾市北木の本5-114ジ・アール北木の本", "url": "https://www.kaigokensaku.mhlw.go.jp/27/index.php?action_kouhyou_detail_004_kani=true&JigyosyoCd=2775505700-00&ServiceCd=&Type=search", "url2": "http://www.nakataniclinic.or.jp/the-are/" }, "geometry": { "type": "Point", "coordinates": [ 135.5896348, 34.6074738 ] } },
{ "type": "Feature", "properties": { "内容": "医療法人幸晴会　ジ・アール旭ヶ丘【特定施設入居者生活介護（有料老人ホーム（サービス付き高齢者向け住宅））】大阪府八尾市旭ヶ丘3丁目7-5ジ・アール旭ヶ丘", "url": "https://www.kaigokensaku.mhlw.go.jp/27/index.php?action_kouhyou_detail_004_kani=true&JigyosyoCd=2775506708-00&ServiceCd=&Type=search", "url2": "http://nakataniclinic.or.jp/" }, "geometry": { "type": "Point", "coordinates": [ 135.612675497097854, 34.631800672763625 ] } },
{ "type": "Feature", "properties": { "内容": "あぷり八尾太田【特定施設入居者生活介護（有料老人ホーム（サービス付き高齢者向け住宅））】大阪府大阪市八尾市太田7-54-1", "url": "https://www.kaigokensaku.mhlw.go.jp/27/index.php?action_kouhyou_detail_004_kani=true&JigyosyoCd=2775507920-00&ServiceCd=&Type=search", "url2": "https://www.apri-kaigo.com/" }, "geometry": { "type": "Point", "coordinates": [ 135.5996629, 34.5894552 ] } },
{ "type": "Feature", "properties": { "内容": "サービス付き高齢者向け住宅あぷり八尾都塚【特定施設入居者生活介護（有料老人ホーム（サービス付き高齢者向け住宅））】大阪府八尾市都塚南1丁目14番地", "url": "https://www.kaigokensaku.mhlw.go.jp/27/index.php?action_kouhyou_detail_004_kani=true&JigyosyoCd=2775507235-00&ServiceCd=&Type=search", "url2": "http://www.apri-kaigo.com" }, "geometry": { "type": "Point", "coordinates": [ 135.618965226346859, 34.601243449179243 ] } },
{ "type": "Feature", "properties": { "内容": "株式会社ヘルスネット徳洲会　特定施設入居者生活介護八尾の杜【特定施設入居者生活介護（有料老人ホーム（サービス付き高齢者向け住宅））】大阪府八尾市久宝寺3丁目15番39号特定施設入居者生活介護八尾の杜", "url": "https://www.kaigokensaku.mhlw.go.jp/27/index.php?action_kouhyou_detail_004_kani=true&JigyosyoCd=2775505304-00&ServiceCd=&Type=search", "url2": "https://yaonomori-kaigo.jp" }, "geometry": { "type": "Point", "coordinates": [ 135.588237, 34.6297156 ] } },
{ "type": "Feature", "properties": { "内容": "医療法人徳洲会サービス付き高齢者住宅特定施設入居者生活介護すいせん【特定施設入居者生活介護（有料老人ホーム（サービス付き高齢者向け住宅））】大阪府和泉市府中町五丁目5番6号", "url": "https://www.kaigokensaku.mhlw.go.jp/27/index.php?action_kouhyou_detail_004_kani=true&JigyosyoCd=2770505739-00&ServiceCd=&Type=search", "url2": null }, "geometry": { "type": "Point", "coordinates": [ 135.432065700000038, 34.484255 ] } }
]
}
