{
"type": "FeatureCollection",
"name": "geo_27_夜間対応型訪問介護",
"crs": { "type": "name", "properties": { "name": "urn:ogc:def:crs:OGC:1.3:CRS84" } },
"features": [
{ "type": "Feature", "properties": { "内容": "ＳＯＭＰＯケア　城東　夜間訪問介護【夜間対応型訪問介護】大阪府大阪市城東区鴫野東3-2-1", "url": "https://www.kaigokensaku.mhlw.go.jp/27/index.php?action_kouhyou_detail_004_kani=true&JigyosyoCd=2794400255-00&ServiceCd=710&Type=search", "url2": "https://www.sompocare.com/service/zaitaku/kaigo/Z000714" }, "geometry": { "type": "Point", "coordinates": [ 135.5462949, 34.6910813 ] } },
{ "type": "Feature", "properties": { "内容": "SOMPOケア阿倍野　夜間訪問介護【夜間対応型訪問介護】大阪府大阪市阿倍野区西田辺町二丁目8番6号TASTEビル　2階A号室", "url": "https://www.kaigokensaku.mhlw.go.jp/27/index.php?action_kouhyou_detail_004_kani=true&JigyosyoCd=2792300150-00&ServiceCd=710&Type=search", "url2": null }, "geometry": { "type": "Point", "coordinates": [ 135.514421500000026, 34.6180491 ] } },
{ "type": "Feature", "properties": { "内容": "株式会社シルバーサービスモリタナイトケア【夜間対応型訪問介護】大阪府大阪市住吉区大領四丁目7番21号", "url": "https://www.kaigokensaku.mhlw.go.jp/27/index.php?action_kouhyou_detail_004_kani=true&JigyosyoCd=2792000024-00&ServiceCd=710&Type=search", "url2": "http://www.silver-morita.com" }, "geometry": { "type": "Point", "coordinates": [ 135.504772399999979, 34.6152274 ] } },
{ "type": "Feature", "properties": { "内容": "医療法人　西中医学会　西中夜間対応型ヘルパーステーション【夜間対応型訪問介護】大阪市東住吉区公園南矢田4-19-29", "url": "https://www.kaigokensaku.mhlw.go.jp/27/index.php?action_kouhyou_detail_004_kani=true&JigyosyoCd=2790800011-00&ServiceCd=710&Type=search", "url2": "http://www.nishinaka.or.jp" }, "geometry": { "type": "Point", "coordinates": [ 135.524761078412695, 34.598786743641817 ] } },
{ "type": "Feature", "properties": { "内容": "かなうヘルパーステーション【夜間対応型訪問介護】大阪府大阪市西成区萩之茶屋１－１２－７B", "url": "https://www.kaigokensaku.mhlw.go.jp/27/index.php?action_kouhyou_detail_004_kani=true&JigyosyoCd=2793300381-00&ServiceCd=710&Type=search", "url2": null }, "geometry": { "type": "Point", "coordinates": [ 135.502459195106496, 34.647687828166795 ] } },
{ "type": "Feature", "properties": { "内容": "グッドライフケア夜間対応型訪問介護大阪【夜間対応型訪問介護】大阪府大阪市北区紅梅町1-6カザリーノビル6階", "url": "https://www.kaigokensaku.mhlw.go.jp/27/index.php?action_kouhyou_detail_004_kani=true&JigyosyoCd=2794100111-00&ServiceCd=710&Type=search", "url2": "https://goodlifecare.co.jp/" }, "geometry": { "type": "Point", "coordinates": [ 135.51395279999997, 34.6985709 ] } },
{ "type": "Feature", "properties": { "内容": "夜間対応型訪問介護　ナイトヘルパー萬寿園【夜間対応型訪問介護】大阪府岸和田市尾生町808番地", "url": "https://www.kaigokensaku.mhlw.go.jp/27/index.php?action_kouhyou_detail_004_kani=true&JigyosyoCd=2791100049-00&ServiceCd=710&Type=search", "url2": null }, "geometry": { "type": "Point", "coordinates": [ 135.407417500000065, 34.4513474 ] } },
{ "type": "Feature", "properties": { "内容": "ＳＯＭＰＯケア　豊中　夜間訪問介護【夜間対応型訪問介護】大阪府豊中市岡町北3丁目5番22号", "url": "https://www.kaigokensaku.mhlw.go.jp/27/index.php?action_kouhyou_detail_004_kani=true&JigyosyoCd=2794000857-00&ServiceCd=710&Type=search", "url2": null }, "geometry": { "type": "Point", "coordinates": [ 135.462648406871409, 34.781604085407849 ] } },
{ "type": "Feature", "properties": { "内容": "アーバンナイト【夜間対応型訪問介護】大阪府枚方市三矢町2-10", "url": "https://www.kaigokensaku.mhlw.go.jp/27/index.php?action_kouhyou_detail_004_kani=true&JigyosyoCd=2792400083-00&ServiceCd=710&Type=search", "url2": "http://www.care-life.jp" }, "geometry": { "type": "Point", "coordinates": [ 135.643494899999951, 34.8149567 ] } },
{ "type": "Feature", "properties": { "内容": "ＳＯＭＰＯケア茨木　夜間訪問介護【夜間対応型訪問介護】大阪府茨木市双葉町2-27茨木シティライフビル3階", "url": "https://www.kaigokensaku.mhlw.go.jp/27/index.php?action_kouhyou_detail_004_kani=true&JigyosyoCd=2794200580-00&ServiceCd=710&Type=search", "url2": "https://www.sompocare.com" }, "geometry": { "type": "Point", "coordinates": [ 135.577139619604537, 34.817265974062607 ] } },
{ "type": "Feature", "properties": { "内容": "夜間対応安心コール中谷【夜間対応型訪問介護】八尾市八尾木北３丁目１２３番地", "url": "https://www.kaigokensaku.mhlw.go.jp/27/index.php?action_kouhyou_detail_004_kani=true&JigyosyoCd=2795500186-00&ServiceCd=710&Type=search", "url2": "http://www.nakataniclinic.or.jp" }, "geometry": { "type": "Point", "coordinates": [ 135.615642799999932, 34.6151876 ] } }
]
}
