{
"type": "FeatureCollection",
"name": "geo_27_介護老人保健施設",
"crs": { "type": "name", "properties": { "name": "urn:ogc:def:crs:OGC:1.3:CRS84" } },
"features": [
{ "type": "Feature", "properties": { "内容": "介護老人保健施設　東雄苑都島【介護老人保健施設】大阪市都島区中野町１丁目１３番１２号", "url": "https://www.kaigokensaku.mhlw.go.jp/27/index.php?action_kouhyou_detail_004_kani=true&JigyosyoCd=2755280027-00&ServiceCd=520&Type=search", "url2": "http://www.oukikai.or.jp/toyuen_miyakojima/index.html" }, "geometry": { "type": "Point", "coordinates": [ 135.523937899999964, 34.7011875 ] } },
{ "type": "Feature", "properties": { "内容": "介護老人保健施設　庵みやこじま【介護老人保健施設】大阪府大阪市都島区都島本通５丁目１４－４", "url": "https://www.kaigokensaku.mhlw.go.jp/27/index.php?action_kouhyou_detail_004_kani=true&JigyosyoCd=2755280043-00&ServiceCd=520&Type=search", "url2": "https://kosumosukaigr.jp/" }, "geometry": { "type": "Point", "coordinates": [ 135.534556599999974, 34.7081868 ] } },
{ "type": "Feature", "properties": { "内容": "社会医療法人明生会介護老人保健施設桜の宮苑【介護老人保健施設】大阪市都島区都島中通１－７－１", "url": "https://www.kaigokensaku.mhlw.go.jp/27/index.php?action_kouhyou_detail_004_kani=true&JigyosyoCd=2755280019-00&ServiceCd=520&Type=search", "url2": "http://meiseigrp.jp/" }, "geometry": { "type": "Point", "coordinates": [ 135.5283154, 34.7048371 ] } },
{ "type": "Feature", "properties": { "内容": "介護老人保健施設のだふじ【介護老人保健施設】大阪府大阪市福島区吉野４丁目２９番１８号", "url": "https://www.kaigokensaku.mhlw.go.jp/27/index.php?action_kouhyou_detail_004_kani=true&JigyosyoCd=2750280014-00&ServiceCd=520&Type=search", "url2": "https://nodafuji.cocotte.jp/" }, "geometry": { "type": "Point", "coordinates": [ 135.469565399999965, 34.6896402 ] } },
{ "type": "Feature", "properties": { "内容": "介護老人保健施設桔梗苑【介護老人保健施設】大阪府大阪市此花区伝法4-3-14", "url": "https://www.kaigokensaku.mhlw.go.jp/27/index.php?action_kouhyou_detail_004_kani=true&JigyosyoCd=2752880019-00&ServiceCd=520&Type=search", "url2": "https://www.ihoukai.jp/kikyouen/" }, "geometry": { "type": "Point", "coordinates": [ 135.453122705557234, 34.688255715374432 ] } },
{ "type": "Feature", "properties": { "内容": "介護老人保健施設　あかつき【介護老人保健施設】大阪府大阪市此花区西九条5－3－51", "url": "https://www.kaigokensaku.mhlw.go.jp/27/index.php?action_kouhyou_detail_004_kani=true&JigyosyoCd=2752880027-00&ServiceCd=520&Type=search", "url2": "http://www.gyoumeikan.or.jp" }, "geometry": { "type": "Point", "coordinates": [ 135.464731199999989, 34.6847387 ] } },
{ "type": "Feature", "properties": { "内容": "介護老人保健施設　えきさい大阪【介護老人保健施設】大阪府大阪市西区本田２－１－１０", "url": "https://www.kaigokensaku.mhlw.go.jp/27/index.php?action_kouhyou_detail_004_kani=true&JigyosyoCd=2751880028-00&ServiceCd=520&Type=search", "url2": "http://www.ekisai-osaka.jp" }, "geometry": { "type": "Point", "coordinates": [ 135.479184300000043, 34.6785612 ] } },
{ "type": "Feature", "properties": { "内容": "介護老人保健施設　健勝園九条【介護老人保健施設】大阪府大阪市西区九条南３丁目２０-６", "url": "https://www.kaigokensaku.mhlw.go.jp/27/index.php?action_kouhyou_detail_004_kani=true&JigyosyoCd=2751880010-00&ServiceCd=520&Type=search", "url2": "http://www.kensyokai.jp" }, "geometry": { "type": "Point", "coordinates": [ 135.470471299999986, 34.6739615 ] } },
{ "type": "Feature", "properties": { "内容": "介護老人保健施設　港さつき苑【介護老人保健施設】大阪府大阪市港区弁天４丁目１６番１８号", "url": "https://www.kaigokensaku.mhlw.go.jp/27/index.php?action_kouhyou_detail_004_kani=true&JigyosyoCd=2750480028-00&ServiceCd=520&Type=search", "url2": "http://www.minato-satsukien.jp/index.html/" }, "geometry": { "type": "Point", "coordinates": [ 135.456092099999978, 34.671150300000015 ] } },
{ "type": "Feature", "properties": { "内容": "多根介護老人保健施設てんぽーざん【介護老人保健施設】大阪市港区築港3－4－25", "url": "https://www.kaigokensaku.mhlw.go.jp/27/index.php?action_kouhyou_detail_004_kani=true&JigyosyoCd=2750480010-00&ServiceCd=520&Type=search", "url2": "https://tenpozan.tane.or.jp/" }, "geometry": { "type": "Point", "coordinates": [ 135.43493060000003, 34.6552127 ] } },
{ "type": "Feature", "properties": { "内容": "医療法人社団緑会介護老人保健施設エバーグリーン【介護老人保健施設】大阪府大阪市大正区泉尾２丁目２０－４", "url": "https://www.kaigokensaku.mhlw.go.jp/27/index.php?action_kouhyou_detail_004_kani=true&JigyosyoCd=2752780011-00&ServiceCd=520&Type=search", "url2": "http://www.midorikai.net/" }, "geometry": { "type": "Point", "coordinates": [ 135.471441, 34.6607909 ] } },
{ "type": "Feature", "properties": { "内容": "介護老人保健施設　つるまち【介護老人保健施設】大阪市大正区鶴町２丁目１５－１８", "url": "https://www.kaigokensaku.mhlw.go.jp/27/index.php?action_kouhyou_detail_004_kani=true&JigyosyoCd=2752780029-00&ServiceCd=520&Type=search", "url2": "http://www.keieikai.com/houjin/rinen.htm" }, "geometry": { "type": "Point", "coordinates": [ 135.454035, 34.6376348 ] } },
{ "type": "Feature", "properties": { "内容": "介護老人保健施設愛の里【介護老人保健施設】大阪府大阪市大正区小林東2-6-14", "url": "https://www.kaigokensaku.mhlw.go.jp/27/index.php?action_kouhyou_detail_004_kani=true&JigyosyoCd=2752780037-00&ServiceCd=520&Type=search", "url2": "http://ainosato-kaigo.com/" }, "geometry": { "type": "Point", "coordinates": [ 135.475940655958567, 34.643183553337408 ] } },
{ "type": "Feature", "properties": { "内容": "医療法人歓喜会　介護老人保健施設　れいんぼう夕陽丘【介護老人保健施設】大阪府大阪市天王寺区生玉前町３番２４号", "url": "https://www.kaigokensaku.mhlw.go.jp/27/index.php?action_kouhyou_detail_004_kani=true&JigyosyoCd=2751780020-00&ServiceCd=520&Type=search", "url2": "http://www.kankikai.com/" }, "geometry": { "type": "Point", "coordinates": [ 135.51573140000005, 34.6644021 ] } },
{ "type": "Feature", "properties": { "内容": "介護老人保健施設みずほ倶楽部【介護老人保健施設】大阪府大阪市天王寺区清水谷町５－２７", "url": "https://www.kaigokensaku.mhlw.go.jp/27/index.php?action_kouhyou_detail_004_kani=true&JigyosyoCd=2751780012-00&ServiceCd=520&Type=search", "url2": "http://www.mizuho-kai.com" }, "geometry": { "type": "Point", "coordinates": [ 135.5221527, 34.6755204 ] } },
{ "type": "Feature", "properties": { "内容": "なにわ老人保健施設ラガール【介護老人保健施設】大阪府大阪市浪速区大国1丁目10番24号", "url": "https://www.kaigokensaku.mhlw.go.jp/27/index.php?action_kouhyou_detail_004_kani=true&JigyosyoCd=2754380026-00&ServiceCd=520&Type=search", "url2": "https://koudoukai.or.jp/naniwa-lagare/" }, "geometry": { "type": "Point", "coordinates": [ 135.496836300000012, 34.6528299 ] } },
{ "type": "Feature", "properties": { "内容": "介護老人保健施設　さくらがわ【介護老人保健施設】大阪市浪速区桜川４丁目１０－１３", "url": "https://www.kaigokensaku.mhlw.go.jp/27/index.php?action_kouhyou_detail_004_kani=true&JigyosyoCd=2754380018-00&ServiceCd=520&Type=search", "url2": "http://www.keieikai.com" }, "geometry": { "type": "Point", "coordinates": [ 135.485809099999983, 34.6656435 ] } },
{ "type": "Feature", "properties": { "内容": "介護老人保健施設セレーナなとり【介護老人保健施設】大阪市西淀川区大野２丁目１番３５号", "url": "https://www.kaigokensaku.mhlw.go.jp/27/index.php?action_kouhyou_detail_004_kani=true&JigyosyoCd=2751080033-00&ServiceCd=520&Type=search", "url2": "http://www.hakuyuukai.or.jp" }, "geometry": { "type": "Point", "coordinates": [ 135.439042800000038, 34.700799 ] } },
{ "type": "Feature", "properties": { "内容": "社会医療法人愛仁会介護老人保健施設ユーアイ【介護老人保健施設】大阪市西淀川区佃２丁目２－５８", "url": "https://www.kaigokensaku.mhlw.go.jp/27/index.php?action_kouhyou_detail_004_kani=true&JigyosyoCd=2751080025-00&ServiceCd=520&Type=search", "url2": "http://www.aijinkai.or.jp" }, "geometry": { "type": "Point", "coordinates": [ 135.4468114, 34.7129729 ] } },
{ "type": "Feature", "properties": { "内容": "介護老人保健施設なごみだいら【介護老人保健施設】大阪府大阪市西淀川区福町2丁目11-7", "url": "https://www.kaigokensaku.mhlw.go.jp/27/index.php?action_kouhyou_detail_004_kani=true&JigyosyoCd=2751080058-00&ServiceCd=520&Type=search", "url2": "http://www.fuyoufukusikai.com" }, "geometry": { "type": "Point", "coordinates": [ 135.442535212303142, 34.695345056166119 ] } },
{ "type": "Feature", "properties": { "内容": "介護老人保健施設フェリス大和田【介護老人保健施設】大阪府大阪市西淀川区大和田６丁目１３番４８号", "url": "https://www.kaigokensaku.mhlw.go.jp/27/index.php?action_kouhyou_detail_004_kani=true&JigyosyoCd=2751080017-00&ServiceCd=520&Type=search", "url2": "http://www.matsui-iryofukushi.gr.jp/" }, "geometry": { "type": "Point", "coordinates": [ 135.441581300000053, 34.7060346 ] } },
{ "type": "Feature", "properties": { "内容": "介護老人保健施設よどの里【介護老人保健施設】大阪市西淀川区姫島2丁目13番20号", "url": "https://www.kaigokensaku.mhlw.go.jp/27/index.php?action_kouhyou_detail_004_kani=true&JigyosyoCd=2751080041-00&ServiceCd=520&Type=search", "url2": "http://www.yodokyo.or.jp/yodonosato/" }, "geometry": { "type": "Point", "coordinates": [ 135.453417244180287, 34.702696373104125 ] } },
{ "type": "Feature", "properties": { "内容": "介護老人保健施設エスペラル井高野【介護老人保健施設】大阪府大阪市東淀川区井高野4-6-37", "url": "https://www.kaigokensaku.mhlw.go.jp/27/index.php?action_kouhyou_detail_004_kani=true&JigyosyoCd=2753080031-00&ServiceCd=520&Type=search", "url2": "http://www.esp-itakano.com/" }, "geometry": { "type": "Point", "coordinates": [ 135.548670799999968, 34.7670242 ] } },
{ "type": "Feature", "properties": { "内容": "介護老人保健施設エスペラル東淀川【介護老人保健施設】大阪府大阪市東淀川区菅原1丁目1番21号", "url": "https://www.kaigokensaku.mhlw.go.jp/27/index.php?action_kouhyou_detail_004_kani=true&JigyosyoCd=2753080015-00&ServiceCd=520&Type=search", "url2": "http://www.esp-higashiyodogawa.com/" }, "geometry": { "type": "Point", "coordinates": [ 135.52511549999997, 34.7355558 ] } },
{ "type": "Feature", "properties": { "内容": "介護老人保健施設　菜乃花【介護老人保健施設】大阪府大阪市東淀川区上新庄1-2-5", "url": "https://www.kaigokensaku.mhlw.go.jp/27/index.php?action_kouhyou_detail_004_kani=true&JigyosyoCd=2753080049-00&ServiceCd=520&Type=search", "url2": "https://www.ontoku.or.jp" }, "geometry": { "type": "Point", "coordinates": [ 135.527473399999963, 34.7442381 ] } },
{ "type": "Feature", "properties": { "内容": "淀川キリスト教病院老人保健施設【介護老人保健施設】大阪市東淀川区淡路２－１－４１", "url": "https://www.kaigokensaku.mhlw.go.jp/27/index.php?action_kouhyou_detail_004_kani=true&JigyosyoCd=2753080023-00&ServiceCd=520&Type=search", "url2": "https://www.ych.or.jp/group/rouken/" }, "geometry": { "type": "Point", "coordinates": [ 135.511166799999955, 34.7354248 ] } },
{ "type": "Feature", "properties": { "内容": "介護老人保健施設　おとしよりすこやかセンター東部館【介護老人保健施設】大阪府大阪市東成区東中本２丁目５番３１号", "url": "https://www.kaigokensaku.mhlw.go.jp/27/index.php?action_kouhyou_detail_004_kani=true&JigyosyoCd=2751580040-00&ServiceCd=520&Type=search", "url2": "https://kodokai.or.jp/publics/index/37/" }, "geometry": { "type": "Point", "coordinates": [ 135.5482011, 34.679357900000014 ] } },
{ "type": "Feature", "properties": { "内容": "医療法人浩治会大今里ケアホーム【介護老人保健施設】大阪市東成区大今里西2-17-16", "url": "https://www.kaigokensaku.mhlw.go.jp/27/index.php?action_kouhyou_detail_004_kani=true&JigyosyoCd=2751580024-00&ServiceCd=520&Type=search", "url2": "http://www.i-carehome.com/" }, "geometry": { "type": "Point", "coordinates": [ 135.541536423942603, 34.668824960341247 ] } },
{ "type": "Feature", "properties": { "内容": "老人保健施設　すこやか生野【介護老人保健施設】大阪市生野区勝山北４丁目１番８号", "url": "https://www.kaigokensaku.mhlw.go.jp/27/index.php?action_kouhyou_detail_004_kani=true&JigyosyoCd=2752280038-00&ServiceCd=520&Type=search", "url2": "http://www.aeba.or.jp/" }, "geometry": { "type": "Point", "coordinates": [ 135.535016, 34.6575839 ] } },
{ "type": "Feature", "properties": { "内容": "育和会介護老人保健施設ひまわり【介護老人保健施設】大阪市生野区巽西2丁目9番31号", "url": "https://www.kaigokensaku.mhlw.go.jp/27/index.php?action_kouhyou_detail_004_kani=true&JigyosyoCd=2752280012-00&ServiceCd=520&Type=search", "url2": "https://himawari.ikuwakai.or.jp/" }, "geometry": { "type": "Point", "coordinates": [ 135.547067700000014, 34.6499045 ] } },
{ "type": "Feature", "properties": { "内容": "ケアホームフォーシーズン【介護老人保健施設】大阪府大阪市生野区中川５－４－２", "url": "https://www.kaigokensaku.mhlw.go.jp/27/index.php?action_kouhyou_detail_004_kani=true&JigyosyoCd=2752280046-00&ServiceCd=520&Type=search", "url2": "http://www.ikuno-chuo.com/fourseason_top.html" }, "geometry": { "type": "Point", "coordinates": [ 135.54574, 34.6581424 ] } },
{ "type": "Feature", "properties": { "内容": "アネシス寺田町【介護老人保健施設】大阪府大阪市生野区林寺1丁目4-24", "url": "https://www.kaigokensaku.mhlw.go.jp/27/index.php?action_kouhyou_detail_004_kani=true&JigyosyoCd=2752280061-00&ServiceCd=520&Type=search", "url2": "http://i-souseikai.jp/" }, "geometry": { "type": "Point", "coordinates": [ 135.528270071163888, 34.645684524328139 ] } },
{ "type": "Feature", "properties": { "内容": "介護老人保健施設　ハーモニー共和【介護老人保健施設】大阪府大阪市生野区巽中１丁目２０番１４号", "url": "https://www.kaigokensaku.mhlw.go.jp/27/index.php?action_kouhyou_detail_004_kani=true&JigyosyoCd=2752280020-00&ServiceCd=520&Type=search", "url2": "https://kyowa-hp.net/harmony-kyowa/" }, "geometry": { "type": "Point", "coordinates": [ 135.553292300000066, 34.6516879 ] } },
{ "type": "Feature", "properties": { "内容": "介護老人保健施設　フェリス生江【介護老人保健施設】大阪府大阪市旭区生江1-5-9", "url": "https://www.kaigokensaku.mhlw.go.jp/27/index.php?action_kouhyou_detail_004_kani=true&JigyosyoCd=2753180047-00&ServiceCd=520&Type=search", "url2": "http://www.shoujinkai.or.jp/feliz_ikue/" }, "geometry": { "type": "Point", "coordinates": [ 135.536381300000016, 34.7231824 ] } },
{ "type": "Feature", "properties": { "内容": "医療法人清水会　介護老人保健施設おひさま園【介護老人保健施設】大阪府大阪市旭区清水２丁目1番21号", "url": "https://www.kaigokensaku.mhlw.go.jp/27/index.php?action_kouhyou_detail_004_kani=true&JigyosyoCd=2753180021-00&ServiceCd=520&Type=search", "url2": "http://www.seisuikai.net/" }, "geometry": { "type": "Point", "coordinates": [ 135.557110299999977, 34.7205858 ] } },
{ "type": "Feature", "properties": { "内容": "社会医療法人　ＯＮＥＦＬＡＧ　牧介護老人保健施設【介護老人保健施設】大阪市旭区生江２丁目15-14", "url": "https://www.kaigokensaku.mhlw.go.jp/27/index.php?action_kouhyou_detail_004_kani=true&JigyosyoCd=2753180013-00&ServiceCd=520&Type=search", "url2": "http://www.maki-group.jp" }, "geometry": { "type": "Point", "coordinates": [ 135.538153400000056, 34.724176800000038 ] } },
{ "type": "Feature", "properties": { "内容": "介護老人保健施設　牧すこやかセンター【介護老人保健施設】大阪府大阪市旭区高殿6-14-41", "url": "https://www.kaigokensaku.mhlw.go.jp/27/index.php?action_kouhyou_detail_004_kani=true&JigyosyoCd=2753180054-00&ServiceCd=520&Type=search", "url2": "http://www.maki-group.jp" }, "geometry": { "type": "Point", "coordinates": [ 135.5462268, 34.7171631 ] } },
{ "type": "Feature", "properties": { "内容": "医療法人晃和会　介護老人保健施設放出ふれあいセンター【介護老人保健施設】大阪市城東区放出西２丁目１８番４号", "url": "https://www.kaigokensaku.mhlw.go.jp/27/index.php?action_kouhyou_detail_004_kani=true&JigyosyoCd=2754480024-00&ServiceCd=520&Type=search", "url2": "http://kitada-iin.com" }, "geometry": { "type": "Point", "coordinates": [ 135.5587885, 34.6939413 ] } },
{ "type": "Feature", "properties": { "内容": "医療法人　浩治会　大阪城ケアホーム【介護老人保健施設】大阪市城東区鴫野西２－５－２４", "url": "https://www.kaigokensaku.mhlw.go.jp/27/index.php?action_kouhyou_detail_004_kani=true&JigyosyoCd=2754480040-00&ServiceCd=520&Type=search", "url2": "http://www.carehome.or.jp" }, "geometry": { "type": "Point", "coordinates": [ 135.5366679, 34.6902692 ] } },
{ "type": "Feature", "properties": { "内容": "介護老人保健施設　幸成園【介護老人保健施設】大阪市城東区今福西3-1-16", "url": "https://www.kaigokensaku.mhlw.go.jp/27/index.php?action_kouhyou_detail_004_kani=true&JigyosyoCd=2754480016-00&ServiceCd=520&Type=search", "url2": "https://koseien.com/" }, "geometry": { "type": "Point", "coordinates": [ 135.546917099999973, 34.7014792 ] } },
{ "type": "Feature", "properties": { "内容": "介護老人保健施設グリーンライフ【介護老人保健施設】大阪府大阪市城東区東中浜9-3-9", "url": "https://www.kaigokensaku.mhlw.go.jp/27/index.php?action_kouhyou_detail_004_kani=true&JigyosyoCd=2754480032-00&ServiceCd=520&Type=search", "url2": "http://www.omichikai.or.jp" }, "geometry": { "type": "Point", "coordinates": [ 135.5519696, 34.682537 ] } },
{ "type": "Feature", "properties": { "内容": "介護老人保健施設ホームランドあべの【介護老人保健施設】大阪府大阪市阿倍野区王子町4-1-46", "url": "https://www.kaigokensaku.mhlw.go.jp/27/index.php?action_kouhyou_detail_004_kani=true&JigyosyoCd=2752380028-00&ServiceCd=520&Type=search", "url2": "http://hl-abeno.or.jp" }, "geometry": { "type": "Point", "coordinates": [ 135.51018495700842, 34.625453129676195 ] } },
{ "type": "Feature", "properties": { "内容": "医療法人恵登久会　介護老人保健施設美富士苑【介護老人保健施設】大阪府大阪市阿倍野区阪南町7-2-10", "url": "https://www.kaigokensaku.mhlw.go.jp/27/index.php?action_kouhyou_detail_004_kani=true&JigyosyoCd=2752380036-00&ServiceCd=520&Type=search", "url2": "http://www.koshikawa-hospital.or.jp/mifujien/index.html" }, "geometry": { "type": "Point", "coordinates": [ 135.511521140401697, 34.618877467529678 ] } },
{ "type": "Feature", "properties": { "内容": "社会医療法人山紀会　介護老人保健施設やまき・あべの苑【介護老人保健施設】大阪市阿倍野区阪南町1-45-8", "url": "https://www.kaigokensaku.mhlw.go.jp/27/index.php?action_kouhyou_detail_004_kani=true&JigyosyoCd=2752380010-00&ServiceCd=520&Type=search", "url2": "http://www.yamakikai.or.jp/" }, "geometry": { "type": "Point", "coordinates": [ 135.515332299999955, 34.633903 ] } },
{ "type": "Feature", "properties": { "内容": "介護老人保健施設　錦秀苑【介護老人保健施設】大阪府大阪市住吉区南住吉一丁目２２番１７号", "url": "https://www.kaigokensaku.mhlw.go.jp/27/index.php?action_kouhyou_detail_004_kani=true&JigyosyoCd=2752080032-00&ServiceCd=520&Type=search", "url2": "https://www.kinshukai.or.jp" }, "geometry": { "type": "Point", "coordinates": [ 135.5014701, 34.6096753 ] } },
{ "type": "Feature", "properties": { "内容": "医療法人守田会　オりオノケアーセンター【介護老人保健施設】大阪府大阪市住吉区遠里小野1丁目2番21号", "url": "https://www.kaigokensaku.mhlw.go.jp/27/index.php?action_kouhyou_detail_004_kani=true&JigyosyoCd=2752080016-00&ServiceCd=520&Type=search", "url2": "http://www.moritakai.jp/care01/care01.html" }, "geometry": { "type": "Point", "coordinates": [ 135.498751199999987, 34.6005708 ] } },
{ "type": "Feature", "properties": { "内容": "介護老人保健施設　聖和苑【介護老人保健施設】大阪市住吉区帝塚山東2丁目1番35号", "url": "https://www.kaigokensaku.mhlw.go.jp/27/index.php?action_kouhyou_detail_004_kani=true&JigyosyoCd=2752080024-00&ServiceCd=520&Type=search", "url2": "http://www.tezukayama.or.jp/seiwa/index.html" }, "geometry": { "type": "Point", "coordinates": [ 135.502271690212979, 34.620579663007447 ] } },
{ "type": "Feature", "properties": { "内容": "介護老人保健施設ヴァンサンク【介護老人保健施設】大阪府大阪市東住吉区湯里２－１２－２６", "url": "https://www.kaigokensaku.mhlw.go.jp/27/index.php?action_kouhyou_detail_004_kani=true&JigyosyoCd=2750880037-00&ServiceCd=520&Type=search", "url2": "http://www.kaseikai.or.jp/" }, "geometry": { "type": "Point", "coordinates": [ 135.536886200000026, 34.614286 ] } },
{ "type": "Feature", "properties": { "内容": "パークサイドなごみ【介護老人保健施設】大阪府大阪市東住吉区公園南矢田3-19-12", "url": "https://www.kaigokensaku.mhlw.go.jp/27/index.php?action_kouhyou_detail_004_kani=true&JigyosyoCd=2750880052-00&ServiceCd=520&Type=search", "url2": "https://psnagomi.com/" }, "geometry": { "type": "Point", "coordinates": [ 135.5269204, 34.5994904 ] } },
{ "type": "Feature", "properties": { "内容": "介護老人保健施設　たちばな【介護老人保健施設】大阪市東住吉区住道矢田９丁目11番11号", "url": "https://www.kaigokensaku.mhlw.go.jp/27/index.php?action_kouhyou_detail_004_kani=true&JigyosyoCd=2750880011-00&ServiceCd=520&Type=search", "url2": "http://www.tachibana-med.or.jp/" }, "geometry": { "type": "Point", "coordinates": [ 135.543111, 34.6003792 ] } },
{ "type": "Feature", "properties": { "内容": "介護老人保健施設　東住吉すみれ苑【介護老人保健施設】大阪府大阪市東住吉区矢田1丁目23-6", "url": "https://www.kaigokensaku.mhlw.go.jp/27/index.php?action_kouhyou_detail_004_kani=true&JigyosyoCd=2750880102-00&ServiceCd=520&Type=search", "url2": "http://higashi-sumiyoshi-sumire.jp" }, "geometry": { "type": "Point", "coordinates": [ 135.5295979, 34.6062952 ] } },
{ "type": "Feature", "properties": { "内容": "西中介護老人保健施設　ヴィーブル　ジョワ【介護老人保健施設】大阪府大阪市東住吉区公園南矢田四丁目19番29号", "url": "https://www.kaigokensaku.mhlw.go.jp/27/index.php?action_kouhyou_detail_004_kani=true&JigyosyoCd=2750880045-00&ServiceCd=520&Type=search", "url2": "http://www.nishinaka.or.jp/" }, "geometry": { "type": "Point", "coordinates": [ 135.524706599999945, 34.5988183 ] } },
{ "type": "Feature", "properties": { "内容": "介護老人保健施設　桑の実【介護老人保健施設】大阪市東住吉区桑津４－４－５介護老人保健施設　桑の実", "url": "https://www.kaigokensaku.mhlw.go.jp/27/index.php?action_kouhyou_detail_004_kani=true&JigyosyoCd=2750880029-00&ServiceCd=520&Type=search", "url2": "http://www.kuwanomi-yodoi.or.jp/" }, "geometry": { "type": "Point", "coordinates": [ 135.532480699999951, 34.6375501 ] } },
{ "type": "Feature", "properties": { "内容": "医療法人　玄竜会　サナティオ湯里【介護老人保健施設】大阪府大阪市東住吉区湯里2-16-3", "url": "https://www.kaigokensaku.mhlw.go.jp/27/index.php?action_kouhyou_detail_004_kani=true&JigyosyoCd=2750880086-00&ServiceCd=520&Type=search", "url2": "https://genryuukai.com/sanatio-yuzato/index.html" }, "geometry": { "type": "Point", "coordinates": [ 135.5369306, 34.6160608 ] } },
{ "type": "Feature", "properties": { "内容": "医療法人玄竜会　田辺駅前ケアセンター【介護老人保健施設】大阪府大阪市東住吉区北田辺６－１６－３０", "url": "https://www.kaigokensaku.mhlw.go.jp/27/index.php?action_kouhyou_detail_004_kani=true&JigyosyoCd=2750880094-00&ServiceCd=520&Type=search", "url2": "http://genryuukai.com/tanabeekimae-cc/" }, "geometry": { "type": "Point", "coordinates": [ 135.525841820762622, 34.628365945536927 ] } },
{ "type": "Feature", "properties": { "内容": "医療法人　ダイワ会　介護老人保健施設　南部花園館【介護老人保健施設】大阪府大阪市西成区梅南1丁目4番26号", "url": "https://www.kaigokensaku.mhlw.go.jp/27/index.php?action_kouhyou_detail_004_kani=true&JigyosyoCd=2753380068-00&ServiceCd=520&Type=search", "url2": "http://www.daiwakai.or.jp/sukoyaka/" }, "geometry": { "type": "Point", "coordinates": [ 135.494159, 34.6433096 ] } },
{ "type": "Feature", "properties": { "内容": "介護老人保健施設レジデント梅南【介護老人保健施設】大阪市西成区梅南3―8―35", "url": "https://www.kaigokensaku.mhlw.go.jp/27/index.php?action_kouhyou_detail_004_kani=true&JigyosyoCd=2753380035-00&ServiceCd=520&Type=search", "url2": null }, "geometry": { "type": "Point", "coordinates": [ 135.486054200000012, 34.6427213 ] } },
{ "type": "Feature", "properties": { "内容": "社会医療法人　山紀会　介護老人保健施設　はるか【介護老人保健施設】大阪府大阪市西成区岸里二丁目6番9号", "url": "https://www.kaigokensaku.mhlw.go.jp/27/index.php?action_kouhyou_detail_004_kani=true&JigyosyoCd=2753380050-00&ServiceCd=520&Type=search", "url2": null }, "geometry": { "type": "Point", "coordinates": [ 135.495267499999954, 34.6333503 ] } },
{ "type": "Feature", "properties": { "内容": "社会医療法人山紀会　介護老人保健施設やまき苑【介護老人保健施設】大阪市西成区玉出西２-５-36", "url": "https://www.kaigokensaku.mhlw.go.jp/27/index.php?action_kouhyou_detail_004_kani=true&JigyosyoCd=2753380027-00&ServiceCd=520&Type=search", "url2": "http://www.yamakikai.or.jp" }, "geometry": { "type": "Point", "coordinates": [ 135.489568299999974, 34.6247735 ] } },
{ "type": "Feature", "properties": { "内容": "淀川老人保健施設けあきのもり【介護老人保健施設】大阪府大阪市淀川区新高１－７－２０", "url": "https://www.kaigokensaku.mhlw.go.jp/27/index.php?action_kouhyou_detail_004_kani=true&JigyosyoCd=2759180025-00&ServiceCd=520&Type=search", "url2": "https://keakinomori.keakikai.com/" }, "geometry": { "type": "Point", "coordinates": [ 135.481082300000025, 34.7323627 ] } },
{ "type": "Feature", "properties": { "内容": "社会医療法人協和会　淀川介護老人保健施設ハートフル【介護老人保健施設】大阪府大阪市淀川区十三東５丁目３番２９号", "url": "https://www.kaigokensaku.mhlw.go.jp/27/index.php?action_kouhyou_detail_004_kani=true&JigyosyoCd=2759180017-00&ServiceCd=520&Type=search", "url2": "http://www.heartfull.or.jp" }, "geometry": { "type": "Point", "coordinates": [ 135.4835276, 34.7243225 ] } },
{ "type": "Feature", "properties": { "内容": "鶴見老人保健施設ラガール【介護老人保健施設】大阪市鶴見区横堤４－３－３０", "url": "https://www.kaigokensaku.mhlw.go.jp/27/index.php?action_kouhyou_detail_004_kani=true&JigyosyoCd=2759280015-00&ServiceCd=520&Type=search", "url2": "https://www.koudoukai.or.jp/tsurumi-lagare/" }, "geometry": { "type": "Point", "coordinates": [ 135.57063740000001, 34.7042016 ] } },
{ "type": "Feature", "properties": { "内容": "介護老人保健施設　鶴見せいわ園【介護老人保健施設】大阪府大阪市鶴見区鶴見一丁目６番１１１号", "url": "https://www.kaigokensaku.mhlw.go.jp/27/index.php?action_kouhyou_detail_004_kani=true&JigyosyoCd=2759280031-00&ServiceCd=520&Type=search", "url2": "https://www.hondahp.or.jp/facility_tsurumi_seiwa_en/index.html" }, "geometry": { "type": "Point", "coordinates": [ 135.567198800000028, 34.696710699999983 ] } },
{ "type": "Feature", "properties": { "内容": "介護老人保健施設すいれん【介護老人保健施設】大阪府大阪市鶴見区諸口6-15-74介護老人保健施設すいれん", "url": "https://www.kaigokensaku.mhlw.go.jp/27/index.php?action_kouhyou_detail_004_kani=true&JigyosyoCd=2759280049-00&ServiceCd=520&Type=search", "url2": "http://www.kawafukukai.or.jp/" }, "geometry": { "type": "Point", "coordinates": [ 135.578367100000037, 34.7080847 ] } },
{ "type": "Feature", "properties": { "内容": "医療法人　真和会　老人保健施設プリオール【介護老人保健施設】大阪府大阪市鶴見区中茶屋２丁目１－２２", "url": "https://www.kaigokensaku.mhlw.go.jp/27/index.php?action_kouhyou_detail_004_kani=true&JigyosyoCd=2759280023-00&ServiceCd=520&Type=search", "url2": "http://www.shinwakai-or.or.jp/" }, "geometry": { "type": "Point", "coordinates": [ 135.586655400000041, 34.7013885 ] } },
{ "type": "Feature", "properties": { "内容": "アロンティアクラブ【介護老人保健施設】大阪市住之江区北島2-7-32", "url": "https://www.kaigokensaku.mhlw.go.jp/27/index.php?action_kouhyou_detail_004_kani=true&JigyosyoCd=2755980014-00&ServiceCd=520&Type=search", "url2": "http://www.kouzenkai.or.jp" }, "geometry": { "type": "Point", "coordinates": [ 135.476675600000021, 34.6033118 ] } },
{ "type": "Feature", "properties": { "内容": "介護老人保健施設　カルチェ住吉川【介護老人保健施設】大阪府大阪市住之江区北加賀屋一丁目１１番２０号", "url": "https://www.kaigokensaku.mhlw.go.jp/27/index.php?action_kouhyou_detail_004_kani=true&JigyosyoCd=2755980063-00&ServiceCd=520&Type=search", "url2": null }, "geometry": { "type": "Point", "coordinates": [ 135.479359808528898, 34.624541461370555 ] } },
{ "type": "Feature", "properties": { "内容": "介護老人保健施設雅秀苑【介護老人保健施設】大阪府大阪市住之江区南港北1-4-1", "url": "https://www.kaigokensaku.mhlw.go.jp/27/index.php?action_kouhyou_detail_004_kani=true&JigyosyoCd=2755980089-00&ServiceCd=520&Type=search", "url2": "http://www.tezukayama.or.jp" }, "geometry": { "type": "Point", "coordinates": [ 135.425184800000011, 34.6384061 ] } },
{ "type": "Feature", "properties": { "内容": "介護老人保健施設おとしよりすこやかセンター南部館【介護老人保健施設】大阪府大阪市平野区喜連西6丁目2番33号", "url": "https://www.kaigokensaku.mhlw.go.jp/27/index.php?action_kouhyou_detail_004_kani=true&JigyosyoCd=2755880107-00&ServiceCd=520&Type=search", "url2": "https://nanbukan.org" }, "geometry": { "type": "Point", "coordinates": [ 135.547601659524503, 34.610604588851153 ] } },
{ "type": "Feature", "properties": { "内容": "介護老人保健施設　平野新生苑【介護老人保健施設】大阪市平野区平野東１ー８ー２９", "url": "https://www.kaigokensaku.mhlw.go.jp/27/index.php?action_kouhyou_detail_004_kani=true&JigyosyoCd=2755880016-00&ServiceCd=520&Type=search", "url2": "https://murata-clinic-houjukai.jp/_m/" }, "geometry": { "type": "Point", "coordinates": [ 135.559681366270439, 34.623533612871498 ] } },
{ "type": "Feature", "properties": { "内容": "医療法人隆星会　介護老人保健施設オアシス【介護老人保健施設】大阪市平野区平野南一丁目7番7号", "url": "https://www.kaigokensaku.mhlw.go.jp/27/index.php?action_kouhyou_detail_004_kani=true&JigyosyoCd=2755880040-00&ServiceCd=520&Type=search", "url2": "http://oasisgroup.or.jp/" }, "geometry": { "type": "Point", "coordinates": [ 135.558520738098224, 34.61931980470554 ] } },
{ "type": "Feature", "properties": { "内容": "老人保健施設　永寿ケアセンター【介護老人保健施設】大阪府大阪市平野区瓜破南１丁目２番３０号", "url": "https://www.kaigokensaku.mhlw.go.jp/27/index.php?action_kouhyou_detail_004_kani=true&JigyosyoCd=2755880057-00&ServiceCd=520&Type=search", "url2": "http://www.eijyu.or.jp" }, "geometry": { "type": "Point", "coordinates": [ 135.546760899999981, 34.59660190000001 ] } },
{ "type": "Feature", "properties": { "内容": "社会福祉法人　恩徳福祉会　介護老人保健施設　ながよし苑【介護老人保健施設】大阪府大阪市平野区長吉川辺3丁目8番5号", "url": "https://www.kaigokensaku.mhlw.go.jp/27/index.php?action_kouhyou_detail_004_kani=true&JigyosyoCd=2755880081-00&ServiceCd=520&Type=search", "url2": "http://www.ontoku.or.jp/area/osaka-central/" }, "geometry": { "type": "Point", "coordinates": [ 135.575458600000047, 34.5976189 ] } },
{ "type": "Feature", "properties": { "内容": "介護老人保健施設　フェリス加美【介護老人保健施設】大阪府大阪市平野区加美西2-3-1", "url": "https://www.kaigokensaku.mhlw.go.jp/27/index.php?action_kouhyou_detail_004_kani=true&JigyosyoCd=2755880073-00&ServiceCd=520&Type=search", "url2": "http://www.shoujinkai.or.jp/feliz_kami/" }, "geometry": { "type": "Point", "coordinates": [ 135.562103400000069, 34.6249353 ] } },
{ "type": "Feature", "properties": { "内容": "介護療養型老人保健施設ナーシングホーム長吉【介護老人保健施設】大阪府大阪市平野区長吉長原1-2-34", "url": "https://www.kaigokensaku.mhlw.go.jp/27/index.php?action_kouhyou_detail_004_kani=true&JigyosyoCd=2755880065-00&ServiceCd=520&Type=search", "url2": "http://www.ngh.or.jp/rouken.html" }, "geometry": { "type": "Point", "coordinates": [ 135.5675486, 34.6064642 ] } },
{ "type": "Feature", "properties": { "内容": "介護老人保健施設　青美【介護老人保健施設】大阪府大阪市北区中崎西３－３－４０", "url": "https://www.kaigokensaku.mhlw.go.jp/27/index.php?action_kouhyou_detail_004_kani=true&JigyosyoCd=2754180020-00&ServiceCd=520&Type=search", "url2": "http://taizankai.org/" }, "geometry": { "type": "Point", "coordinates": [ 135.5022037, 34.7075751 ] } },
{ "type": "Feature", "properties": { "内容": "老健そねざき【介護老人保健施設】大阪府大阪市北区曽根崎1丁目1番20号", "url": "https://www.kaigokensaku.mhlw.go.jp/27/index.php?action_kouhyou_detail_004_kani=true&JigyosyoCd=2754180046-00&ServiceCd=520&Type=search", "url2": "http://www.heiseifukushikai.com" }, "geometry": { "type": "Point", "coordinates": [ 135.50383480000005, 34.6985878 ] } },
{ "type": "Feature", "properties": { "内容": "介護老人保健施設おとしより健康センター【介護老人保健施設】大阪府大阪市中央区島之内2丁目12番28号", "url": "https://www.kaigokensaku.mhlw.go.jp/27/index.php?action_kouhyou_detail_004_kani=true&JigyosyoCd=2759480029-00&ServiceCd=520&Type=search", "url2": "http://otoshiyori-kc.com/" }, "geometry": { "type": "Point", "coordinates": [ 135.507631899999978, 34.6716235 ] } },
{ "type": "Feature", "properties": { "内容": "介護老人保健施設みあ・かーさ【介護老人保健施設】大阪府堺市堺区今池町4丁4番12号", "url": "https://www.kaigokensaku.mhlw.go.jp/27/index.php?action_kouhyou_detail_004_kani=true&JigyosyoCd=2750180024-00&ServiceCd=520&Type=search", "url2": "https://www.asakayama.or.jp/facility/miacasa/" }, "geometry": { "type": "Point", "coordinates": [ 135.492913499999986, 34.5845556 ] } },
{ "type": "Feature", "properties": { "内容": "小規模介護老人保健施設　かーさ・あもーれ【介護老人保健施設】大阪府堺市堺区今池町3丁3番16号", "url": "https://www.kaigokensaku.mhlw.go.jp/27/index.php?action_kouhyou_detail_004_kani=true&JigyosyoCd=2756080012-00&ServiceCd=520&Type=search", "url2": "https://www.asakayama.or.jp" }, "geometry": { "type": "Point", "coordinates": [ 135.491088699999978, 34.5848084 ] } },
{ "type": "Feature", "properties": { "内容": "老人保健施設　堺ラ・メール【介護老人保健施設】大阪府堺市堺区柏木町3丁3番9号", "url": "https://www.kaigokensaku.mhlw.go.jp/27/index.php?action_kouhyou_detail_004_kani=true&JigyosyoCd=2750180057-00&ServiceCd=520&Type=search", "url2": "http://www.otorifukushikai.or.jp/" }, "geometry": { "type": "Point", "coordinates": [ 135.458133099999941, 34.5636206 ] } },
{ "type": "Feature", "properties": { "内容": "介護老人保健施設ベルアルト【介護老人保健施設】大阪府堺市堺区南安井町3丁1番1号", "url": "https://www.kaigokensaku.mhlw.go.jp/27/index.php?action_kouhyou_detail_004_kani=true&JigyosyoCd=2750180131-00&ServiceCd=520&Type=search", "url2": "http://www.yujinkai.com" }, "geometry": { "type": "Point", "coordinates": [ 135.476811895106493, 34.570832169283264 ] } },
{ "type": "Feature", "properties": { "内容": "介護老人保健施設だいせん【介護老人保健施設】大阪府堺市中区土塔町155番1", "url": "https://www.kaigokensaku.mhlw.go.jp/27/index.php?action_kouhyou_detail_004_kani=true&JigyosyoCd=2750180123-00&ServiceCd=520&Type=search", "url2": "http://daisenkai.jp/" }, "geometry": { "type": "Point", "coordinates": [ 135.5144659, 34.5302446 ] } },
{ "type": "Feature", "properties": { "内容": "介護老人保健施設　ベルアモール【介護老人保健施設】大阪府堺市中区深井畑山町211", "url": "https://www.kaigokensaku.mhlw.go.jp/27/index.php?action_kouhyou_detail_004_kani=true&JigyosyoCd=2750180040-00&ServiceCd=520&Type=search", "url2": "http://www.seichokai.or.jp/amor/" }, "geometry": { "type": "Point", "coordinates": [ 135.508307264418022, 34.526231297832354 ] } },
{ "type": "Feature", "properties": { "内容": "介護老人保健施設　ソルヴィラージュ【介護老人保健施設】大阪府堺市東区北野田636番地", "url": "https://www.kaigokensaku.mhlw.go.jp/27/index.php?action_kouhyou_detail_004_kani=true&JigyosyoCd=2750180032-00&ServiceCd=520&Type=search", "url2": "http://www.syo.or.jp" }, "geometry": { "type": "Point", "coordinates": [ 135.548806399999989, 34.5312094 ] } },
{ "type": "Feature", "properties": { "内容": "介護老人保健施設　クローバー悠苑【介護老人保健施設】大阪府堺市東区西野229-1", "url": "https://www.kaigokensaku.mhlw.go.jp/27/index.php?action_kouhyou_detail_004_kani=true&JigyosyoCd=2750180065-00&ServiceCd=520&Type=search", "url2": "http://www.ko-syo-kai.or.jp/" }, "geometry": { "type": "Point", "coordinates": [ 135.543724200000042, 34.5109141 ] } },
{ "type": "Feature", "properties": { "内容": "医療法人大泉会介護老人保健施設うえのしば【介護老人保健施設】大阪府堺市西区上野芝向ヶ丘町4丁24番30号", "url": "https://www.kaigokensaku.mhlw.go.jp/27/index.php?action_kouhyou_detail_004_kani=true&JigyosyoCd=2756380024-00&ServiceCd=520&Type=search", "url2": "http://daisenkai.jp/roken-uenoshiba/" }, "geometry": { "type": "Point", "coordinates": [ 135.478162600000019, 34.5424904 ] } },
{ "type": "Feature", "properties": { "内容": "社会医療法人ペガサス介護療養型老人保健施設ペルセウス【介護老人保健施設】大阪府堺市西区浜寺船尾町東３丁４４７番地", "url": "https://www.kaigokensaku.mhlw.go.jp/27/index.php?action_kouhyou_detail_004_kani=true&JigyosyoCd=2756380016-00&ServiceCd=520&Type=search", "url2": "http://www.pegasus.or.jp" }, "geometry": { "type": "Point", "coordinates": [ 135.4623666, 34.5474866 ] } },
{ "type": "Feature", "properties": { "内容": "介護老人保健施設みみはら【介護老人保健施設】大阪府堺市西区鳳南町五丁594番地1", "url": "https://www.kaigokensaku.mhlw.go.jp/27/index.php?action_kouhyou_detail_004_kani=true&JigyosyoCd=2750180081-00&ServiceCd=520&Type=search", "url2": "http://www.mimihara.or.jp" }, "geometry": { "type": "Point", "coordinates": [ 135.4633814, 34.5273533 ] } },
{ "type": "Feature", "properties": { "内容": "介護老人保健施設　愛和園【介護老人保健施設】大阪府堺市西区太平寺327-1", "url": "https://www.kaigokensaku.mhlw.go.jp/27/index.php?action_kouhyou_detail_004_kani=true&JigyosyoCd=2750180073-00&ServiceCd=520&Type=search", "url2": "http://www.sakaifukushikai.jp" }, "geometry": { "type": "Point", "coordinates": [ 135.479470283467094, 34.504493428951001 ] } },
{ "type": "Feature", "properties": { "内容": "一般社団法人堺市医師会　介護老人保健施設いずみの郷【介護老人保健施設】大阪府堺市南区竹城台1-8-2", "url": "https://www.kaigokensaku.mhlw.go.jp/27/index.php?action_kouhyou_detail_004_kani=true&JigyosyoCd=2750180115-00&ServiceCd=520&Type=search", "url2": "http://www.sakai-med.jp/izuminosato/index.html" }, "geometry": { "type": "Point", "coordinates": [ 135.508258100000035, 34.500962 ] } },
{ "type": "Feature", "properties": { "内容": "社会福祉法人貞省会　介護老人保健施設カロス【介護老人保健施設】大阪府堺市南区美木多上2308番地1", "url": "https://www.kaigokensaku.mhlw.go.jp/27/index.php?action_kouhyou_detail_004_kani=true&JigyosyoCd=2750180099-00&ServiceCd=520&Type=search", "url2": "http://www.karos.or.jp/" }, "geometry": { "type": "Point", "coordinates": [ 135.493179022220147, 34.469965884274181 ] } },
{ "type": "Feature", "properties": { "内容": "老人保健施設　美樹の園【介護老人保健施設】大阪府堺市南区美木多上1359番地2", "url": "https://www.kaigokensaku.mhlw.go.jp/27/index.php?action_kouhyou_detail_004_kani=true&JigyosyoCd=2750180107-00&ServiceCd=520&Type=search", "url2": "http://mikinosono.sakura.ne.jp" }, "geometry": { "type": "Point", "coordinates": [ 135.492346, 34.4588054 ] } },
{ "type": "Feature", "properties": { "内容": "介護老人保健施設アイリス堺正風【介護老人保健施設】大阪府堺市北区新金岡町五丁1番3号", "url": "https://www.kaigokensaku.mhlw.go.jp/27/index.php?action_kouhyou_detail_004_kani=true&JigyosyoCd=2750180016-00&ServiceCd=520&Type=search", "url2": "http://kiwakai-sakai.or.jp/" }, "geometry": { "type": "Point", "coordinates": [ 135.516513319049039, 34.565597986799844 ] } },
{ "type": "Feature", "properties": { "内容": "介護老人保健施設　真秀ら【介護老人保健施設】大阪府堺市北区東三国ヶ丘町4-1-1", "url": "https://www.kaigokensaku.mhlw.go.jp/27/index.php?action_kouhyou_detail_004_kani=true&JigyosyoCd=2756580011-00&ServiceCd=520&Type=search", "url2": "http://www.mahora-sakai.jp/" }, "geometry": { "type": "Point", "coordinates": [ 135.500296400000025, 34.568501800000021 ] } },
{ "type": "Feature", "properties": { "内容": "介護老人保健施設ホットスプリング美原【介護老人保健施設】大阪府堺市美原区菅生９０３番地３", "url": "https://www.kaigokensaku.mhlw.go.jp/27/index.php?action_kouhyou_detail_004_kani=true&JigyosyoCd=2750180156-00&ServiceCd=520&Type=search", "url2": "http://www.tenjukai.or.jp" }, "geometry": { "type": "Point", "coordinates": [ 135.56813398531952, 34.524997383308417 ] } },
{ "type": "Feature", "properties": { "内容": "医療法人　好寿会　介護老人保健施設　かたおか【介護老人保健施設】大阪府堺市美原区今井381番地", "url": "https://www.kaigokensaku.mhlw.go.jp/27/index.php?action_kouhyou_detail_004_kani=true&JigyosyoCd=2750180149-00&ServiceCd=520&Type=search", "url2": "http://rouken-kataoka.com" }, "geometry": { "type": "Point", "coordinates": [ 135.551094899999953, 34.5553568 ] } },
{ "type": "Feature", "properties": { "内容": "介護老人保健施設岸和田徳洲苑【介護老人保健施設】大阪府岸和田市三田町142番地", "url": "https://www.kaigokensaku.mhlw.go.jp/27/index.php?action_kouhyou_detail_004_kani=true&JigyosyoCd=2751180031-00&ServiceCd=520&Type=search", "url2": "http://kishiwada-tokusyuuen.tokushukai.or.jp" }, "geometry": { "type": "Point", "coordinates": [ 135.431142899999941, 34.4606607 ] } },
{ "type": "Feature", "properties": { "内容": "介護老人保健施設　華【介護老人保健施設】岸和田市藤井町2丁目22-20", "url": "https://www.kaigokensaku.mhlw.go.jp/27/index.php?action_kouhyou_detail_004_kani=true&JigyosyoCd=2751180023-00&ServiceCd=520&Type=search", "url2": "http://www.ryoshukai.or.jp/index.html" }, "geometry": { "type": "Point", "coordinates": [ 135.387499700000035, 34.464673 ] } },
{ "type": "Feature", "properties": { "内容": "社会医療法人慈薫会　介護老人保健施設大阪緑ヶ丘【介護老人保健施設】大阪府岸和田市流木町668番地の1", "url": "https://www.kaigokensaku.mhlw.go.jp/27/index.php?action_kouhyou_detail_004_kani=true&JigyosyoCd=2751180015-00&ServiceCd=520&Type=search", "url2": "http://osaka-midorigaoka.com/" }, "geometry": { "type": "Point", "coordinates": [ 135.39201950000006, 34.4263027 ] } },
{ "type": "Feature", "properties": { "内容": "医療法人桜希会介護老人保健施設　東雄苑【介護老人保健施設】大阪府豊中市曽根南町2丁目11番28号", "url": "https://www.kaigokensaku.mhlw.go.jp/27/index.php?action_kouhyou_detail_004_kani=true&JigyosyoCd=2754080055-00&ServiceCd=520&Type=search", "url2": "https://oukikai.or.jp/toyuen_sone/index.html" }, "geometry": { "type": "Point", "coordinates": [ 135.4633063, 34.7665592 ] } },
{ "type": "Feature", "properties": { "内容": "介護老人保健施設ロココリハ【介護老人保健施設】豊中市宝山町6-7", "url": "https://www.kaigokensaku.mhlw.go.jp/27/index.php?action_kouhyou_detail_004_kani=true&JigyosyoCd=2754080113-00&ServiceCd=520&Type=search", "url2": "http://i-souseikai.jp/" }, "geometry": { "type": "Point", "coordinates": [ 135.458803499999931, 34.7801354 ] } },
{ "type": "Feature", "properties": { "内容": "介護老人保健施設　すずらん【介護老人保健施設】大阪府　豊中市　本町　３－１－７", "url": "https://www.kaigokensaku.mhlw.go.jp/27/index.php?action_kouhyou_detail_004_kani=true&JigyosyoCd=2754080030-00&ServiceCd=520&Type=search", "url2": null }, "geometry": { "type": "Point", "coordinates": [ 135.461511400000063, 34.7888816 ] } },
{ "type": "Feature", "properties": { "内容": "介護老人保健施設　きんもくせい【介護老人保健施設】大阪府豊中市寺内1丁目1番10号", "url": "https://www.kaigokensaku.mhlw.go.jp/27/index.php?action_kouhyou_detail_004_kani=true&JigyosyoCd=2754080048-00&ServiceCd=520&Type=search", "url2": "http://www.aijinkai.or.jp/kinmokusei/" }, "geometry": { "type": "Point", "coordinates": [ 135.491753600000038, 34.7766165 ] } },
{ "type": "Feature", "properties": { "内容": "介護老人保健施設かがやき【介護老人保健施設】大阪府豊中市刀根山元町5番60号介護老人保健施設かがやき", "url": "https://www.kaigokensaku.mhlw.go.jp/27/index.php?action_kouhyou_detail_004_kani=true&JigyosyoCd=2754080121-00&ServiceCd=520&Type=search", "url2": "https://kagayaki-osj.jp/" }, "geometry": { "type": "Point", "coordinates": [ 135.459066500000034, 34.799572700000049 ] } },
{ "type": "Feature", "properties": { "内容": "介護老人保健施設「二葉園」【介護老人保健施設】大阪府豊中市二葉町二丁目５番３号", "url": "https://www.kaigokensaku.mhlw.go.jp/27/index.php?action_kouhyou_detail_004_kani=true&JigyosyoCd=2754080063-00&ServiceCd=520&Type=search", "url2": "http://www.futabaen.jp" }, "geometry": { "type": "Point", "coordinates": [ 135.462451699999974, 34.7361621 ] } },
{ "type": "Feature", "properties": { "内容": "介護老人保健施設　やすらぎ【介護老人保健施設】豊中市　豊南町東　２丁目６番４号", "url": "https://www.kaigokensaku.mhlw.go.jp/27/index.php?action_kouhyou_detail_004_kani=true&JigyosyoCd=2754080014-00&ServiceCd=520&Type=search", "url2": "http://www.yasuragi1.or.jp" }, "geometry": { "type": "Point", "coordinates": [ 135.484921399999962, 34.7526026 ] } },
{ "type": "Feature", "properties": { "内容": "医療法人　康生会　介護老人保健施設　ケアホーム豊中【介護老人保健施設】大阪府豊中市原田中一丁目１６番29号", "url": "https://www.kaigokensaku.mhlw.go.jp/27/index.php?action_kouhyou_detail_004_kani=true&JigyosyoCd=2754080105-00&ServiceCd=520&Type=search", "url2": "https://toyonaka.rouken.jp/" }, "geometry": { "type": "Point", "coordinates": [ 135.458665, 34.7688534 ] } },
{ "type": "Feature", "properties": { "内容": "介護老人保健施設　東雄苑豊南【介護老人保健施設】大阪府豊中市豊南町西３－１１－１５", "url": "https://www.kaigokensaku.mhlw.go.jp/27/index.php?action_kouhyou_detail_004_kani=true&JigyosyoCd=2754080089-00&ServiceCd=520&Type=search", "url2": "https://www.oukikai.or.jp" }, "geometry": { "type": "Point", "coordinates": [ 135.482757699999979, 34.7517776 ] } },
{ "type": "Feature", "properties": { "内容": "医療法人　若葉会　介護老人保健施設　わかば【介護老人保健施設】大阪府豊中市東泉丘3丁目1番1号", "url": "https://www.kaigokensaku.mhlw.go.jp/27/index.php?action_kouhyou_detail_004_kani=true&JigyosyoCd=2754080097-00&ServiceCd=520&Type=search", "url2": "http://kaigo.wakabakai-hp.com/" }, "geometry": { "type": "Point", "coordinates": [ 135.492717399999947, 34.7882623 ] } },
{ "type": "Feature", "properties": { "内容": "医療法人マックシール巽病院介護老人保健施設【介護老人保健施設】大阪府池田市天神1-5-22", "url": "https://www.kaigokensaku.mhlw.go.jp/27/index.php?action_kouhyou_detail_004_kani=true&JigyosyoCd=2752580015-00&ServiceCd=520&Type=search", "url2": "http://www.mcsyl.com/" }, "geometry": { "type": "Point", "coordinates": [ 135.442465199999987, 34.8091511 ] } },
{ "type": "Feature", "properties": { "内容": "介護老人保健施設　かいせい【介護老人保健施設】大阪府池田市建石町８番４７号", "url": "https://www.kaigokensaku.mhlw.go.jp/27/index.php?action_kouhyou_detail_004_kani=true&JigyosyoCd=2752580023-00&ServiceCd=520&Type=search", "url2": "http://www.ikedakaisei-hp.com/" }, "geometry": { "type": "Point", "coordinates": [ 135.4297742, 34.8258825 ] } },
{ "type": "Feature", "properties": { "内容": "介護老人保健施設吹田徳洲苑【介護老人保健施設】大阪府吹田市千里丘西21番1号", "url": "https://www.kaigokensaku.mhlw.go.jp/27/index.php?action_kouhyou_detail_004_kani=true&JigyosyoCd=2751680097-00&ServiceCd=520&Type=search", "url2": "https://www.suita.tokushukai.or.jp/rouken/" }, "geometry": { "type": "Point", "coordinates": [ 135.5420011, 34.797680899999989 ] } },
{ "type": "Feature", "properties": { "内容": "社会医療法人愛仁会　介護老人保健施設つくも【介護老人保健施設】大阪府吹田市津雲台4丁目7番2号", "url": "https://www.kaigokensaku.mhlw.go.jp/27/index.php?action_kouhyou_detail_004_kani=true&JigyosyoCd=2751680089-00&ServiceCd=520&Type=search", "url2": "http://tsukumo.aijinkai.or.jp/" }, "geometry": { "type": "Point", "coordinates": [ 135.511299, 34.803161 ] } },
{ "type": "Feature", "properties": { "内容": "介護老人保健施設　　フェリーチェ吹田【介護老人保健施設】大阪府吹田市岸部南１丁目２番９号", "url": "https://www.kaigokensaku.mhlw.go.jp/27/index.php?action_kouhyou_detail_004_kani=true&JigyosyoCd=2751680048-00&ServiceCd=520&Type=search", "url2": "http://www.aoyama-med.gr.jp/ontoku-welfare/felice-suita/" }, "geometry": { "type": "Point", "coordinates": [ 135.5441267, 34.7773118 ] } },
{ "type": "Feature", "properties": { "内容": "吹田市介護老人保健施設【介護老人保健施設】大阪府吹田市片山町２丁目１３番２５号", "url": "https://www.kaigokensaku.mhlw.go.jp/27/index.php?action_kouhyou_detail_004_kani=true&JigyosyoCd=2751680014-00&ServiceCd=520&Type=search", "url2": "http://www.suita-rouken.com/" }, "geometry": { "type": "Point", "coordinates": [ 135.5170875, 34.7690793 ] } },
{ "type": "Feature", "properties": { "内容": "医療法人恒進會　介護老人保健施設たるみの里【介護老人保健施設】大阪府吹田市新芦屋下27-8", "url": "https://www.kaigokensaku.mhlw.go.jp/27/index.php?action_kouhyou_detail_004_kani=true&JigyosyoCd=2751680063-00&ServiceCd=520&Type=search", "url2": "http://www.taruminosato.jp" }, "geometry": { "type": "Point", "coordinates": [ 135.552067599999987, 34.8034531 ] } },
{ "type": "Feature", "properties": { "内容": "介護老人保健施設千里【介護老人保健施設】吹田市山田北5-14", "url": "https://www.kaigokensaku.mhlw.go.jp/27/index.php?action_kouhyou_detail_004_kani=true&JigyosyoCd=2751680055-00&ServiceCd=520&Type=search", "url2": "http://taizankai.org" }, "geometry": { "type": "Point", "coordinates": [ 135.51903429999993, 34.8087218 ] } },
{ "type": "Feature", "properties": { "内容": "医療法人協和会介護老人保健施設ウエルハウス協和【介護老人保健施設】大阪府吹田市岸部北1丁目24番2号", "url": "https://www.kaigokensaku.mhlw.go.jp/27/index.php?action_kouhyou_detail_004_kani=true&JigyosyoCd=2751680022-00&ServiceCd=520&Type=search", "url2": "https://www.kyowakai.com/wh_kyowa/" }, "geometry": { "type": "Point", "coordinates": [ 135.525571500000012, 34.7808418 ] } },
{ "type": "Feature", "properties": { "内容": "医療法人穂仁会　介護老人保健施設　アザリア【介護老人保健施設】大阪府泉大津市下条町13-10", "url": "https://www.kaigokensaku.mhlw.go.jp/27/index.php?action_kouhyou_detail_004_kani=true&JigyosyoCd=2750680015-00&ServiceCd=520&Type=search", "url2": "http://www.suijinkai.jp" }, "geometry": { "type": "Point", "coordinates": [ 135.412600099999963, 34.501577 ] } },
{ "type": "Feature", "properties": { "内容": "ラ・ポルトフィーナ高槻【介護老人保健施設】大阪府高槻市玉川1-5-2", "url": "https://www.kaigokensaku.mhlw.go.jp/27/index.php?action_kouhyou_detail_004_kani=true&JigyosyoCd=2750980092-00&ServiceCd=520&Type=search", "url2": "http://www.shinmeikai.jp/12_takatsuki.html" }, "geometry": { "type": "Point", "coordinates": [ 135.6052499, 34.8148254 ] } },
{ "type": "Feature", "properties": { "内容": "医療法人健和会介護老人保健施設ふれあい【介護老人保健施設】大阪府高槻市登町33番2号", "url": "https://www.kaigokensaku.mhlw.go.jp/27/index.php?action_kouhyou_detail_004_kani=true&JigyosyoCd=2750980050-00&ServiceCd=520&Type=search", "url2": "http://www.ueda-simo.or.jp/fure/index.htm" }, "geometry": { "type": "Point", "coordinates": [ 135.618832900000029, 34.8240359 ] } },
{ "type": "Feature", "properties": { "内容": "医療法人社団　緑水会　介護老人保健施設　シルバーハウス高槻【介護老人保健施設】大阪府高槻市成合南の町３番１号", "url": "https://www.kaigokensaku.mhlw.go.jp/27/index.php?action_kouhyou_detail_004_kani=true&JigyosyoCd=2750980068-00&ServiceCd=520&Type=search", "url2": "http://www.ryokusuikai.or.jp" }, "geometry": { "type": "Point", "coordinates": [ 135.629142300000012, 34.8686232 ] } },
{ "type": "Feature", "properties": { "内容": "社会医療法人愛仁会　介護老人保健施設しんあい【介護老人保健施設】大阪府高槻市西之川原2丁目46番1号", "url": "https://www.kaigokensaku.mhlw.go.jp/27/index.php?action_kouhyou_detail_004_kani=true&JigyosyoCd=2750980084-00&ServiceCd=520&Type=search", "url2": "http://www.aijinkai.or.jp/shin-ai-carefacility/" }, "geometry": { "type": "Point", "coordinates": [ 135.595445899999959, 34.866256 ] } },
{ "type": "Feature", "properties": { "内容": "社会医療法人　愛仁会　介護老人保健施設ケーアイ【介護老人保健施設】大阪府高槻市大字原112番地", "url": "https://www.kaigokensaku.mhlw.go.jp/27/index.php?action_kouhyou_detail_004_kani=true&JigyosyoCd=2750980035-00&ServiceCd=520&Type=search", "url2": "http://www.aijinkai.or.jp/keai/" }, "geometry": { "type": "Point", "coordinates": [ 135.5981372, 34.884007099999984 ] } },
{ "type": "Feature", "properties": { "内容": "介護老人保健施設サンガピア館【介護老人保健施設】大阪府高槻市大塚町5-20-3", "url": "https://www.kaigokensaku.mhlw.go.jp/27/index.php?action_kouhyou_detail_004_kani=true&JigyosyoCd=2750980043-00&ServiceCd=520&Type=search", "url2": "http://www.towa-med.or.jp" }, "geometry": { "type": "Point", "coordinates": [ 135.630779100000041, 34.8218363 ] } },
{ "type": "Feature", "properties": { "内容": "みどりヶ丘介護老人保健施設【介護老人保健施設】大阪府高槻市奈佐原４丁目７番１号", "url": "https://www.kaigokensaku.mhlw.go.jp/27/index.php?action_kouhyou_detail_004_kani=true&JigyosyoCd=2750980027-00&ServiceCd=520&Type=search", "url2": null }, "geometry": { "type": "Point", "coordinates": [ 135.576300599999968, 34.8649557 ] } },
{ "type": "Feature", "properties": { "内容": "介護老人保健施設ローズマリー【介護老人保健施設】大阪府高槻市東和町５７－１", "url": "https://www.kaigokensaku.mhlw.go.jp/27/index.php?action_kouhyou_detail_004_kani=true&JigyosyoCd=2750980019-00&ServiceCd=520&Type=search", "url2": "http://rosemary.or.jp/" }, "geometry": { "type": "Point", "coordinates": [ 135.63681459999998, 34.830205 ] } },
{ "type": "Feature", "properties": { "内容": "介護老人保健施設　希望ヶ丘【介護老人保健施設】大阪府貝塚市水間５１０番地", "url": "https://www.kaigokensaku.mhlw.go.jp/27/index.php?action_kouhyou_detail_004_kani=true&JigyosyoCd=2751380011-00&ServiceCd=520&Type=search", "url2": "http://kawasaki-kai.or.jp" }, "geometry": { "type": "Point", "coordinates": [ 135.389333800000031, 34.4000224 ] } },
{ "type": "Feature", "properties": { "内容": "介護老人保健施設コスモス楽寿苑【介護老人保健施設】大阪府貝塚市森858番地", "url": "https://www.kaigokensaku.mhlw.go.jp/27/index.php?action_kouhyou_detail_004_kani=true&JigyosyoCd=2751380029-00&ServiceCd=520&Type=search", "url2": "http://kijima.or.jp/rakujuen/" }, "geometry": { "type": "Point", "coordinates": [ 135.377926600000023, 34.4137872 ] } },
{ "type": "Feature", "properties": { "内容": "パナソニック健康保険組合　松下介護老人保健施設はーとぴあ【介護老人保健施設】大阪府守口市外島町5-55", "url": "https://www.kaigokensaku.mhlw.go.jp/27/index.php?action_kouhyou_detail_004_kani=true&JigyosyoCd=2753280037-00&ServiceCd=520&Type=search", "url2": "http://phio.panasonic.co.jp/rouken/index.htm" }, "geometry": { "type": "Point", "coordinates": [ 135.562756300000046, 34.7436278 ] } },
{ "type": "Feature", "properties": { "内容": "医療法人西浦会　介護老人保健施設長生苑【介護老人保健施設】大阪府守口市八雲中町３丁目１２番３号", "url": "https://www.kaigokensaku.mhlw.go.jp/27/index.php?action_kouhyou_detail_004_kani=true&JigyosyoCd=2753280029-00&ServiceCd=520&Type=search", "url2": "http://www.cyoseien.jp/index.html" }, "geometry": { "type": "Point", "coordinates": [ 135.5702, 34.7472717 ] } },
{ "type": "Feature", "properties": { "内容": "守口老人保健施設ラガール【介護老人保健施設】大阪府守口市大久保町３－３０－１５", "url": "https://www.kaigokensaku.mhlw.go.jp/27/index.php?action_kouhyou_detail_004_kani=true&JigyosyoCd=2753280011-00&ServiceCd=520&Type=search", "url2": "http://www.koudoukai.or.jp/m-lagare/" }, "geometry": { "type": "Point", "coordinates": [ 135.5965946, 34.7546324 ] } },
{ "type": "Feature", "properties": { "内容": "寺方老人保健施設ラガール【介護老人保健施設】大阪府守口市寺方本通一丁目5番5号", "url": "https://www.kaigokensaku.mhlw.go.jp/27/index.php?action_kouhyou_detail_004_kani=true&JigyosyoCd=2753280045-00&ServiceCd=520&Type=search", "url2": "http://www.koudoukai.or.jp/terakata-lagare/index.html" }, "geometry": { "type": "Point", "coordinates": [ 135.574093409227316, 34.724716986162043 ] } },
{ "type": "Feature", "properties": { "内容": "介護老人保健施設　サテライトなごみの里【介護老人保健施設】大阪府枚方市長尾北町3丁目1番1号", "url": "https://www.kaigokensaku.mhlw.go.jp/27/index.php?action_kouhyou_detail_004_kani=true&JigyosyoCd=2752480109-00&ServiceCd=520&Type=search", "url2": "http://midori.jpn.org/satellite-nagomi/" }, "geometry": { "type": "Point", "coordinates": [ 135.706730500000049, 34.8352339 ] } },
{ "type": "Feature", "properties": { "内容": "医療法人松徳会　介護老人保健施設老健ふじさか【介護老人保健施設】大阪府枚方市藤阪天神町1番60号", "url": "https://www.kaigokensaku.mhlw.go.jp/27/index.php?action_kouhyou_detail_004_kani=true&JigyosyoCd=2752480075-00&ServiceCd=520&Type=search", "url2": "http://www.matsutani.or.jp" }, "geometry": { "type": "Point", "coordinates": [ 135.703806100000065, 34.8157608 ] } },
{ "type": "Feature", "properties": { "内容": "介護老人保健施設　カリタス東香里【介護老人保健施設】大阪府枚方市東香里１丁目２４番３6号", "url": "https://www.kaigokensaku.mhlw.go.jp/27/index.php?action_kouhyou_detail_004_kani=true&JigyosyoCd=2752480059-00&ServiceCd=520&Type=search", "url2": "http://www.higashikouri-hp.com/" }, "geometry": { "type": "Point", "coordinates": [ 135.657229189024292, 34.780078518550638 ] } },
{ "type": "Feature", "properties": { "内容": "介護老人保健施設美杉【介護老人保健施設】大阪府枚方市西招提町２１６６番地", "url": "https://www.kaigokensaku.mhlw.go.jp/27/index.php?action_kouhyou_detail_004_kani=true&JigyosyoCd=2752480034-00&ServiceCd=520&Type=search", "url2": "http://www.misugikai.jp" }, "geometry": { "type": "Point", "coordinates": [ 135.681977, 34.8444625 ] } },
{ "type": "Feature", "properties": { "内容": "介護老人保健施設　勘右ェ門【介護老人保健施設】大阪府枚方市春日北町４丁目２１番１号", "url": "https://www.kaigokensaku.mhlw.go.jp/27/index.php?action_kouhyou_detail_004_kani=true&JigyosyoCd=2752480091-00&ServiceCd=520&Type=search", "url2": "http://www.eihoukai.com" }, "geometry": { "type": "Point", "coordinates": [ 135.6890525, 34.8038227 ] } },
{ "type": "Feature", "properties": { "内容": "枚方老人保健施設のぞみ【介護老人保健施設】大阪府枚方市田口山１丁目７番１号", "url": "https://www.kaigokensaku.mhlw.go.jp/27/index.php?action_kouhyou_detail_004_kani=true&JigyosyoCd=2752480117-00&ServiceCd=520&Type=search", "url2": "https://kiboukai-nozomi.jp" }, "geometry": { "type": "Point", "coordinates": [ 135.687810200000058, 34.8285225 ] } },
{ "type": "Feature", "properties": { "内容": "介護老人保健施設　なごみの里【介護老人保健施設】大阪府枚方市長尾北町2-1845-1", "url": "https://www.kaigokensaku.mhlw.go.jp/27/index.php?action_kouhyou_detail_004_kani=true&JigyosyoCd=2752480067-00&ServiceCd=520&Type=search", "url2": "http://midori.jpn.org/nagomi/" }, "geometry": { "type": "Point", "coordinates": [ 135.705694499999936, 34.8356949 ] } },
{ "type": "Feature", "properties": { "内容": "介護老人保健施設美樟苑【介護老人保健施設】大阪府枚方市養父東町18番30号", "url": "https://www.kaigokensaku.mhlw.go.jp/27/index.php?action_kouhyou_detail_004_kani=true&JigyosyoCd=2752480042-00&ServiceCd=520&Type=search", "url2": "http://www.misugikai.jp" }, "geometry": { "type": "Point", "coordinates": [ 135.675677599999972, 34.8459845 ] } },
{ "type": "Feature", "properties": { "内容": "医療法人大寿会介護老人保健施設ユートピア【介護老人保健施設】大阪府枚方市伊加賀西町４７－１", "url": "https://www.kaigokensaku.mhlw.go.jp/27/index.php?action_kouhyou_detail_004_kani=true&JigyosyoCd=2752480083-00&ServiceCd=520&Type=search", "url2": "http://www.daijukai.com" }, "geometry": { "type": "Point", "coordinates": [ 135.623465799999963, 34.8041717 ] } },
{ "type": "Feature", "properties": { "内容": "医療法人恵仁会　介護老人保健施設めぐみ【介護老人保健施設】大阪府茨木市南安威2丁目10-17", "url": "https://www.kaigokensaku.mhlw.go.jp/27/index.php?action_kouhyou_detail_004_kani=true&JigyosyoCd=2754280051-00&ServiceCd=520&Type=search", "url2": "http://www.tanaka-hsp.or.jp" }, "geometry": { "type": "Point", "coordinates": [ 135.559424300000046, 34.842419 ] } },
{ "type": "Feature", "properties": { "内容": "医療法人恵仁会　介護老人保健施設たんぽぽ【介護老人保健施設】大阪府茨木市真砂三丁目21番27号", "url": "https://www.kaigokensaku.mhlw.go.jp/27/index.php?action_kouhyou_detail_004_kani=true&JigyosyoCd=2754280044-00&ServiceCd=520&Type=search", "url2": "http://www.tanaka-hsp.or.jp" }, "geometry": { "type": "Point", "coordinates": [ 135.582556599999975, 34.7976268 ] } },
{ "type": "Feature", "properties": { "内容": "介護老人保健施設ひまわり【介護老人保健施設】大阪府茨木市南春日丘七丁目9番18号", "url": "https://www.kaigokensaku.mhlw.go.jp/27/index.php?action_kouhyou_detail_004_kani=true&JigyosyoCd=2754280077-00&ServiceCd=520&Type=search", "url2": "http://himawari.aijinkai.or.jp" }, "geometry": { "type": "Point", "coordinates": [ 135.530417400000033, 34.820470300000046 ] } },
{ "type": "Feature", "properties": { "内容": "介護老人保健施設ライフポート茨木【介護老人保健施設】大阪府茨木市見付山2丁目1番39号", "url": "https://www.kaigokensaku.mhlw.go.jp/27/index.php?action_kouhyou_detail_004_kani=true&JigyosyoCd=2754280036-00&ServiceCd=520&Type=search", "url2": "https://www.ibaraki.saiseikai.or.jp/lifeport-rouken/index.html" }, "geometry": { "type": "Point", "coordinates": [ 135.556041700000037, 34.8213182 ] } },
{ "type": "Feature", "properties": { "内容": "老人保健施設　清渓苑【介護老人保健施設】大阪府茨木市泉原38番地の1", "url": "https://www.kaigokensaku.mhlw.go.jp/27/index.php?action_kouhyou_detail_004_kani=true&JigyosyoCd=2754280010-00&ServiceCd=520&Type=search", "url2": "http://www.tenno.or.jp" }, "geometry": { "type": "Point", "coordinates": [ 135.529853799999955, 34.8886942 ] } },
{ "type": "Feature", "properties": { "内容": "介護老人保健施設　あいの苑【介護老人保健施設】大阪府茨木市東太田4丁目5番20号", "url": "https://www.kaigokensaku.mhlw.go.jp/27/index.php?action_kouhyou_detail_004_kani=true&JigyosyoCd=2754280069-00&ServiceCd=520&Type=search", "url2": "http://www.aino-fukushikai.or.jp" }, "geometry": { "type": "Point", "coordinates": [ 135.583574900000031, 34.8433696 ] } },
{ "type": "Feature", "properties": { "内容": "介護老人保健施設ノーブル楽音寺【介護老人保健施設】大阪府八尾市楽音寺３－５", "url": "https://www.kaigokensaku.mhlw.go.jp/27/index.php?action_kouhyou_detail_004_kani=true&JigyosyoCd=2755580038-00&ServiceCd=520&Type=search", "url2": null }, "geometry": { "type": "Point", "coordinates": [ 135.639823699999965, 34.6428901 ] } },
{ "type": "Feature", "properties": { "内容": "介護老人保健施設　悠久苑【介護老人保健施設】大阪府八尾市大字山畑5番地1老人保健施設　悠久苑", "url": "https://www.kaigokensaku.mhlw.go.jp/27/index.php?action_kouhyou_detail_004_kani=true&JigyosyoCd=2755580020-00&ServiceCd=520&Type=search", "url2": "http://www.sakamotoiin-yao.or.jp" }, "geometry": { "type": "Point", "coordinates": [ 135.63834339999994, 34.6287666 ] } },
{ "type": "Feature", "properties": { "内容": "介護老人保健施設　　八尾徳洲苑【介護老人保健施設】大阪府八尾市荘内町1丁目2-35", "url": "https://www.kaigokensaku.mhlw.go.jp/27/index.php?action_kouhyou_detail_004_kani=true&JigyosyoCd=2755580046-00&ServiceCd=520&Type=search", "url2": "https://yao-care.tokushukai.or.jp/" }, "geometry": { "type": "Point", "coordinates": [ 135.607885608581569, 34.627635173953259 ] } },
{ "type": "Feature", "properties": { "内容": "介護老人保健施設　スローライフ八尾【介護老人保健施設】大阪府八尾市福栄町１丁目１２番地", "url": "https://www.kaigokensaku.mhlw.go.jp/27/index.php?action_kouhyou_detail_004_kani=true&JigyosyoCd=2755580061-00&ServiceCd=520&Type=search", "url2": "http://www.slowlife.or.jp/" }, "geometry": { "type": "Point", "coordinates": [ 135.625958200000014, 34.6427151 ] } },
{ "type": "Feature", "properties": { "内容": "介護老人保健施設あおぞら【介護老人保健施設】大阪府八尾市沼１丁目４１番地", "url": "https://www.kaigokensaku.mhlw.go.jp/27/index.php?action_kouhyou_detail_004_kani=true&JigyosyoCd=2755580053-00&ServiceCd=520&Type=search", "url2": "http://www.ishinkai.or.jp/" }, "geometry": { "type": "Point", "coordinates": [ 135.601533900000049, 34.588701 ] } },
{ "type": "Feature", "properties": { "内容": "介護老人保健施設　栄公苑【介護老人保健施設】大阪府泉佐野市中町２丁目４番２８号", "url": "https://www.kaigokensaku.mhlw.go.jp/27/index.php?action_kouhyou_detail_004_kani=true&JigyosyoCd=2754580013-00&ServiceCd=520&Type=search", "url2": "http://www.sanokinen.jp" }, "geometry": { "type": "Point", "coordinates": [ 135.317024400000037, 34.400115 ] } },
{ "type": "Feature", "properties": { "内容": "介護老人保健施設　ホライズン【介護老人保健施設】大阪府泉佐野市下瓦屋２２１－１", "url": "https://www.kaigokensaku.mhlw.go.jp/27/index.php?action_kouhyou_detail_004_kani=true&JigyosyoCd=2754580021-00&ServiceCd=520&Type=search", "url2": "https://www.horizon.or.jp" }, "geometry": { "type": "Point", "coordinates": [ 135.342703800000038, 34.417129199999984 ] } },
{ "type": "Feature", "properties": { "内容": "介護老人保健施設　エルダーケア【介護老人保健施設】大阪府泉佐野市中庄１３１０番地", "url": "https://www.kaigokensaku.mhlw.go.jp/27/index.php?action_kouhyou_detail_004_kani=true&JigyosyoCd=2754580039-00&ServiceCd=520&Type=search", "url2": "http://www.eldercare.or.jp" }, "geometry": { "type": "Point", "coordinates": [ 135.3307565, 34.4071561 ] } },
{ "type": "Feature", "properties": { "内容": "介護老人保健施設きし【介護老人保健施設】大阪府富田林市中野町西２丁目273", "url": "https://www.kaigokensaku.mhlw.go.jp/27/index.php?action_kouhyou_detail_004_kani=true&JigyosyoCd=2754980023-00&ServiceCd=520&Type=search", "url2": "http://www.rouken-kishi.jp" }, "geometry": { "type": "Point", "coordinates": [ 135.601419646032696, 34.513512432580207 ] } },
{ "type": "Feature", "properties": { "内容": "富田林市介護老人保健施設【介護老人保健施設】大阪府富田林市向陽台一丁目４番３０号", "url": "https://www.kaigokensaku.mhlw.go.jp/27/index.php?action_kouhyou_detail_004_kani=true&JigyosyoCd=2754980015-00&ServiceCd=520&Type=search", "url2": "http://www.city.tondabayashi.osaka.jp/" }, "geometry": { "type": "Point", "coordinates": [ 135.583056899999974, 34.5065848 ] } },
{ "type": "Feature", "properties": { "内容": "介護老人保健施設　ハーモニィー【介護老人保健施設】大阪府寝屋川市寝屋２丁目１４番９号", "url": "https://www.kaigokensaku.mhlw.go.jp/27/index.php?action_kouhyou_detail_004_kani=true&JigyosyoCd=2750380020-00&ServiceCd=520&Type=search", "url2": "http://www.ichiyukai.jp/harmony/" }, "geometry": { "type": "Point", "coordinates": [ 135.661085700000058, 34.766668 ] } },
{ "type": "Feature", "properties": { "内容": "医療法人協仁会　介護老人保健施設　松柏苑【介護老人保健施設】大阪府寝屋川市川勝町１１－２７", "url": "https://www.kaigokensaku.mhlw.go.jp/27/index.php?action_kouhyou_detail_004_kani=true&JigyosyoCd=2750380012-00&ServiceCd=520&Type=search", "url2": "http://www.komatsu.or.jp" }, "geometry": { "type": "Point", "coordinates": [ 135.6321994, 34.7673122 ] } },
{ "type": "Feature", "properties": { "内容": "介護老人保健施設くすのき【介護老人保健施設】大阪府寝屋川市葛原1丁目29番13号", "url": "https://www.kaigokensaku.mhlw.go.jp/27/index.php?action_kouhyou_detail_004_kani=true&JigyosyoCd=2750380053-00&ServiceCd=520&Type=search", "url2": "http://www.kusunokiiin.com" }, "geometry": { "type": "Point", "coordinates": [ 135.608380077909857, 34.773240569722113 ] } },
{ "type": "Feature", "properties": { "内容": "医療法人　大雲会　介護老人保健施設　点野やすらぎの里【介護老人保健施設】大阪府寝屋川市点野1丁目1番26号", "url": "https://www.kaigokensaku.mhlw.go.jp/27/index.php?action_kouhyou_detail_004_kani=true&JigyosyoCd=2750380038-00&ServiceCd=520&Type=search", "url2": "http://simenoyasuragi.com/" }, "geometry": { "type": "Point", "coordinates": [ 135.603018499999962, 34.7778576 ] } },
{ "type": "Feature", "properties": { "内容": "医療法人生登会　かわちながの介護老人保健施設　てらもと総合福祉センター【介護老人保健施設】大阪府　河内長野市　小山田町　1701番地の1", "url": "https://www.kaigokensaku.mhlw.go.jp/27/index.php?action_kouhyou_detail_004_kani=true&JigyosyoCd=2750780013-00&ServiceCd=520&Type=search", "url2": "https://www.teramoto.or.jp" }, "geometry": { "type": "Point", "coordinates": [ 135.548714715344147, 34.447122455498977 ] } },
{ "type": "Feature", "properties": { "内容": "介護老人保健施設あかしあ【介護老人保健施設】大阪府河内長野市あかしあ台２丁目６番１１号", "url": "https://www.kaigokensaku.mhlw.go.jp/27/index.php?action_kouhyou_detail_004_kani=true&JigyosyoCd=2750780021-00&ServiceCd=520&Type=search", "url2": "http://www.aoyama-med.gr.jp/ontoku-welfare/akashia/" }, "geometry": { "type": "Point", "coordinates": [ 135.553815200000031, 34.4671387 ] } },
{ "type": "Feature", "properties": { "内容": "介護老人保健施設　寿里苑フェリス【介護老人保健施設】大阪府河内長野市加賀田885-2", "url": "https://www.kaigokensaku.mhlw.go.jp/27/index.php?action_kouhyou_detail_004_kani=true&JigyosyoCd=2750780039-00&ServiceCd=520&Type=search", "url2": "http://www.julien.or.jp" }, "geometry": { "type": "Point", "coordinates": [ 135.568188419712925, 34.415458113330686 ] } },
{ "type": "Feature", "properties": { "内容": "介護老人保健施設　松原徳洲苑【介護老人保健施設】大阪府松原市天美東7丁目103番地", "url": "https://www.kaigokensaku.mhlw.go.jp/27/index.php?action_kouhyou_detail_004_kani=true&JigyosyoCd=2754880017-00&ServiceCd=520&Type=search", "url2": "http://www.tokushukai.jp" }, "geometry": { "type": "Point", "coordinates": [ 135.538101594195496, 34.588344718667244 ] } },
{ "type": "Feature", "properties": { "内容": "介護老人保健施設　竜間之郷【介護老人保健施設】大阪府大東市大字龍間1595-7", "url": "https://www.kaigokensaku.mhlw.go.jp/27/index.php?action_kouhyou_detail_004_kani=true&JigyosyoCd=2751980018-00&ServiceCd=520&Type=search", "url2": "https://www.wakakoukai.or.jp/tatsumanosato/" }, "geometry": { "type": "Point", "coordinates": [ 135.657168299999967, 34.7093191 ] } },
{ "type": "Feature", "properties": { "内容": "介護老人保健施設阪奈苑【介護老人保健施設】大阪府大東市寺川１丁目１番１号", "url": "https://www.kaigokensaku.mhlw.go.jp/27/index.php?action_kouhyou_detail_004_kani=true&JigyosyoCd=2751980026-00&ServiceCd=520&Type=search", "url2": "http://www.jinsen.jp/~hannaen/" }, "geometry": { "type": "Point", "coordinates": [ 135.639361899999983, 34.7085202 ] } },
{ "type": "Feature", "properties": { "内容": "介護老人保健施設　くろいし【介護老人保健施設】大阪府和泉市黒石町５６６番1", "url": "https://www.kaigokensaku.mhlw.go.jp/27/index.php?action_kouhyou_detail_004_kani=true&JigyosyoCd=2750580041-00&ServiceCd=520&Type=search", "url2": "http://daisenkai.jp/roken-kuroishi/" }, "geometry": { "type": "Point", "coordinates": [ 135.483202799999958, 34.4450292 ] } },
{ "type": "Feature", "properties": { "内容": "介護老人保健施設　プリムラ和泉【介護老人保健施設】大阪府和泉市松尾寺町３３０番地", "url": "https://www.kaigokensaku.mhlw.go.jp/27/index.php?action_kouhyou_detail_004_kani=true&JigyosyoCd=2750580025-00&ServiceCd=520&Type=search", "url2": "http://purimura-izumi.jp" }, "geometry": { "type": "Point", "coordinates": [ 135.4563776, 34.4399937 ] } },
{ "type": "Feature", "properties": { "内容": "医療法人和泉会介護老人保健施設ザ・シーズン【介護老人保健施設】大阪府和泉市若樫町３０番１", "url": "https://www.kaigokensaku.mhlw.go.jp/27/index.php?action_kouhyou_detail_004_kani=true&JigyosyoCd=2750580033-00&ServiceCd=520&Type=search", "url2": "http://www.theseason.jp" }, "geometry": { "type": "Point", "coordinates": [ 135.470632, 34.4139242 ] } },
{ "type": "Feature", "properties": { "内容": "社会医療法人ペガサス　介護療養型老人保健施設　エクウス【介護老人保健施設】大阪府和泉市上町81番地", "url": "https://www.kaigokensaku.mhlw.go.jp/27/index.php?action_kouhyou_detail_004_kani=true&JigyosyoCd=2750580058-00&ServiceCd=520&Type=search", "url2": "http://www.pegasus.or.jp/" }, "geometry": { "type": "Point", "coordinates": [ 135.447594, 34.5091241 ] } },
{ "type": "Feature", "properties": { "内容": "介護老人保健施設　サンガーデン府中【介護老人保健施設】大阪府和泉市山荘町2-1-15", "url": "https://www.kaigokensaku.mhlw.go.jp/27/index.php?action_kouhyou_detail_004_kani=true&JigyosyoCd=2750580017-00&ServiceCd=520&Type=search", "url2": "https://www.yujinkai.com/sungarden/" }, "geometry": { "type": "Point", "coordinates": [ 135.449135699999943, 34.4881573 ] } },
{ "type": "Feature", "properties": { "内容": "介護老人保健施設　ニューライフガラシア【介護老人保健施設】大阪府　箕面市　粟生間谷西　６－１４－１", "url": "https://www.kaigokensaku.mhlw.go.jp/27/index.php?action_kouhyou_detail_004_kani=true&JigyosyoCd=2751480035-00&ServiceCd=520&Type=search", "url2": "http://www.gratia.or.jp" }, "geometry": { "type": "Point", "coordinates": [ 135.5068397, 34.8507224 ] } },
{ "type": "Feature", "properties": { "内容": "介護老人保健施設　ラ・アケソニア【介護老人保健施設】大阪府箕面市白島1丁目19-3", "url": "https://www.kaigokensaku.mhlw.go.jp/27/index.php?action_kouhyou_detail_004_kani=true&JigyosyoCd=2751480043-00&ServiceCd=520&Type=search", "url2": "http://www.shinmeikai.jp/" }, "geometry": { "type": "Point", "coordinates": [ 135.4931914, 34.8345826 ] } },
{ "type": "Feature", "properties": { "内容": "社会医療法人寿楽会　介護老人保健施設箕面グリーンビィラ【介護老人保健施設】大阪府箕面市粟生間谷東１－３３－２５", "url": "https://www.kaigokensaku.mhlw.go.jp/27/index.php?action_kouhyou_detail_004_kani=true&JigyosyoCd=2751480027-00&ServiceCd=520&Type=search", "url2": "https://minoh-greenvilla.jp/" }, "geometry": { "type": "Point", "coordinates": [ 135.514269799999965, 34.8459285 ] } },
{ "type": "Feature", "properties": { "内容": "箕面市立介護老人保健施設【介護老人保健施設】大阪府箕面市萱野５丁目８番２号", "url": "https://www.kaigokensaku.mhlw.go.jp/27/index.php?action_kouhyou_detail_004_kani=true&JigyosyoCd=2751480019-00&ServiceCd=520&Type=search", "url2": "https://minoh-rouken.jp/" }, "geometry": { "type": "Point", "coordinates": [ 135.4846341, 34.8226975 ] } },
{ "type": "Feature", "properties": { "内容": "介護老人保健施設　知恵の和苑【介護老人保健施設】大阪府柏原市古町3-2-17", "url": "https://www.kaigokensaku.mhlw.go.jp/27/index.php?action_kouhyou_detail_004_kani=true&JigyosyoCd=2754680029-00&ServiceCd=520&Type=search", "url2": "http://jinyuukai.or.jp/chienowaen/" }, "geometry": { "type": "Point", "coordinates": [ 135.620083622090078, 34.584829897464438 ] } },
{ "type": "Feature", "properties": { "内容": "介護老人保健施設ローズウッド国分【介護老人保健施設】大阪府柏原市旭ヶ丘4丁目672番地", "url": "https://www.kaigokensaku.mhlw.go.jp/27/index.php?action_kouhyou_detail_004_kani=true&JigyosyoCd=2754680011-00&ServiceCd=520&Type=search", "url2": "https://kokubu-byouin.jp/" }, "geometry": { "type": "Point", "coordinates": [ 135.644006140475426, 34.555225566302049 ] } },
{ "type": "Feature", "properties": { "内容": "介護老人保健施設　悠々亭【介護老人保健施設】大阪府羽曳野市樫山100番地の1", "url": "https://www.kaigokensaku.mhlw.go.jp/27/index.php?action_kouhyou_detail_004_kani=true&JigyosyoCd=2753880018-00&ServiceCd=520&Type=search", "url2": "http://www.hearthul-health.or.jp/" }, "geometry": { "type": "Point", "coordinates": [ 135.579767400000037, 34.5582954 ] } },
{ "type": "Feature", "properties": { "内容": "介護老人保健施設まほろば【介護老人保健施設】大阪府羽曳野市誉田三丁目１５番６号", "url": "https://www.kaigokensaku.mhlw.go.jp/27/index.php?action_kouhyou_detail_004_kani=true&JigyosyoCd=2753880026-00&ServiceCd=520&Type=search", "url2": "https://soujinkai-m.jp/" }, "geometry": { "type": "Point", "coordinates": [ 135.607775599999968, 34.5580265 ] } },
{ "type": "Feature", "properties": { "内容": "医療法人昌円会　老人保健施設あったか村【介護老人保健施設】大阪府羽曳野市恵我之荘3-2-4", "url": "https://www.kaigokensaku.mhlw.go.jp/27/index.php?action_kouhyou_detail_004_kani=true&JigyosyoCd=2753880034-00&ServiceCd=520&Type=search", "url2": "http://www.shouenkai.or.jp/" }, "geometry": { "type": "Point", "coordinates": [ 135.573559400000022, 34.57753210000002 ] } },
{ "type": "Feature", "properties": { "内容": "医療法人昌円会　介護老人保健施設宙【介護老人保健施設】大阪府羽曳野市恵我之荘3-1-3", "url": "https://www.kaigokensaku.mhlw.go.jp/27/index.php?action_kouhyou_detail_004_kani=true&JigyosyoCd=2753880042-00&ServiceCd=520&Type=search", "url2": "http://sora.shouenkai.or.jp/" }, "geometry": { "type": "Point", "coordinates": [ 135.573307600000021, 34.5770402 ] } },
{ "type": "Feature", "properties": { "内容": "門真老健ひかり【介護老人保健施設】大阪府門真市北岸和田1丁目14-23", "url": "https://www.kaigokensaku.mhlw.go.jp/27/index.php?action_kouhyou_detail_004_kani=true&JigyosyoCd=2752680021-00&ServiceCd=520&Type=search", "url2": "https://hakuyukai-hmc.com" }, "geometry": { "type": "Point", "coordinates": [ 135.618512399999986, 34.738079 ] } },
{ "type": "Feature", "properties": { "内容": "介護老人保健施設　摂南の郷【介護老人保健施設】大阪府門真市柳町3－33", "url": "https://www.kaigokensaku.mhlw.go.jp/27/index.php?action_kouhyou_detail_004_kani=true&JigyosyoCd=2752680013-00&ServiceCd=520&Type=search", "url2": "http://www.setsunan.or.jp" }, "geometry": { "type": "Point", "coordinates": [ 135.588203099999987, 34.7379291 ] } },
{ "type": "Feature", "properties": { "内容": "介護老人保健施設　蒼の里【介護老人保健施設】大阪府門真市島頭3-1-15", "url": "https://www.kaigokensaku.mhlw.go.jp/27/index.php?action_kouhyou_detail_004_kani=true&JigyosyoCd=2752680039-00&ServiceCd=520&Type=search", "url2": "http://www.sousei-hp.jp/aoinosato/index.html" }, "geometry": { "type": "Point", "coordinates": [ 135.606648242852771, 34.73045723053157 ] } },
{ "type": "Feature", "properties": { "内容": "医療法人医誠会介護老人保健施設エスペラル摂津【介護老人保健施設】大阪府摂津市南千里丘1番24号介護老人保健施設エスペラル摂津", "url": "https://www.kaigokensaku.mhlw.go.jp/27/index.php?action_kouhyou_detail_004_kani=true&JigyosyoCd=2753780010-00&ServiceCd=520&Type=search", "url2": "http://www.esp-settsu.com/" }, "geometry": { "type": "Point", "coordinates": [ 135.556953300000032, 34.7828445 ] } },
{ "type": "Feature", "properties": { "内容": "老人保健施設　老健ひかり【介護老人保健施設】摂津市東別府五丁目2番45号", "url": "https://www.kaigokensaku.mhlw.go.jp/27/index.php?action_kouhyou_detail_004_kani=true&JigyosyoCd=2753780028-00&ServiceCd=520&Type=search", "url2": "http://settsu-roken-hikari.jp" }, "geometry": { "type": "Point", "coordinates": [ 135.556317300000046, 34.7695794 ] } },
{ "type": "Feature", "properties": { "内容": "高石市立老人保健施設【介護老人保健施設】大阪府高石市羽衣４丁目４番２６号", "url": "https://www.kaigokensaku.mhlw.go.jp/27/index.php?action_kouhyou_detail_004_kani=true&JigyosyoCd=2755380025-00&ServiceCd=520&Type=search", "url2": "https://takaishi-lifecare.org/k/" }, "geometry": { "type": "Point", "coordinates": [ 135.435696563893089, 34.532318774246953 ] } },
{ "type": "Feature", "properties": { "内容": "介護老人保健施設　サンシャイン高石【介護老人保健施設】大阪府高石市取石５丁目８番３８号", "url": "https://www.kaigokensaku.mhlw.go.jp/27/index.php?action_kouhyou_detail_004_kani=true&JigyosyoCd=2755380017-00&ServiceCd=520&Type=search", "url2": "http://www.itokukai.com" }, "geometry": { "type": "Point", "coordinates": [ 135.44403310000007, 34.5131208 ] } },
{ "type": "Feature", "properties": { "内容": "介護老人保健施設ふじいでら【介護老人保健施設】大阪府藤井寺市野中1丁目103番１", "url": "https://www.kaigokensaku.mhlw.go.jp/27/index.php?action_kouhyou_detail_004_kani=true&JigyosyoCd=2753480025-00&ServiceCd=520&Type=search", "url2": "https://www.ontoku.or.jp/facilities/fujiidera-stay/" }, "geometry": { "type": "Point", "coordinates": [ 135.6039648, 34.561817912135645 ] } },
{ "type": "Feature", "properties": { "内容": "介護老人保健施設　玉串すみれ苑【介護老人保健施設】大阪府東大阪市玉串町西３丁目２番３号", "url": "https://www.kaigokensaku.mhlw.go.jp/27/index.php?action_kouhyou_detail_004_kani=true&JigyosyoCd=2755080104-00&ServiceCd=520&Type=search", "url2": "http://koshimune.jp/" }, "geometry": { "type": "Point", "coordinates": [ 135.615611700000045, 34.6520333 ] } },
{ "type": "Feature", "properties": { "内容": "医療法人　興世会　介護老人保健施設　石きり【介護老人保健施設】東大阪市東石切町1丁目7番27号", "url": "https://www.kaigokensaku.mhlw.go.jp/27/index.php?action_kouhyou_detail_004_kani=true&JigyosyoCd=2755080070-00&ServiceCd=520&Type=search", "url2": "http://www.ishikiri.net/" }, "geometry": { "type": "Point", "coordinates": [ 135.646783199999959, 34.6809279 ] } },
{ "type": "Feature", "properties": { "内容": "介護老人保健施設　　ヴァンベール【介護老人保健施設】大阪府東大阪市岩田町４丁目２番１号", "url": "https://www.kaigokensaku.mhlw.go.jp/27/index.php?action_kouhyou_detail_004_kani=true&JigyosyoCd=2755080047-00&ServiceCd=520&Type=search", "url2": "http://juzankai.com/shisetsu/index.html" }, "geometry": { "type": "Point", "coordinates": [ 135.608923, 34.6646068 ] } },
{ "type": "Feature", "properties": { "内容": "介護老人保健施設　南荘の郷【介護老人保健施設】大阪府東大阪市南荘町１３－４０", "url": "https://www.kaigokensaku.mhlw.go.jp/27/index.php?action_kouhyou_detail_004_kani=true&JigyosyoCd=2755080062-00&ServiceCd=520&Type=search", "url2": null }, "geometry": { "type": "Point", "coordinates": [ 135.645205600000054, 34.6747397 ] } },
{ "type": "Feature", "properties": { "内容": "介護老人保健施設　五十忠【介護老人保健施設】大阪府東大阪市御幸町3-34", "url": "https://www.kaigokensaku.mhlw.go.jp/27/index.php?action_kouhyou_detail_004_kani=true&JigyosyoCd=2755080120-00&ServiceCd=520&Type=search", "url2": "http://hohoemi-fukushi.jp/itochuu/" }, "geometry": { "type": "Point", "coordinates": [ 135.638937199999987, 34.658394 ] } },
{ "type": "Feature", "properties": { "内容": "介護老人保健施設長田の里【介護老人保健施設】東大阪市長田東1丁目3番5号", "url": "https://www.kaigokensaku.mhlw.go.jp/27/index.php?action_kouhyou_detail_004_kani=true&JigyosyoCd=2755080088-00&ServiceCd=520&Type=search", "url2": "https://www.kawafukukai.or.jp" }, "geometry": { "type": "Point", "coordinates": [ 135.594157499999937, 34.6777997 ] } },
{ "type": "Feature", "properties": { "内容": "介護老人保健施設　枚岡の里【介護老人保健施設】東大阪市出雲井本町３－２５", "url": "https://www.kaigokensaku.mhlw.go.jp/27/index.php?action_kouhyou_detail_004_kani=true&JigyosyoCd=2755080013-00&ServiceCd=520&Type=search", "url2": "http://www.kawafukukai.or.jp" }, "geometry": { "type": "Point", "coordinates": [ 135.645968925131228, 34.669709435187841 ] } },
{ "type": "Feature", "properties": { "内容": "介護老人保健施設　アーバンケア【介護老人保健施設】東大阪市御厨東１丁目９番５５号", "url": "https://www.kaigokensaku.mhlw.go.jp/27/index.php?action_kouhyou_detail_004_kani=true&JigyosyoCd=2755080096-00&ServiceCd=520&Type=search", "url2": "http://yoshijukai.or.jp/" }, "geometry": { "type": "Point", "coordinates": [ 135.591941, 34.6697062 ] } },
{ "type": "Feature", "properties": { "内容": "介護老人保健施設ベルフラワー【介護老人保健施設】大阪府東大阪市東鴻池町２－３－２２", "url": "https://www.kaigokensaku.mhlw.go.jp/27/index.php?action_kouhyou_detail_004_kani=true&JigyosyoCd=2755080054-00&ServiceCd=520&Type=search", "url2": "http://www.houai.or.jp/" }, "geometry": { "type": "Point", "coordinates": [ 135.61686039999995, 34.6924396 ] } },
{ "type": "Feature", "properties": { "内容": "介護老人保健施設プレジャーライフ【介護老人保健施設】東大阪市宝持３丁目1-11", "url": "https://www.kaigokensaku.mhlw.go.jp/27/index.php?action_kouhyou_detail_004_kani=true&JigyosyoCd=2755080112-00&ServiceCd=520&Type=search", "url2": "http://bishofukushikai.jp/company" }, "geometry": { "type": "Point", "coordinates": [ 135.5907178, 34.6551188 ] } },
{ "type": "Feature", "properties": { "内容": "介護老人保健施設　プレシオ【介護老人保健施設】大阪府東大阪市長堂3丁目2-11", "url": "https://www.kaigokensaku.mhlw.go.jp/27/index.php?action_kouhyou_detail_004_kani=true&JigyosyoCd=2755080138-00&ServiceCd=520&Type=search", "url2": "http://shinwakai-or.or.jp/" }, "geometry": { "type": "Point", "coordinates": [ 135.5666462, 34.6648683 ] } },
{ "type": "Feature", "properties": { "内容": "介護老人保健施設ライフポート泉南【介護老人保健施設】大阪府泉南市りんくう南浜３番7", "url": "https://www.kaigokensaku.mhlw.go.jp/27/index.php?action_kouhyou_detail_004_kani=true&JigyosyoCd=2755680028-00&ServiceCd=520&Type=search", "url2": "http://www.saiseikaisennan.jp/" }, "geometry": { "type": "Point", "coordinates": [ 135.26463960000001, 34.3794086 ] } },
{ "type": "Feature", "properties": { "内容": "介護老人保健施設ケアセンター虹【介護老人保健施設】大阪府泉南市中小路2丁目1860番地の1", "url": "https://www.kaigokensaku.mhlw.go.jp/27/index.php?action_kouhyou_detail_004_kani=true&JigyosyoCd=2755680010-00&ServiceCd=520&Type=search", "url2": "http://sennan-osaka-seiai.or.jp" }, "geometry": { "type": "Point", "coordinates": [ 135.279930299999933, 34.3732235 ] } },
{ "type": "Feature", "properties": { "内容": "医療法人和幸会介護老人保健施設パークヒルズ田原苑【介護老人保健施設】大阪府四條畷市上田原６１３番地", "url": "https://www.kaigokensaku.mhlw.go.jp/27/index.php?action_kouhyou_detail_004_kani=true&JigyosyoCd=2755780018-00&ServiceCd=520&Type=search", "url2": "http://www.wakoucai.or.jp/" }, "geometry": { "type": "Point", "coordinates": [ 135.695605800000067, 34.7224955 ] } },
{ "type": "Feature", "properties": { "内容": "社会医療法人信愛会　介護老人保健施設　畷生会　遊々館【介護老人保健施設】四條畷市江瀬美町26番7号", "url": "https://www.kaigokensaku.mhlw.go.jp/27/index.php?action_kouhyou_detail_004_kani=true&JigyosyoCd=2755780026-00&ServiceCd=520&Type=search", "url2": "http://www.tesseikai.jp/yuyukan" }, "geometry": { "type": "Point", "coordinates": [ 135.6369499, 34.7364159 ] } },
{ "type": "Feature", "properties": { "内容": "介護老人保健施設　逢々館かたの【介護老人保健施設】大阪府交野市私部二丁目１１番３８号", "url": "https://www.kaigokensaku.mhlw.go.jp/27/index.php?action_kouhyou_detail_004_kani=true&JigyosyoCd=2753680012-00&ServiceCd=520&Type=search", "url2": "http://www.katano-hp.or.jp/aiaikan/" }, "geometry": { "type": "Point", "coordinates": [ 135.6767314, 34.7870132 ] } },
{ "type": "Feature", "properties": { "内容": "介護老人保健施設　さやまの里【介護老人保健施設】大阪府大阪狭山市岩室２丁目１８５－１１", "url": "https://www.kaigokensaku.mhlw.go.jp/27/index.php?action_kouhyou_detail_004_kani=true&JigyosyoCd=2759380013-00&ServiceCd=520&Type=search", "url2": "http://www.sayama.or.jp" }, "geometry": { "type": "Point", "coordinates": [ 135.540266299999985, 34.5036759 ] } },
{ "type": "Feature", "properties": { "内容": "介護老人保健施設　メデケアタマイ【介護老人保健施設】大阪府阪南市箱作2047-3", "url": "https://www.kaigokensaku.mhlw.go.jp/27/index.php?action_kouhyou_detail_004_kani=true&JigyosyoCd=2759580018-00&ServiceCd=520&Type=search", "url2": "http://medekeatamai.com" }, "geometry": { "type": "Point", "coordinates": [ 135.2020238, 34.3347545 ] } },
{ "type": "Feature", "properties": { "内容": "介護老人保健施設若山荘【介護老人保健施設】大阪府三島郡島本町大字広瀬１１２１番地", "url": "https://www.kaigokensaku.mhlw.go.jp/27/index.php?action_kouhyou_detail_004_kani=true&JigyosyoCd=2753980016-00&ServiceCd=520&Type=search", "url2": "http://www.minasehp.jp/" }, "geometry": { "type": "Point", "coordinates": [ 135.658379092607106, 34.886781087701927 ] } },
{ "type": "Feature", "properties": { "内容": "介護老人保健施設アルカディア【介護老人保健施設】大阪府泉南郡熊取町七山２－２－１", "url": "https://www.kaigokensaku.mhlw.go.jp/27/index.php?action_kouhyou_detail_004_kani=true&JigyosyoCd=2751280021-00&ServiceCd=520&Type=search", "url2": "http://arc.soshindo.jp/" }, "geometry": { "type": "Point", "coordinates": [ 135.361060790876763, 34.411690607149531 ] } },
{ "type": "Feature", "properties": { "内容": "介護老人保健施設　ライフケアながやま【介護老人保健施設】大阪府泉南郡熊取町大久保中２丁目１番２６号", "url": "https://www.kaigokensaku.mhlw.go.jp/27/index.php?action_kouhyou_detail_004_kani=true&JigyosyoCd=2751280039-00&ServiceCd=520&Type=search", "url2": "http://www.nagayama.or.jp" }, "geometry": { "type": "Point", "coordinates": [ 135.344808199999989, 34.4033708 ] } },
{ "type": "Feature", "properties": { "内容": "医療法人　誠人会　与田病院併設　介護老人保健施設　花水木【介護老人保健施設】大阪府泉南郡岬町多奈川谷川1847番地の19", "url": "https://www.kaigokensaku.mhlw.go.jp/27/index.php?action_kouhyou_detail_004_kani=true&JigyosyoCd=2751280054-00&ServiceCd=520&Type=search", "url2": "http://hanamizuki.tv/" }, "geometry": { "type": "Point", "coordinates": [ 135.123680928311188, 34.313751654634643 ] } },
{ "type": "Feature", "properties": { "内容": "みさき【介護老人保健施設】大阪府　泉南郡岬町淡輪1790番地", "url": "https://www.kaigokensaku.mhlw.go.jp/27/index.php?action_kouhyou_detail_004_kani=true&JigyosyoCd=2751280013-00&ServiceCd=520&Type=search", "url2": "https://sw-shinkokai.com" }, "geometry": { "type": "Point", "coordinates": [ 135.182972599999971, 34.3200141 ] } },
{ "type": "Feature", "properties": { "内容": "介護老人保健施設　すずの音【介護老人保健施設】大阪府南河内郡太子町大字春日９７９番地の５９", "url": "https://www.kaigokensaku.mhlw.go.jp/27/index.php?action_kouhyou_detail_004_kani=true&JigyosyoCd=2753580030-00&ServiceCd=520&Type=search", "url2": "http://www.suzunone.net" }, "geometry": { "type": "Point", "coordinates": [ 135.646811299999968, 34.5271084 ] } }
]
}
