{
"type": "FeatureCollection",
"name": "geo_27_地域密着型介護老人福祉施設入所者生活介護",
"crs": { "type": "name", "properties": { "name": "urn:ogc:def:crs:OGC:1.3:CRS84" } },
"features": [
{ "type": "Feature", "properties": { "内容": "平成福島苑【地域密着型介護老人福祉施設入所者生活介護】大阪府大阪市福島区海老江3-20-8", "url": "https://www.kaigokensaku.mhlw.go.jp/27/index.php?action_kouhyou_detail_004_kani=true&JigyosyoCd=2790200154-00&ServiceCd=540&Type=search", "url2": "https://www.heiseifukushikai.com/" }, "geometry": { "type": "Point", "coordinates": [ 135.4718086, 34.7009627 ] } },
{ "type": "Feature", "properties": { "内容": "特別養護老人ホームほなみ【地域密着型介護老人福祉施設入所者生活介護】大阪府大阪市西淀川区大和田４丁目１１番６号", "url": "https://www.kaigokensaku.mhlw.go.jp/27/index.php?action_kouhyou_detail_004_kani=true&JigyosyoCd=2791000116-00&ServiceCd=540&Type=search", "url2": "https://tokuyo-honami.com/" }, "geometry": { "type": "Point", "coordinates": [ 135.44591691904904, 34.707978538609325 ] } },
{ "type": "Feature", "properties": { "内容": "特別養護老人ホームなみほ【地域密着型介護老人福祉施設入所者生活介護】大阪府大阪市西淀川区大和田4丁目11番2号", "url": "https://www.kaigokensaku.mhlw.go.jp/27/index.php?action_kouhyou_detail_004_kani=true&JigyosyoCd=2791000249-00&ServiceCd=540&Type=search", "url2": "https://tokuyo-honami.com/" }, "geometry": { "type": "Point", "coordinates": [ 135.4461284, 34.708138 ] } },
{ "type": "Feature", "properties": { "内容": "地域密着型特別養護老人ホーム　菜乃花【地域密着型介護老人福祉施設入所者生活介護】大阪府大阪市東淀川区上新庄１－２－５地域密着型特別養護老人ホーム　　菜乃花", "url": "https://www.kaigokensaku.mhlw.go.jp/27/index.php?action_kouhyou_detail_004_kani=true&JigyosyoCd=2793000312-00&ServiceCd=540&Type=search", "url2": "https://www.aoyama-med.gr.jp/ouka-welfare/nanoka" }, "geometry": { "type": "Point", "coordinates": [ 135.527473399999963, 34.7442381 ] } },
{ "type": "Feature", "properties": { "内容": "上本町地域密着型特別養護老人ホームラガール【地域密着型介護老人福祉施設入所者生活介護】大阪府大阪市生野区鶴橋一丁目9番34号", "url": "https://www.kaigokensaku.mhlw.go.jp/27/index.php?action_kouhyou_detail_004_kani=true&JigyosyoCd=2792200582-00&ServiceCd=540&Type=search", "url2": "http://uehonmachi.koudoukai.or.jp/" }, "geometry": { "type": "Point", "coordinates": [ 135.5304577, 34.6626493 ] } },
{ "type": "Feature", "properties": { "内容": "地域密着型特別養護老人ホームおがわ苑【地域密着型介護老人福祉施設入所者生活介護】大阪市生野区生野東3丁目1番51号地域密着型特別養護老人ホームおがわ苑", "url": "https://www.kaigokensaku.mhlw.go.jp/27/index.php?action_kouhyou_detail_004_kani=true&JigyosyoCd=2792200426-00&ServiceCd=540&Type=search", "url2": "https://www.kaorukai1520.com/" }, "geometry": { "type": "Point", "coordinates": [ 135.533475, 34.651685 ] } },
{ "type": "Feature", "properties": { "内容": "金の鈴特別養護老人ホーム【地域密着型介護老人福祉施設入所者生活介護】大阪市生野区巽南3-5-25", "url": "https://www.kaigokensaku.mhlw.go.jp/27/index.php?action_kouhyou_detail_004_kani=true&JigyosyoCd=2772200628-00&ServiceCd=540&Type=search", "url2": "https://toukoukai-fukushi.com" }, "geometry": { "type": "Point", "coordinates": [ 135.549981, 34.641256 ] } },
{ "type": "Feature", "properties": { "内容": "地域密着型特別養護老人ホーム平成森之宮苑【地域密着型介護老人福祉施設入所者生活介護】大阪府大阪市城東区森之宮２－１－４９", "url": "https://www.kaigokensaku.mhlw.go.jp/27/index.php?action_kouhyou_detail_004_kani=true&JigyosyoCd=2794400347-00&ServiceCd=540&Type=search", "url2": "http://www.heiseifukushikai.com/facility/facility/morinomiya/" }, "geometry": { "type": "Point", "coordinates": [ 135.539360826476099, 34.684902882824041 ] } },
{ "type": "Feature", "properties": { "内容": "ふれ愛の館しおん地域密着型特別養護老人ホーム【地域密着型介護老人福祉施設入所者生活介護】大阪府大阪市住吉区苅田4-3-9", "url": "https://www.kaigokensaku.mhlw.go.jp/27/index.php?action_kouhyou_detail_004_kani=true&JigyosyoCd=2792000404-00&ServiceCd=540&Type=search", "url2": "http://www.shiongakuen.or.jp" }, "geometry": { "type": "Point", "coordinates": [ 135.5219012, 34.6008181 ] } },
{ "type": "Feature", "properties": { "内容": "地域密着型特別養護老人ホーム　あじさい苑大阪住吉【地域密着型介護老人福祉施設入所者生活介護】大阪府大阪市住吉区住吉一丁目９番１８号", "url": "https://www.kaigokensaku.mhlw.go.jp/27/index.php?action_kouhyou_detail_004_kani=true&JigyosyoCd=2792000537-00&ServiceCd=540&Type=search", "url2": "https://koshokai-swc.or.jp/" }, "geometry": { "type": "Point", "coordinates": [ 135.4961942, 34.6122767 ] } },
{ "type": "Feature", "properties": { "内容": "特別養護老人ホームしらさぎ苑【地域密着型介護老人福祉施設入所者生活介護】大阪府大阪市東住吉区今川６丁目６番６号", "url": "https://www.kaigokensaku.mhlw.go.jp/27/index.php?action_kouhyou_detail_004_kani=true&JigyosyoCd=2790800722-00&ServiceCd=540&Type=search", "url2": "https://harukazefukushikai.com/" }, "geometry": { "type": "Point", "coordinates": [ 135.542807551451091, 34.628124825553037 ] } },
{ "type": "Feature", "properties": { "内容": "特別養護老人ホーム　城南ホームサテライト【地域密着型介護老人福祉施設入所者生活介護】大阪府大阪市東住吉区住道矢田４－２０－１９", "url": "https://www.kaigokensaku.mhlw.go.jp/27/index.php?action_kouhyou_detail_004_kani=true&JigyosyoCd=2790800235-00&ServiceCd=540&Type=search", "url2": "http://www.jonanhome.jp/" }, "geometry": { "type": "Point", "coordinates": [ 135.540146699793013, 34.599881759947664 ] } },
{ "type": "Feature", "properties": { "内容": "まちかどホームやまゆり【地域密着型介護老人福祉施設入所者生活介護】大阪府大阪市西成区鶴見橋2-12-21", "url": "https://www.kaigokensaku.mhlw.go.jp/27/index.php?action_kouhyou_detail_004_kani=true&JigyosyoCd=2793300134-00&ServiceCd=540&Type=search", "url2": "http://www.humannet.or.jp/" }, "geometry": { "type": "Point", "coordinates": [ 135.490481400000021, 34.6464848 ] } },
{ "type": "Feature", "properties": { "内容": "博愛の園サテライト特養　清心館【地域密着型介護老人福祉施設入所者生活介護】大阪府大阪市淀川区十三元今里3-1-72", "url": "https://www.kaigokensaku.mhlw.go.jp/27/index.php?action_kouhyou_detail_004_kani=true&JigyosyoCd=2799100249-00&ServiceCd=540&Type=search", "url2": "http://www.hakuaisha-welfare.net" }, "geometry": { "type": "Point", "coordinates": [ 135.476324657672109, 34.721733448048674 ] } },
{ "type": "Feature", "properties": { "内容": "特別養護老人ホーム愛孝野中苑【地域密着型介護老人福祉施設入所者生活介護】大阪府大阪市淀川区野中南2-8-27", "url": "https://www.kaigokensaku.mhlw.go.jp/27/index.php?action_kouhyou_detail_004_kani=true&JigyosyoCd=2799100462-00&ServiceCd=540&Type=search", "url2": "http://aikoufukushikai.com" }, "geometry": { "type": "Point", "coordinates": [ 135.481553890737956, 34.726128982395259 ] } },
{ "type": "Feature", "properties": { "内容": "介護老人福祉施設ゆうわ【地域密着型介護老人福祉施設入所者生活介護】大阪府大阪市鶴見区諸口6-1-17", "url": "https://www.kaigokensaku.mhlw.go.jp/27/index.php?action_kouhyou_detail_004_kani=true&JigyosyoCd=2799200106-00&ServiceCd=540&Type=search", "url2": "http://yu-shuwa.sakura.ne.jp/index.html" }, "geometry": { "type": "Point", "coordinates": [ 135.574887167459082, 34.705350051999488 ] } },
{ "type": "Feature", "properties": { "内容": "喜連の杜【地域密着型介護老人福祉施設入所者生活介護】大阪府大阪市平野区喜連4-6-19", "url": "https://www.kaigokensaku.mhlw.go.jp/27/index.php?action_kouhyou_detail_004_kani=true&JigyosyoCd=2795800537-00&ServiceCd=540&Type=search", "url2": "http://www.eijyu.or.jp" }, "geometry": { "type": "Point", "coordinates": [ 135.554920615353581, 34.611731752882186 ] } },
{ "type": "Feature", "properties": { "内容": "地域密着型特別養護老人ホームせんぽ瓜破東【地域密着型介護老人福祉施設入所者生活介護】大阪府大阪市平野区瓜破東8丁目8番6号", "url": "https://www.kaigokensaku.mhlw.go.jp/27/index.php?action_kouhyou_detail_004_kani=true&JigyosyoCd=2795800487-00&ServiceCd=540&Type=search", "url2": "http://senpokai.org/" }, "geometry": { "type": "Point", "coordinates": [ 135.561322464418026, 34.598909638419883 ] } },
{ "type": "Feature", "properties": { "内容": "地域密着型特別養護老人ホームオアシス寿安【地域密着型介護老人福祉施設入所者生活介護】大阪市平野区長吉六反一丁目5番7号", "url": "https://www.kaigokensaku.mhlw.go.jp/27/index.php?action_kouhyou_detail_004_kani=true&JigyosyoCd=2795800545-00&ServiceCd=540&Type=search", "url2": "https://oasisgroup.or.jp/" }, "geometry": { "type": "Point", "coordinates": [ 135.579903300000012, 34.6108376 ] } },
{ "type": "Feature", "properties": { "内容": "特別養護老人ホーム平野愛和【地域密着型介護老人福祉施設入所者生活介護】大阪市平野区平野東２丁目１番３０号", "url": "https://www.kaigokensaku.mhlw.go.jp/27/index.php?action_kouhyou_detail_004_kani=true&JigyosyoCd=2775800655-00&ServiceCd=540&Type=search", "url2": null }, "geometry": { "type": "Point", "coordinates": [ 135.55647620000002, 34.6234271 ] } },
{ "type": "Feature", "properties": { "内容": "かーさ・びあんか　三国ヶ丘【地域密着型介護老人福祉施設入所者生活介護】大阪府堺市堺区北三国ヶ丘町2丁4番1号", "url": "https://www.kaigokensaku.mhlw.go.jp/27/index.php?action_kouhyou_detail_004_kani=true&JigyosyoCd=2796000137-00&ServiceCd=540&Type=search", "url2": "http://www.asakayama-kinenkai.or.jp" }, "geometry": { "type": "Point", "coordinates": [ 135.489603403041087, 34.575079160605334 ] } },
{ "type": "Feature", "properties": { "内容": "特別養護老人ホーム遊陶里【地域密着型介護老人福祉施設入所者生活介護】大阪府堺市中区福田541-1", "url": "https://www.kaigokensaku.mhlw.go.jp/27/index.php?action_kouhyou_detail_004_kani=true&JigyosyoCd=2796100143-00&ServiceCd=540&Type=search", "url2": "http://www.kousetsukai.com" }, "geometry": { "type": "Point", "coordinates": [ 135.523539600000049, 34.5207267 ] } },
{ "type": "Feature", "properties": { "内容": "特別養護老人ホーム　マーヤの里　鈴の宮【地域密着型介護老人福祉施設入所者生活介護】大阪府堺市中区毛穴町294-1", "url": "https://www.kaigokensaku.mhlw.go.jp/27/index.php?action_kouhyou_detail_004_kani=true&JigyosyoCd=2796100283-00&ServiceCd=540&Type=search", "url2": "http://ma-ya.org" }, "geometry": { "type": "Point", "coordinates": [ 135.4743781, 34.5282541 ] } },
{ "type": "Feature", "properties": { "内容": "特別養護老人ホーム・おおみの【地域密着型介護老人福祉施設入所者生活介護】大阪府堺市東区西野42番地", "url": "https://www.kaigokensaku.mhlw.go.jp/27/index.php?action_kouhyou_detail_004_kani=true&JigyosyoCd=2796200026-00&ServiceCd=540&Type=search", "url2": "http://www.oomino.jp" }, "geometry": { "type": "Point", "coordinates": [ 135.53793, 34.5189577 ] } },
{ "type": "Feature", "properties": { "内容": "ウェルフォンテひのき【地域密着型介護老人福祉施設入所者生活介護】堺市西区草部５３１番地", "url": "https://www.kaigokensaku.mhlw.go.jp/27/index.php?action_kouhyou_detail_004_kani=true&JigyosyoCd=2796300164-00&ServiceCd=540&Type=search", "url2": "http://sakaifukuizumi.com" }, "geometry": { "type": "Point", "coordinates": [ 135.469119128836013, 34.519256561466015 ] } },
{ "type": "Feature", "properties": { "内容": "特別養護老人ホーム　朗友サロン【地域密着型介護老人福祉施設入所者生活介護】大阪府堺市西区草部743番地", "url": "https://www.kaigokensaku.mhlw.go.jp/27/index.php?action_kouhyou_detail_004_kani=true&JigyosyoCd=2796300222-00&ServiceCd=540&Type=search", "url2": "http://www.otorifukushikai.or.jp/" }, "geometry": { "type": "Point", "coordinates": [ 135.471624799999972, 34.5197538 ] } },
{ "type": "Feature", "properties": { "内容": "地域密着型介護老人福祉施設ハートピア泉北【地域密着型介護老人福祉施設入所者生活介護】大阪府堺市西区太平寺331-1", "url": "https://www.kaigokensaku.mhlw.go.jp/27/index.php?action_kouhyou_detail_004_kani=true&JigyosyoCd=2796300214-00&ServiceCd=540&Type=search", "url2": "http://www.sakaifukushikai.jp/" }, "geometry": { "type": "Point", "coordinates": [ 135.478935699999965, 34.5040527 ] } },
{ "type": "Feature", "properties": { "内容": "グランドオーク百寿【地域密着型介護老人福祉施設入所者生活介護】大阪府堺市南区茶山台３丁２２番１１", "url": "https://www.kaigokensaku.mhlw.go.jp/27/index.php?action_kouhyou_detail_004_kani=true&JigyosyoCd=2796400147-00&ServiceCd=540&Type=search", "url2": "http://www.grand-oak.jp/" }, "geometry": { "type": "Point", "coordinates": [ 135.517201229499847, 34.488500027946557 ] } },
{ "type": "Feature", "properties": { "内容": "特別養護老人ホーム　アステリスク【地域密着型介護老人福祉施設入所者生活介護】大阪府堺市南区檜尾147-1アステリスク", "url": "https://www.kaigokensaku.mhlw.go.jp/27/index.php?action_kouhyou_detail_004_kani=true&JigyosyoCd=2796400162-00&ServiceCd=540&Type=search", "url2": "https://asterisq.amebaownd.com/" }, "geometry": { "type": "Point", "coordinates": [ 135.480832398147641, 34.488841693364037 ] } },
{ "type": "Feature", "properties": { "内容": "特別養護老人ホーム寿里苑やすらぎの郷【地域密着型介護老人福祉施設入所者生活介護】大阪府堺市北区常磐町3丁13番5号", "url": "https://www.kaigokensaku.mhlw.go.jp/27/index.php?action_kouhyou_detail_004_kani=true&JigyosyoCd=2796500318-00&ServiceCd=540&Type=search", "url2": "https://www.julien.or.jp/yasuragi/" }, "geometry": { "type": "Point", "coordinates": [ 135.519289169602132, 34.589802789022961 ] } },
{ "type": "Feature", "properties": { "内容": "地域密着型特別養護老人ホーム　ブレス南花田【地域密着型介護老人福祉施設入所者生活介護】大阪府堺市北区南花田町531番地", "url": "https://www.kaigokensaku.mhlw.go.jp/27/index.php?action_kouhyou_detail_004_kani=true&JigyosyoCd=2796500094-00&ServiceCd=540&Type=search", "url2": "http://houseikai.net" }, "geometry": { "type": "Point", "coordinates": [ 135.528131693254068, 34.572203162337665 ] } },
{ "type": "Feature", "properties": { "内容": "特別養護老人ホーム美原荘「すごうの郷」【地域密着型介護老人福祉施設入所者生活介護】大阪府堺市美原区菅生1番地1", "url": "https://www.kaigokensaku.mhlw.go.jp/27/index.php?action_kouhyou_detail_004_kani=true&JigyosyoCd=2796600043-00&ServiceCd=540&Type=search", "url2": "http://miharasou-group.net/sugou/" }, "geometry": { "type": "Point", "coordinates": [ 135.561759500247234, 34.532322055624377 ] } },
{ "type": "Feature", "properties": { "内容": "岸和田北特別養護老人ホーム【地域密着型介護老人福祉施設入所者生活介護】大阪府岸和田市磯上町3-3-13岸和田北特別養護老人ホーム", "url": "https://www.kaigokensaku.mhlw.go.jp/27/index.php?action_kouhyou_detail_004_kani=true&JigyosyoCd=2791100189-00&ServiceCd=540&Type=search", "url2": "http://www.kishiwada.or.jp/" }, "geometry": { "type": "Point", "coordinates": [ 135.383453466656533, 34.487647384044088 ] } },
{ "type": "Feature", "properties": { "内容": "社会福祉法人和成会・ひまわりの郷【地域密着型介護老人福祉施設入所者生活介護】大阪府岸和田市小松里町938番2", "url": "https://www.kaigokensaku.mhlw.go.jp/27/index.php?action_kouhyou_detail_004_kani=true&JigyosyoCd=2791100197-00&ServiceCd=540&Type=search", "url2": "http://www.himawarinosato.net/" }, "geometry": { "type": "Point", "coordinates": [ 135.406248, 34.4631877 ] } },
{ "type": "Feature", "properties": { "内容": "特別養護老人ホーム岸和田天神山荘【地域密着型介護老人福祉施設入所者生活介護】大阪府岸和田市流木町３３７番地の７", "url": "https://www.kaigokensaku.mhlw.go.jp/27/index.php?action_kouhyou_detail_004_kani=true&JigyosyoCd=2791100205-00&ServiceCd=540&Type=search", "url2": "http://tenjinyamasou.jp/index.php/" }, "geometry": { "type": "Point", "coordinates": [ 135.394960730024678, 34.431587238063891 ] } },
{ "type": "Feature", "properties": { "内容": "地域密着型特別養護老人ホーム　刀根山美豊苑【地域密着型介護老人福祉施設入所者生活介護】大阪府豊中市刀根山６丁目７－１２番", "url": "https://www.kaigokensaku.mhlw.go.jp/27/index.php?action_kouhyou_detail_004_kani=true&JigyosyoCd=2794000766-00&ServiceCd=540&Type=search", "url2": "http://well-seikokai.jp/" }, "geometry": { "type": "Point", "coordinates": [ 135.454931100000067, 34.7983249 ] } },
{ "type": "Feature", "properties": { "内容": "特別養護老人ホーム利倉清豊苑【地域密着型介護老人福祉施設入所者生活介護】大阪府豊中市利倉3-4-19", "url": "https://www.kaigokensaku.mhlw.go.jp/27/index.php?action_kouhyou_detail_004_kani=true&JigyosyoCd=2794000733-00&ServiceCd=540&Type=search", "url2": "http://www.well-seikokai.jp" }, "geometry": { "type": "Point", "coordinates": [ 135.458479479133189, 34.760584508888464 ] } },
{ "type": "Feature", "properties": { "内容": "特別養護老人ホーム清浄苑【地域密着型介護老人福祉施設入所者生活介護】大阪府豊中市豊南町東2-10-1", "url": "https://www.kaigokensaku.mhlw.go.jp/27/index.php?action_kouhyou_detail_004_kani=true&JigyosyoCd=2794001079-00&ServiceCd=540&Type=search", "url2": "http://kyouseikai.org" }, "geometry": { "type": "Point", "coordinates": [ 135.4850577, 34.7511345 ] } },
{ "type": "Feature", "properties": { "内容": "特別養護老人ホーム清揚苑【地域密着型介護老人福祉施設入所者生活介護】大阪府豊中市庄内宝町1-4-5", "url": "https://www.kaigokensaku.mhlw.go.jp/27/index.php?action_kouhyou_detail_004_kani=true&JigyosyoCd=2794001020-00&ServiceCd=540&Type=search", "url2": "https://kyouseikai.org/" }, "geometry": { "type": "Point", "coordinates": [ 135.4625398, 34.7465283 ] } },
{ "type": "Feature", "properties": { "内容": "地域密着型特別養護老人ホームふるる【地域密着型介護老人福祉施設入所者生活介護】大阪府豊中市浜3-8-4ふるる2号館", "url": "https://www.kaigokensaku.mhlw.go.jp/27/index.php?action_kouhyou_detail_004_kani=true&JigyosyoCd=2794000279-00&ServiceCd=540&Type=search", "url2": "http://www.fururu-home.com" }, "geometry": { "type": "Point", "coordinates": [ 135.480466100000058, 34.7572964 ] } },
{ "type": "Feature", "properties": { "内容": "特別養護老人ホーム宙（すばる）豊中【地域密着型介護老人福祉施設入所者生活介護】大阪府豊中市永楽荘４丁目１番３号", "url": "https://www.kaigokensaku.mhlw.go.jp/27/index.php?action_kouhyou_detail_004_kani=true&JigyosyoCd=2794000592-00&ServiceCd=540&Type=search", "url2": "http://koseikai-subaru.com/" }, "geometry": { "type": "Point", "coordinates": [ 135.472218841139266, 34.817376223598011 ] } },
{ "type": "Feature", "properties": { "内容": "特別養護老人ホーム永寿園とよなか【地域密着型介護老人福祉施設入所者生活介護】大阪府豊中市新千里南町三丁目2番地122", "url": "https://www.kaigokensaku.mhlw.go.jp/27/index.php?action_kouhyou_detail_004_kani=true&JigyosyoCd=2794000444-00&ServiceCd=540&Type=search", "url2": "https://eijyuen.jp/" }, "geometry": { "type": "Point", "coordinates": [ 135.4894204936096, 34.790245625869552 ] } },
{ "type": "Feature", "properties": { "内容": "地域密着型特別養護老人ホーム　淳風とよなか【地域密着型介護老人福祉施設入所者生活介護】大阪府豊中市二葉町2丁目4番5号", "url": "https://www.kaigokensaku.mhlw.go.jp/27/index.php?action_kouhyou_detail_004_kani=true&JigyosyoCd=2794000873-00&ServiceCd=540&Type=search", "url2": "http://junpu-kai.or.jp" }, "geometry": { "type": "Point", "coordinates": [ 135.46335160000001, 34.7366288 ] } },
{ "type": "Feature", "properties": { "内容": "特別養護老人ホーム　アイテラス利倉【地域密着型介護老人福祉施設入所者生活介護】大阪府豊中市利倉西1-1-11", "url": "https://www.kaigokensaku.mhlw.go.jp/27/index.php?action_kouhyou_detail_004_kani=true&JigyosyoCd=2794000527-00&ServiceCd=540&Type=search", "url2": "http://yuuai-fukushikai.jp" }, "geometry": { "type": "Point", "coordinates": [ 135.452979499999969, 34.761479 ] } },
{ "type": "Feature", "properties": { "内容": "特別養護老人ホームみずほおおぞら【地域密着型介護老人福祉施設入所者生活介護】大阪府豊中市走井三丁目5番35号", "url": "https://www.kaigokensaku.mhlw.go.jp/27/index.php?action_kouhyou_detail_004_kani=true&JigyosyoCd=2794000675-00&ServiceCd=540&Type=search", "url2": "http://piste1.wixsite.com/mizuhooozora" }, "geometry": { "type": "Point", "coordinates": [ 135.448718099999951, 34.7837848 ] } },
{ "type": "Feature", "properties": { "内容": "特別養護老人ホーム　ハートフルこうだ【地域密着型介護老人福祉施設入所者生活介護】大阪府池田市神田2-6-7", "url": "https://www.kaigokensaku.mhlw.go.jp/27/index.php?action_kouhyou_detail_004_kani=true&JigyosyoCd=2792500064-00&ServiceCd=540&Type=search", "url2": "http://www.daikyokai.or.jp/h_kouda" }, "geometry": { "type": "Point", "coordinates": [ 135.426180499999987, 34.811756 ] } },
{ "type": "Feature", "properties": { "内容": "ハートフルふしお紅葉館【地域密着型介護老人福祉施設入所者生活介護】大阪府池田市伏尾町１２番地の１", "url": "https://www.kaigokensaku.mhlw.go.jp/27/index.php?action_kouhyou_detail_004_kani=true&JigyosyoCd=2792500262-00&ServiceCd=540&Type=search", "url2": "http://www.daikyokai.or.jp/fushio/" }, "geometry": { "type": "Point", "coordinates": [ 135.446290500000032, 34.8601975 ] } },
{ "type": "Feature", "properties": { "内容": "地域密着型特別養護老人ホーム　アリス佐竹台【地域密着型介護老人福祉施設入所者生活介護】大阪府吹田市佐竹台5-3-20", "url": "https://www.kaigokensaku.mhlw.go.jp/27/index.php?action_kouhyou_detail_004_kani=true&JigyosyoCd=2791600832-00&ServiceCd=540&Type=search", "url2": "https://toyonakafamily.com/" }, "geometry": { "type": "Point", "coordinates": [ 135.518414435581974, 34.79112650347394 ] } },
{ "type": "Feature", "properties": { "内容": "特別養護老人ホーム　陽翠苑【地域密着型介護老人福祉施設入所者生活介護】大阪府吹田市南吹田1－1－22", "url": "https://www.kaigokensaku.mhlw.go.jp/27/index.php?action_kouhyou_detail_004_kani=true&JigyosyoCd=2791600592-00&ServiceCd=540&Type=search", "url2": "http://www.kyouseikai.org" }, "geometry": { "type": "Point", "coordinates": [ 135.512867907409657, 34.753074819931406 ] } },
{ "type": "Feature", "properties": { "内容": "特別養護老人ホーム　ハピネスさんあいNext【地域密着型介護老人福祉施設入所者生活介護】大阪府吹田市幸町25番1号", "url": "https://www.kaigokensaku.mhlw.go.jp/27/index.php?action_kouhyou_detail_004_kani=true&JigyosyoCd=2791600816-00&ServiceCd=540&Type=search", "url2": "http://www.happiness-sanai.com/" }, "geometry": { "type": "Point", "coordinates": [ 135.536362600000018, 34.769151100000023 ] } },
{ "type": "Feature", "properties": { "内容": "地域密着型特別養護老人ホーム　憩～北千里～【地域密着型介護老人福祉施設入所者生活介護】大阪府吹田市古江台3丁目9番2号", "url": "https://www.kaigokensaku.mhlw.go.jp/27/index.php?action_kouhyou_detail_004_kani=true&JigyosyoCd=2791600717-00&ServiceCd=540&Type=search", "url2": "https://nisitanikai.jp/" }, "geometry": { "type": "Point", "coordinates": [ 135.507407, 34.8196268 ] } },
{ "type": "Feature", "properties": { "内容": "地域密着型特別養護老人ホーム憩～江坂～【地域密着型介護老人福祉施設入所者生活介護】大阪府吹田市江坂町2-14-22", "url": "https://www.kaigokensaku.mhlw.go.jp/27/index.php?action_kouhyou_detail_004_kani=true&JigyosyoCd=2791600295-00&ServiceCd=540&Type=search", "url2": "http://www.nisitanikai.jp/Institution/index_4.html" }, "geometry": { "type": "Point", "coordinates": [ 135.4917578809509, 34.7630093443018 ] } },
{ "type": "Feature", "properties": { "内容": "地域密着型特別養護老人ホーム　縁【地域密着型介護老人福祉施設入所者生活介護】大阪府吹田市千里山竹園1-50-18離宮千里山", "url": "https://www.kaigokensaku.mhlw.go.jp/27/index.php?action_kouhyou_detail_004_kani=true&JigyosyoCd=2791600246-00&ServiceCd=540&Type=search", "url2": "http://www.rokushinkai.jp" }, "geometry": { "type": "Point", "coordinates": [ 135.4992746, 34.783258800000041 ] } },
{ "type": "Feature", "properties": { "内容": "特別養護老人ホーム　スローライフ千里【地域密着型介護老人福祉施設入所者生活介護】大阪府吹田市千里万博公園6-8", "url": "https://www.kaigokensaku.mhlw.go.jp/27/index.php?action_kouhyou_detail_004_kani=true&JigyosyoCd=2791600105-00&ServiceCd=540&Type=search", "url2": "http://www.slowlife.or.jp" }, "geometry": { "type": "Point", "coordinates": [ 135.535007700000051, 34.8147074 ] } },
{ "type": "Feature", "properties": { "内容": "地域密着型特別養護老人ホーム　メヌホット千里丘【地域密着型介護老人福祉施設入所者生活介護】大阪府吹田市千里丘北1番3-2号メヌホット千里丘", "url": "https://www.kaigokensaku.mhlw.go.jp/27/index.php?action_kouhyou_detail_004_kani=true&JigyosyoCd=2791600261-00&ServiceCd=540&Type=search", "url2": "http://www.menuhot.jp/" }, "geometry": { "type": "Point", "coordinates": [ 135.544249300000047, 34.7995826 ] } },
{ "type": "Feature", "properties": { "内容": "特別養護老人ホームオズだいすき倶楽部【地域密着型介護老人福祉施設入所者生活介護】大阪府泉大津市池浦町三丁目10番16号", "url": "https://www.kaigokensaku.mhlw.go.jp/27/index.php?action_kouhyou_detail_004_kani=true&JigyosyoCd=2790600023-00&ServiceCd=540&Type=search", "url2": "http://oz-tokuyo.jp/" }, "geometry": { "type": "Point", "coordinates": [ 135.417780200000038, 34.4977387 ] } },
{ "type": "Feature", "properties": { "内容": "地域密着型特別養護老人ホームひなた【地域密着型介護老人福祉施設入所者生活介護】大阪府高槻市郡家新町74-1", "url": "https://www.kaigokensaku.mhlw.go.jp/27/index.php?action_kouhyou_detail_004_kani=true&JigyosyoCd=2790900233-00&ServiceCd=540&Type=search", "url2": "https://honobonoso.jp/" }, "geometry": { "type": "Point", "coordinates": [ 135.600998200000049, 34.8509912 ] } },
{ "type": "Feature", "properties": { "内容": "れんげ荘プラネットホーム【地域密着型介護老人福祉施設入所者生活介護】大阪府高槻市三島江4丁目14番26号", "url": "https://www.kaigokensaku.mhlw.go.jp/27/index.php?action_kouhyou_detail_004_kani=true&JigyosyoCd=2790900316-00&ServiceCd=540&Type=search", "url2": "http://www.rengesou.or.jp" }, "geometry": { "type": "Point", "coordinates": [ 135.610583910064605, 34.799347240851404 ] } },
{ "type": "Feature", "properties": { "内容": "小規模特養ホーム西之川原の郷【地域密着型介護老人福祉施設入所者生活介護】大阪府高槻市西之川原1丁目17番1号", "url": "https://www.kaigokensaku.mhlw.go.jp/27/index.php?action_kouhyou_detail_004_kani=true&JigyosyoCd=2790900589-00&ServiceCd=540&Type=search", "url2": "http://www.syunjyukai.or.jp/" }, "geometry": { "type": "Point", "coordinates": [ 135.59346830000004, 34.8669226 ] } },
{ "type": "Feature", "properties": { "内容": "小規模特養ホームぐんげ今城の丘【地域密着型介護老人福祉施設入所者生活介護】大阪府高槻市郡家本町8番1号", "url": "https://www.kaigokensaku.mhlw.go.jp/27/index.php?action_kouhyou_detail_004_kani=true&JigyosyoCd=2790900407-00&ServiceCd=540&Type=search", "url2": "http://www.syunjyukai.or.jp" }, "geometry": { "type": "Point", "coordinates": [ 135.5978096, 34.8537297 ] } },
{ "type": "Feature", "properties": { "内容": "小規模特養ホームぐんげ今城の杜【地域密着型介護老人福祉施設入所者生活介護】大阪府高槻市郡家本町8番5号", "url": "https://www.kaigokensaku.mhlw.go.jp/27/index.php?action_kouhyou_detail_004_kani=true&JigyosyoCd=2790900720-00&ServiceCd=540&Type=search", "url2": "http://www.syunjyukai.or.jp" }, "geometry": { "type": "Point", "coordinates": [ 135.5973899, 34.8548678 ] } },
{ "type": "Feature", "properties": { "内容": "小規模特養ホーム　はむろの庄【地域密着型介護老人福祉施設入所者生活介護】大阪府高槻市土室町32番1号", "url": "https://www.kaigokensaku.mhlw.go.jp/27/index.php?action_kouhyou_detail_004_kani=true&JigyosyoCd=2790900928-00&ServiceCd=540&Type=search", "url2": "http//www.syunjyukai.or.jp" }, "geometry": { "type": "Point", "coordinates": [ 135.583001700000011, 34.8495772 ] } },
{ "type": "Feature", "properties": { "内容": "特別養護老人ホーム　上牧の郷【地域密着型介護老人福祉施設入所者生活介護】大阪府高槻市東上牧２丁目３７番８号", "url": "https://www.kaigokensaku.mhlw.go.jp/27/index.php?action_kouhyou_detail_004_kani=true&JigyosyoCd=2790900381-00&ServiceCd=540&Type=search", "url2": "http://www.shinshokai.or.jp" }, "geometry": { "type": "Point", "coordinates": [ 135.6634259, 34.8644517 ] } },
{ "type": "Feature", "properties": { "内容": "ミス・ブール記念ホーム小規模特養【地域密着型介護老人福祉施設入所者生活介護】大阪府高槻市松が丘１－２１－８", "url": "https://www.kaigokensaku.mhlw.go.jp/27/index.php?action_kouhyou_detail_004_kani=true&JigyosyoCd=2790900258-00&ServiceCd=540&Type=search", "url2": "http://www.yohane-g.jp" }, "geometry": { "type": "Point", "coordinates": [ 135.599772619014402, 34.871643948411055 ] } },
{ "type": "Feature", "properties": { "内容": "複合型介護施設大冠カーム【地域密着型介護老人福祉施設入所者生活介護】大阪府高槻市須賀町65番10号", "url": "https://www.kaigokensaku.mhlw.go.jp/27/index.php?action_kouhyou_detail_004_kani=true&JigyosyoCd=2790900282-00&ServiceCd=540&Type=search", "url2": "http://www.ojunkai.com/" }, "geometry": { "type": "Point", "coordinates": [ 135.6353924, 34.8401928 ] } },
{ "type": "Feature", "properties": { "内容": "地域密着型特別養護老人ホームゆにわ【地域密着型介護老人福祉施設入所者生活介護】大阪府高槻市津之江北町1番15号", "url": "https://www.kaigokensaku.mhlw.go.jp/27/index.php?action_kouhyou_detail_004_kani=true&JigyosyoCd=2790900944-00&ServiceCd=540&Type=search", "url2": "https://hironokai.com/" }, "geometry": { "type": "Point", "coordinates": [ 135.603703483992007, 34.843271286631897 ] } },
{ "type": "Feature", "properties": { "内容": "地域密着型特養ひなた柱本【地域密着型介護老人福祉施設入所者生活介護】大阪府高槻市柱本6丁目32-1", "url": "https://www.kaigokensaku.mhlw.go.jp/27/index.php?action_kouhyou_detail_004_kani=true&JigyosyoCd=2790900415-00&ServiceCd=540&Type=search", "url2": "https://honobonoso.jp/" }, "geometry": { "type": "Point", "coordinates": [ 135.598458957672108, 34.790481974282265 ] } },
{ "type": "Feature", "properties": { "内容": "特別養護老人ホームきしまの里【地域密着型介護老人福祉施設入所者生活介護】大阪府貝塚市三ツ松８６９－１", "url": "https://www.kaigokensaku.mhlw.go.jp/27/index.php?action_kouhyou_detail_004_kani=true&JigyosyoCd=2791300011-00&ServiceCd=540&Type=search", "url2": "http://seishinen.com" }, "geometry": { "type": "Point", "coordinates": [ 135.381982571688837, 34.412374940688302 ] } },
{ "type": "Feature", "properties": { "内容": "地域密着型特別養護老人ホーム水間ヶ丘【地域密着型介護老人福祉施設入所者生活介護】大阪府貝塚市加神一丁目２４番３６号", "url": "https://www.kaigokensaku.mhlw.go.jp/27/index.php?action_kouhyou_detail_004_kani=true&JigyosyoCd=2791300128-00&ServiceCd=540&Type=search", "url2": "http://www.kenjinkai-mizuma.jp/" }, "geometry": { "type": "Point", "coordinates": [ 135.354370099999983, 34.4387557 ] } },
{ "type": "Feature", "properties": { "内容": "地域密着型特別養護老人ホームすずな園【地域密着型介護老人福祉施設入所者生活介護】大阪府守口市大宮通1-13-14", "url": "https://www.kaigokensaku.mhlw.go.jp/27/index.php?action_kouhyou_detail_004_kani=true&JigyosyoCd=2793200136-00&ServiceCd=540&Type=search", "url2": "http://www.hakuseikai.jp" }, "geometry": { "type": "Point", "coordinates": [ 135.574883399999976, 34.7324875 ] } },
{ "type": "Feature", "properties": { "内容": "守口金田地域密着型特別養護老人ホームラガール【地域密着型介護老人福祉施設入所者生活介護】大阪府守口市金田町4丁目5番16号守口金田ケアセンターラガール", "url": "https://www.kaigokensaku.mhlw.go.jp/27/index.php?action_kouhyou_detail_004_kani=true&JigyosyoCd=2793200219-00&ServiceCd=540&Type=search", "url2": "http://www.koudoukai.or.jp/mk-cc/" }, "geometry": { "type": "Point", "coordinates": [ 135.5922726, 34.7601594 ] } },
{ "type": "Feature", "properties": { "内容": "小規模特別養護老人ホームのぞみ【地域密着型介護老人福祉施設入所者生活介護】大阪府枚方市堂山1丁目39番1号", "url": "https://www.kaigokensaku.mhlw.go.jp/27/index.php?action_kouhyou_detail_004_kani=true&JigyosyoCd=2792400422-00&ServiceCd=540&Type=search", "url2": "https://kiboukai-nozomi.jp/" }, "geometry": { "type": "Point", "coordinates": [ 135.669131599999986, 34.8187317 ] } },
{ "type": "Feature", "properties": { "内容": "地域密着型特養　いこいの里長尾【地域密着型介護老人福祉施設入所者生活介護】大阪府枚方市長尾荒阪1-2804-14", "url": "https://www.kaigokensaku.mhlw.go.jp/27/index.php?action_kouhyou_detail_004_kani=true&JigyosyoCd=2792400752-00&ServiceCd=540&Type=search", "url2": "https://syoujukai.org" }, "geometry": { "type": "Point", "coordinates": [ 135.713644694251656, 34.828266684324085 ] } },
{ "type": "Feature", "properties": { "内容": "いこいの里藤阪【地域密着型介護老人福祉施設入所者生活介護】大阪府枚方市藤阪南町２丁目３０－１", "url": "https://www.kaigokensaku.mhlw.go.jp/27/index.php?action_kouhyou_detail_004_kani=true&JigyosyoCd=2792400463-00&ServiceCd=540&Type=search", "url2": "http://www.syoujukai.org/" }, "geometry": { "type": "Point", "coordinates": [ 135.70005637118328, 34.815516623010538 ] } },
{ "type": "Feature", "properties": { "内容": "サテライトいこいの里【地域密着型介護老人福祉施設入所者生活介護】大阪府枚方市中宮東之町8-15", "url": "https://www.kaigokensaku.mhlw.go.jp/27/index.php?action_kouhyou_detail_004_kani=true&JigyosyoCd=2792400240-00&ServiceCd=540&Type=search", "url2": "http://www.syoujukai.org/" }, "geometry": { "type": "Point", "coordinates": [ 135.666812400000026, 34.8200232 ] } },
{ "type": "Feature", "properties": { "内容": "地域密着型特別養護老人ホームなぎさカーム【地域密着型介護老人福祉施設入所者生活介護】大阪府枚方市渚西一丁目24番１号", "url": "https://www.kaigokensaku.mhlw.go.jp/27/index.php?action_kouhyou_detail_004_kani=true&JigyosyoCd=2792400471-00&ServiceCd=540&Type=search", "url2": "http://www.ojunkai.com/" }, "geometry": { "type": "Point", "coordinates": [ 135.651010700000029, 34.8298809 ] } },
{ "type": "Feature", "properties": { "内容": "特別養護老人ホーム　ひら中振長寿の里【地域密着型介護老人福祉施設入所者生活介護】大阪府枚方市北中振四丁目１８番２０号ひら中振長寿の里", "url": "https://www.kaigokensaku.mhlw.go.jp/27/index.php?action_kouhyou_detail_004_kani=true&JigyosyoCd=2792400505-00&ServiceCd=540&Type=search", "url2": "http://hira.kisyokai.or.jp" }, "geometry": { "type": "Point", "coordinates": [ 135.626164020166925, 34.796687135478301 ] } },
{ "type": "Feature", "properties": { "内容": "小規模特別養護老人ホームくずは美郷【地域密着型介護老人福祉施設入所者生活介護】大阪府枚方市南楠葉1丁目65番25号", "url": "https://www.kaigokensaku.mhlw.go.jp/27/index.php?action_kouhyou_detail_004_kani=true&JigyosyoCd=2792400133-00&ServiceCd=540&Type=search", "url2": "http://www.misugikai.jp" }, "geometry": { "type": "Point", "coordinates": [ 135.680576699999961, 34.864466100000016 ] } },
{ "type": "Feature", "properties": { "内容": "小規模特別養護老人ホームくずは西美郷【地域密着型介護老人福祉施設入所者生活介護】大阪府枚方市西船橋2丁目58-3", "url": "https://www.kaigokensaku.mhlw.go.jp/27/index.php?action_kouhyou_detail_004_kani=true&JigyosyoCd=2792400315-00&ServiceCd=540&Type=search", "url2": "http://www.misugikai.jp/" }, "geometry": { "type": "Point", "coordinates": [ 135.672069500000021, 34.8519783 ] } },
{ "type": "Feature", "properties": { "内容": "特別養護老人ホームむらの美来【地域密着型介護老人福祉施設入所者生活介護】大阪府枚方市村野本町24番69号", "url": "https://www.kaigokensaku.mhlw.go.jp/27/index.php?action_kouhyou_detail_004_kani=true&JigyosyoCd=2792400943-00&ServiceCd=540&Type=search", "url2": "http://www.misugikai.jp" }, "geometry": { "type": "Point", "coordinates": [ 135.6682138, 34.7995898 ] } },
{ "type": "Feature", "properties": { "内容": "茨木地域密着型特別養護老人ホームやすらぎ【地域密着型介護老人福祉施設入所者生活介護】大阪府茨木市上穂積1-2-27", "url": "https://www.kaigokensaku.mhlw.go.jp/27/index.php?action_kouhyou_detail_004_kani=true&JigyosyoCd=2794200630-00&ServiceCd=540&Type=search", "url2": "https://www.ibaraki.saiseikai.or.jp/yasuragi/" }, "geometry": { "type": "Point", "coordinates": [ 135.55684169999995, 34.8211043 ] } },
{ "type": "Feature", "properties": { "内容": "地域密着型特別養護老人ホームコムシェいばらき佳のか【地域密着型介護老人福祉施設入所者生活介護】大阪府茨木市新堂二丁目２番５号", "url": "https://www.kaigokensaku.mhlw.go.jp/27/index.php?action_kouhyou_detail_004_kani=true&JigyosyoCd=2794200390-00&ServiceCd=540&Type=search", "url2": "http://keishokai.org" }, "geometry": { "type": "Point", "coordinates": [ 135.5950272, 34.8119979 ] } },
{ "type": "Feature", "properties": { "内容": "特別養護老人ホーム春日丘荘「彩の家」【地域密着型介護老人福祉施設入所者生活介護】茨木市南春日丘7丁目11番48号", "url": "https://www.kaigokensaku.mhlw.go.jp/27/index.php?action_kouhyou_detail_004_kani=true&JigyosyoCd=2794200143-00&ServiceCd=540&Type=search", "url2": "http://www.kasugaoka.net/fc_kasuga02/index.html" }, "geometry": { "type": "Point", "coordinates": [ 135.5314717, 34.8212205 ] } },
{ "type": "Feature", "properties": { "内容": "茨木太田地域密着型特別養護老人ホームラガール【地域密着型介護老人福祉施設入所者生活介護】大阪府茨木市太田東芝町２-９", "url": "https://www.kaigokensaku.mhlw.go.jp/27/index.php?action_kouhyou_detail_004_kani=true&JigyosyoCd=2794200721-00&ServiceCd=540&Type=search", "url2": "http://ibaraki-cc.koudoukai.or.jp/" }, "geometry": { "type": "Point", "coordinates": [ 135.5776903, 34.8399158 ] } },
{ "type": "Feature", "properties": { "内容": "地域密着型介護老人福祉施設みやけの里【地域密着型介護老人福祉施設入所者生活介護】大阪府茨木市丑寅二丁目1番8号", "url": "https://www.kaigokensaku.mhlw.go.jp/27/index.php?action_kouhyou_detail_004_kani=true&JigyosyoCd=2794200416-00&ServiceCd=540&Type=search", "url2": null }, "geometry": { "type": "Point", "coordinates": [ 135.558183699999972, 34.7967429 ] } },
{ "type": "Feature", "properties": { "内容": "コティコート茨木東【地域密着型介護老人福祉施設入所者生活介護】大阪府茨木市鮎川1-12-7", "url": "https://www.kaigokensaku.mhlw.go.jp/27/index.php?action_kouhyou_detail_004_kani=true&JigyosyoCd=2794200895-00&ServiceCd=540&Type=search", "url2": "https://www.ikufuku.or.jp/" }, "geometry": { "type": "Point", "coordinates": [ 135.593016299999988, 34.8183041 ] } },
{ "type": "Feature", "properties": { "内容": "地域密着型介護老人福祉施設ほくしん苑【地域密着型介護老人福祉施設入所者生活介護】大阪府茨木市泉原37-6", "url": "https://www.kaigokensaku.mhlw.go.jp/27/index.php?action_kouhyou_detail_004_kani=true&JigyosyoCd=2794200788-00&ServiceCd=540&Type=search", "url2": "http://www.tenno.or.jp/publics/index/57/" }, "geometry": { "type": "Point", "coordinates": [ 135.530135300000012, 34.8893077 ] } },
{ "type": "Feature", "properties": { "内容": "特別養護老人ホーム楽寿【地域密着型介護老人福祉施設入所者生活介護】大阪府八尾市神宮寺1丁目154番地特別養護老人ホーム　楽寿", "url": "https://www.kaigokensaku.mhlw.go.jp/27/index.php?action_kouhyou_detail_004_kani=true&JigyosyoCd=2795500251-00&ServiceCd=540&Type=search", "url2": "http://jyukoukai.org/" }, "geometry": { "type": "Point", "coordinates": [ 135.6233671, 34.5993062 ] } },
{ "type": "Feature", "properties": { "内容": "特別養護老人ホーム第二成法苑つむぎ【地域密着型介護老人福祉施設入所者生活介護】大阪府八尾市南本町3丁目5番37号lifeつむぎ", "url": "https://www.kaigokensaku.mhlw.go.jp/27/index.php?action_kouhyou_detail_004_kani=true&JigyosyoCd=2795500350-00&ServiceCd=540&Type=search", "url2": "http://www.yaorinpokan.or.jp" }, "geometry": { "type": "Point", "coordinates": [ 135.606493699999987, 34.6231641 ] } },
{ "type": "Feature", "properties": { "内容": "特別養護老人ホーム　第二長生園　永祥庵【地域密着型介護老人福祉施設入所者生活介護】八尾市高美町１丁目３番５７号", "url": "https://www.kaigokensaku.mhlw.go.jp/27/index.php?action_kouhyou_detail_004_kani=true&JigyosyoCd=2795500145-00&ServiceCd=540&Type=search", "url2": "https://www.yojukai.net/" }, "geometry": { "type": "Point", "coordinates": [ 135.6083906, 34.6253718 ] } },
{ "type": "Feature", "properties": { "内容": "ことほぎ【地域密着型介護老人福祉施設入所者生活介護】八尾市太田３丁目１９８番地２", "url": "https://www.kaigokensaku.mhlw.go.jp/27/index.php?action_kouhyou_detail_004_kani=true&JigyosyoCd=2795500095-00&ServiceCd=540&Type=search", "url2": null }, "geometry": { "type": "Point", "coordinates": [ 135.588915133284672, 34.590458573970878 ] } },
{ "type": "Feature", "properties": { "内容": "地域密着型特別養護老人ホーム寿光園【地域密着型介護老人福祉施設入所者生活介護】大阪府八尾市楽音寺2-125", "url": "https://www.kaigokensaku.mhlw.go.jp/27/index.php?action_kouhyou_detail_004_kani=true&JigyosyoCd=2795500236-00&ServiceCd=540&Type=search", "url2": "http://jyukouen.jyukoukai.org" }, "geometry": { "type": "Point", "coordinates": [ 135.638812700000017, 34.6411153 ] } },
{ "type": "Feature", "properties": { "内容": "地域密着型特別養護老人ホームしあわせの郷和卯【地域密着型介護老人福祉施設入所者生活介護】大阪府八尾市郡川三丁目82番地", "url": "https://www.kaigokensaku.mhlw.go.jp/27/index.php?action_kouhyou_detail_004_kani=true&JigyosyoCd=2795500152-00&ServiceCd=540&Type=search", "url2": null }, "geometry": { "type": "Point", "coordinates": [ 135.63483833666649, 34.622154210686865 ] } },
{ "type": "Feature", "properties": { "内容": "地域密着型特別養護老人ホームノーブル高砂【地域密着型介護老人福祉施設入所者生活介護】大阪府八尾市幸町3-108-1地域密着型特別養護老人ホームノーブル高砂", "url": "https://www.kaigokensaku.mhlw.go.jp/27/index.php?action_kouhyou_detail_004_kani=true&JigyosyoCd=2795500194-00&ServiceCd=540&Type=search", "url2": "http://swc.noble.or.jp/takasago/" }, "geometry": { "type": "Point", "coordinates": [ 135.605759900000066, 34.647847400000011 ] } },
{ "type": "Feature", "properties": { "内容": "特別養護老人ホーム　はくとう春日【地域密着型介護老人福祉施設入所者生活介護】大阪府八尾市春日町4-5-3", "url": "https://www.kaigokensaku.mhlw.go.jp/27/index.php?action_kouhyou_detail_004_kani=true&JigyosyoCd=2795500111-00&ServiceCd=540&Type=search", "url2": "https://meijyukai.jp/office/hakutou-kasuga/" }, "geometry": { "type": "Point", "coordinates": [ 135.590953799999966, 34.6171366 ] } },
{ "type": "Feature", "properties": { "内容": "地域密着型介護老人福祉施設　エルダーケア【地域密着型介護老人福祉施設入所者生活介護】大阪府泉佐野市中庄1305番地3", "url": "https://www.kaigokensaku.mhlw.go.jp/27/index.php?action_kouhyou_detail_004_kani=true&JigyosyoCd=2794500096-00&ServiceCd=540&Type=search", "url2": "http://www.eldercare.or.jp" }, "geometry": { "type": "Point", "coordinates": [ 135.330237099999977, 34.4077116 ] } },
{ "type": "Feature", "properties": { "内容": "地域密着型介護老人福祉施設　さえずり【地域密着型介護老人福祉施設入所者生活介護】大阪府富田林市五軒家1-25-10", "url": "https://www.kaigokensaku.mhlw.go.jp/27/index.php?action_kouhyou_detail_004_kani=true&JigyosyoCd=2794900072-00&ServiceCd=540&Type=search", "url2": "http://www.tenjukai.or.jp" }, "geometry": { "type": "Point", "coordinates": [ 135.567415434671005, 34.511504760746725 ] } },
{ "type": "Feature", "properties": { "内容": "特別養護老人ホーム　寿里苑夢の杜【地域密着型介護老人福祉施設入所者生活介護】大阪府富田林市高辺台2-8-12", "url": "https://www.kaigokensaku.mhlw.go.jp/27/index.php?action_kouhyou_detail_004_kani=true&JigyosyoCd=2794900015-00&ServiceCd=540&Type=search", "url2": "http://www.julien.or.jp/" }, "geometry": { "type": "Point", "coordinates": [ 135.5715219, 34.4990631 ] } },
{ "type": "Feature", "properties": { "内容": "特別養護老人ホーム香西会テレサ【地域密着型介護老人福祉施設入所者生活介護】大阪府寝屋川市讃良西町７番４５号", "url": "https://www.kaigokensaku.mhlw.go.jp/27/index.php?action_kouhyou_detail_004_kani=true&JigyosyoCd=2790300087-00&ServiceCd=540&Type=search", "url2": null }, "geometry": { "type": "Point", "coordinates": [ 135.62115110000002, 34.7424679 ] } },
{ "type": "Feature", "properties": { "内容": "香西会スバル【地域密着型介護老人福祉施設入所者生活介護】大阪府寝屋川市秦町3番12号", "url": "https://www.kaigokensaku.mhlw.go.jp/27/index.php?action_kouhyou_detail_004_kani=true&JigyosyoCd=2790300160-00&ServiceCd=540&Type=search", "url2": null }, "geometry": { "type": "Point", "coordinates": [ 135.633057299475155, 34.76672823175408 ] } },
{ "type": "Feature", "properties": { "内容": "特別養護老人ホーム弘房園【地域密着型介護老人福祉施設入所者生活介護】大阪府寝屋川市日新町17番43号", "url": "https://www.kaigokensaku.mhlw.go.jp/27/index.php?action_kouhyou_detail_004_kani=true&JigyosyoCd=2790300244-00&ServiceCd=540&Type=search", "url2": "http://kobo-en.jp/" }, "geometry": { "type": "Point", "coordinates": [ 135.624377399999958, 34.7842852 ] } },
{ "type": "Feature", "properties": { "内容": "特別養護老人ホーム神田の里【地域密着型介護老人福祉施設入所者生活介護】大阪府寝屋川市上神田一丁目31番1号", "url": "https://www.kaigokensaku.mhlw.go.jp/27/index.php?action_kouhyou_detail_004_kani=true&JigyosyoCd=2790300178-00&ServiceCd=540&Type=search", "url2": "http://www.iwaki-kai.or.jp" }, "geometry": { "type": "Point", "coordinates": [ 135.612484799999947, 34.7559827 ] } },
{ "type": "Feature", "properties": { "内容": "特別養護老人ホーム寝屋池田長寿の里【地域密着型介護老人福祉施設入所者生活介護】大阪府寝屋川市池田3-4-32", "url": "https://www.kaigokensaku.mhlw.go.jp/27/index.php?action_kouhyou_detail_004_kani=true&JigyosyoCd=2790300202-00&ServiceCd=540&Type=search", "url2": "http://kisyokai.or.jp/" }, "geometry": { "type": "Point", "coordinates": [ 135.615697523383005, 34.774959452746124 ] } },
{ "type": "Feature", "properties": { "内容": "特別養護老人ホーム　ペガサス【地域密着型介護老人福祉施設入所者生活介護】寝屋南二丁目１４番５号", "url": "https://www.kaigokensaku.mhlw.go.jp/27/index.php?action_kouhyou_detail_004_kani=true&JigyosyoCd=2790300186-00&ServiceCd=540&Type=search", "url2": "https://pegasus-seikou.com/" }, "geometry": { "type": "Point", "coordinates": [ 135.6541566, 34.7677327 ] } },
{ "type": "Feature", "properties": { "内容": "生登福祉介護サービスセンター【地域密着型介護老人福祉施設入所者生活介護】大阪府河内長野市原町5丁目6-12", "url": "https://www.kaigokensaku.mhlw.go.jp/27/index.php?action_kouhyou_detail_004_kani=true&JigyosyoCd=2790700278-00&ServiceCd=540&Type=search", "url2": "http://www.teramoto.or.jp/index.htm" }, "geometry": { "type": "Point", "coordinates": [ 135.569289, 34.4576279 ] } },
{ "type": "Feature", "properties": { "内容": "美加の台生登福祉ケアセンター【地域密着型介護老人福祉施設入所者生活介護】大阪府河内長野市石仏300番地", "url": "https://www.kaigokensaku.mhlw.go.jp/27/index.php?action_kouhyou_detail_004_kani=true&JigyosyoCd=2790700112-00&ServiceCd=540&Type=search", "url2": "http://www.teramoto.or.jp" }, "geometry": { "type": "Point", "coordinates": [ 135.575444800000014, 34.4239466 ] } },
{ "type": "Feature", "properties": { "内容": "特別養護老人ホーム　寿里苑フルール【地域密着型介護老人福祉施設入所者生活介護】大阪府河内長野市南青葉台6-15", "url": "https://www.kaigokensaku.mhlw.go.jp/27/index.php?action_kouhyou_detail_004_kani=true&JigyosyoCd=2790700146-00&ServiceCd=540&Type=search", "url2": "http://www.julien.or.jp" }, "geometry": { "type": "Point", "coordinates": [ 135.568998100000044, 34.4167336 ] } },
{ "type": "Feature", "properties": { "内容": "地域密着型介護老人福祉施設　クローバーの丘【地域密着型介護老人福祉施設入所者生活介護】大阪府河内長野市小塩町４３１番地３", "url": "https://www.kaigokensaku.mhlw.go.jp/27/index.php?action_kouhyou_detail_004_kani=true&JigyosyoCd=2790700104-00&ServiceCd=540&Type=search", "url2": "http://www.nagnozaidan.jp" }, "geometry": { "type": "Point", "coordinates": [ 135.563562499999989, 34.4329539 ] } },
{ "type": "Feature", "properties": { "内容": "大阪老人ホームゆずり葉【地域密着型介護老人福祉施設入所者生活介護】大阪府松原市阿保３丁目１５番５号", "url": "https://www.kaigokensaku.mhlw.go.jp/27/index.php?action_kouhyou_detail_004_kani=true&JigyosyoCd=2794800199-00&ServiceCd=540&Type=search", "url2": "http://shoutokukai.net" }, "geometry": { "type": "Point", "coordinates": [ 135.5548284, 34.5793033 ] } },
{ "type": "Feature", "properties": { "内容": "地域密着型特別養護老人ホームきらきら【地域密着型介護老人福祉施設入所者生活介護】大阪府松原市南新町2-4-28", "url": "https://www.kaigokensaku.mhlw.go.jp/27/index.php?action_kouhyou_detail_004_kani=true&JigyosyoCd=2794800074-00&ServiceCd=540&Type=search", "url2": "https://www.matsukaze-hukushikai.or.jp" }, "geometry": { "type": "Point", "coordinates": [ 135.538282400000014, 34.5737019 ] } },
{ "type": "Feature", "properties": { "内容": "特別養護老人ホーム百楽荘寺川館【地域密着型介護老人福祉施設入所者生活介護】大阪府大東市寺川4丁目3番30", "url": "https://www.kaigokensaku.mhlw.go.jp/27/index.php?action_kouhyou_detail_004_kani=true&JigyosyoCd=2791900182-00&ServiceCd=540&Type=search", "url2": "http://fukushi-kotobuki.or.jp" }, "geometry": { "type": "Point", "coordinates": [ 135.644683, 34.7130796 ] } },
{ "type": "Feature", "properties": { "内容": "特別養護老人ホーム百楽荘【地域密着型介護老人福祉施設入所者生活介護】大阪府大東市栄和町９－２０", "url": "https://www.kaigokensaku.mhlw.go.jp/27/index.php?action_kouhyou_detail_004_kani=true&JigyosyoCd=2791900034-00&ServiceCd=540&Type=search", "url2": "http://fukushi-kotobuki.or.jp" }, "geometry": { "type": "Point", "coordinates": [ 135.6253233, 34.7013942 ] } },
{ "type": "Feature", "properties": { "内容": "地域密着型特別養護老人ホーム　サンサリテ大東【地域密着型介護老人福祉施設入所者生活介護】大阪府大東市深野2-6-1サンサリテ大東", "url": "https://www.kaigokensaku.mhlw.go.jp/27/index.php?action_kouhyou_detail_004_kani=true&JigyosyoCd=2791900133-00&ServiceCd=540&Type=search", "url2": "https://www.sincerite-kenwakai.com/" }, "geometry": { "type": "Point", "coordinates": [ 135.628602658691989, 34.717983760091975 ] } },
{ "type": "Feature", "properties": { "内容": "地域密着型　介護老人福祉施設　諸福苑【地域密着型介護老人福祉施設入所者生活介護】大阪府大東市諸福7丁目4番45号", "url": "https://www.kaigokensaku.mhlw.go.jp/27/index.php?action_kouhyou_detail_004_kani=true&JigyosyoCd=2791900091-00&ServiceCd=540&Type=search", "url2": "http://izuminokai.net/" }, "geometry": { "type": "Point", "coordinates": [ 135.592943500000047, 34.7056853 ] } },
{ "type": "Feature", "properties": { "内容": "特別養護老人ホームサテライト諸福苑Ⅱ【地域密着型介護老人福祉施設入所者生活介護】大阪府大東市諸福7丁目４番４５号特別養護老人ホームサテライト諸福苑Ⅱ", "url": "https://www.kaigokensaku.mhlw.go.jp/27/index.php?action_kouhyou_detail_004_kani=true&JigyosyoCd=2791900174-00&ServiceCd=540&Type=search", "url2": "http://izuminokai.net" }, "geometry": { "type": "Point", "coordinates": [ 135.592940799999951, 34.7054686 ] } },
{ "type": "Feature", "properties": { "内容": "地域密着型介護老人福祉施設エクウスプリオル【地域密着型介護老人福祉施設入所者生活介護】大阪府和泉市上町89番地", "url": "https://www.kaigokensaku.mhlw.go.jp/27/index.php?action_kouhyou_detail_004_kani=true&JigyosyoCd=2790500199-00&ServiceCd=540&Type=search", "url2": "http://windhorse.or.jp" }, "geometry": { "type": "Point", "coordinates": [ 135.44862950000001, 34.5098258 ] } },
{ "type": "Feature", "properties": { "内容": "地域密着型介護老人福祉施設ビオラ和泉【地域密着型介護老人福祉施設入所者生活介護】大阪府和泉市和気町３－４－２４", "url": "https://www.kaigokensaku.mhlw.go.jp/27/index.php?action_kouhyou_detail_004_kani=true&JigyosyoCd=2790500066-00&ServiceCd=540&Type=search", "url2": "http://viola-izumi.com/" }, "geometry": { "type": "Point", "coordinates": [ 135.426346100000046, 34.4799109 ] } },
{ "type": "Feature", "properties": { "内容": "ファミーユ地域密着型介護福祉施設【地域密着型介護老人福祉施設入所者生活介護】大阪府和泉市いぶき野五丁目5番1号", "url": "https://www.kaigokensaku.mhlw.go.jp/27/index.php?action_kouhyou_detail_004_kani=true&JigyosyoCd=2790500074-00&ServiceCd=540&Type=search", "url2": "http://izumi-fukushikai.com/famille/" }, "geometry": { "type": "Point", "coordinates": [ 135.4598906, 34.4597219 ] } },
{ "type": "Feature", "properties": { "内容": "地域密着型特別養護老人ホームサニーヴィラ【地域密着型介護老人福祉施設入所者生活介護】大阪府和泉市府中町5丁目4番2号", "url": "https://www.kaigokensaku.mhlw.go.jp/27/index.php?action_kouhyou_detail_004_kani=true&JigyosyoCd=2790500165-00&ServiceCd=540&Type=search", "url2": "http://www.sunnyvilla.or.jp" }, "geometry": { "type": "Point", "coordinates": [ 135.429499342327858, 34.486356267419417 ] } },
{ "type": "Feature", "properties": { "内容": "特別養護老人ホーム友の里【地域密着型介護老人福祉施設入所者生活介護】大阪府和泉市下宮町３５７番地", "url": "https://www.kaigokensaku.mhlw.go.jp/27/index.php?action_kouhyou_detail_004_kani=true&JigyosyoCd=2790500223-00&ServiceCd=540&Type=search", "url2": "https://shimomiya-tomonosato.com" }, "geometry": { "type": "Point", "coordinates": [ 135.488243081094737, 34.427981273127671 ] } },
{ "type": "Feature", "properties": { "内容": "特別養護老人ホームゆずの郷【地域密着型介護老人福祉施設入所者生活介護】大阪府箕面市稲６丁目１４番３６号", "url": "https://www.kaigokensaku.mhlw.go.jp/27/index.php?action_kouhyou_detail_004_kani=true&JigyosyoCd=2791400142-00&ServiceCd=540&Type=search", "url2": "http://www.hijiri.or.jp" }, "geometry": { "type": "Point", "coordinates": [ 135.484773099999984, 34.8193478 ] } },
{ "type": "Feature", "properties": { "内容": "特別養護老人ホーム　太寿【地域密着型介護老人福祉施設入所者生活介護】大阪府柏原市太平寺1丁目4番30号", "url": "https://www.kaigokensaku.mhlw.go.jp/27/index.php?action_kouhyou_detail_004_kani=true&JigyosyoCd=2794600037-00&ServiceCd=540&Type=search", "url2": "http://taijyu.jyukoukai.org" }, "geometry": { "type": "Point", "coordinates": [ 135.628175734918159, 34.585169309625918 ] } },
{ "type": "Feature", "properties": { "内容": "特別養護老人ホームたんぴ野【地域密着型介護老人福祉施設入所者生活介護】大阪府羽曳野市野６６番２", "url": "https://www.kaigokensaku.mhlw.go.jp/27/index.php?action_kouhyou_detail_004_kani=true&JigyosyoCd=2793800083-00&ServiceCd=540&Type=search", "url2": "http://www.sansyoukai.jp" }, "geometry": { "type": "Point", "coordinates": [ 135.569248900000048, 34.561367200000021 ] } },
{ "type": "Feature", "properties": { "内容": "特別養護老人ホームコーリン【地域密着型介護老人福祉施設入所者生活介護】大阪府羽曳野市南古市３－５０", "url": "https://www.kaigokensaku.mhlw.go.jp/27/index.php?action_kouhyou_detail_004_kani=true&JigyosyoCd=2793800059-00&ServiceCd=540&Type=search", "url2": "http://www.kourinkai.info/index.html" }, "geometry": { "type": "Point", "coordinates": [ 135.615731899999986, 34.542801 ] } },
{ "type": "Feature", "properties": { "内容": "地域密着型介護老人福祉施設はすゆめ【地域密着型介護老人福祉施設入所者生活介護】大阪府門真市堂山町２５－１５", "url": "https://www.kaigokensaku.mhlw.go.jp/27/index.php?action_kouhyou_detail_004_kani=true&JigyosyoCd=2792600138-00&ServiceCd=540&Type=search", "url2": "http://www.kadomasou.jp" }, "geometry": { "type": "Point", "coordinates": [ 135.5794875, 34.744396700000017 ] } },
{ "type": "Feature", "properties": { "内容": "地域密着型特別養護老人ホーム四宮三養苑【地域密着型介護老人福祉施設入所者生活介護】大阪府門真市四宮5丁目4番22号", "url": "https://www.kaigokensaku.mhlw.go.jp/27/index.php?action_kouhyou_detail_004_kani=true&JigyosyoCd=2792600088-00&ServiceCd=540&Type=search", "url2": "http://sanyoufukushikai.com/" }, "geometry": { "type": "Point", "coordinates": [ 135.615536381614675, 34.733247691448838 ] } },
{ "type": "Feature", "properties": { "内容": "小規模特養摂津いやし園【地域密着型介護老人福祉施設入所者生活介護】大阪府摂津市鳥飼下一丁目13番15号", "url": "https://www.kaigokensaku.mhlw.go.jp/27/index.php?action_kouhyou_detail_004_kani=true&JigyosyoCd=2793700036-00&ServiceCd=540&Type=search", "url2": "https://iyashien.com" }, "geometry": { "type": "Point", "coordinates": [ 135.587714399999982, 34.7760823 ] } },
{ "type": "Feature", "properties": { "内容": "地域密着型特別養護老人ホーム　松が苑【地域密着型介護老人福祉施設入所者生活介護】大阪府藤井寺市古室1-1-15", "url": "https://www.kaigokensaku.mhlw.go.jp/27/index.php?action_kouhyou_detail_004_kani=true&JigyosyoCd=2793400124-00&ServiceCd=540&Type=search", "url2": null }, "geometry": { "type": "Point", "coordinates": [ 135.609205699999961, 34.5717056 ] } },
{ "type": "Feature", "properties": { "内容": "特別養護老人ホーム　どうみょうじ高殿苑【地域密着型介護老人福祉施設入所者生活介護】大阪府藤井寺市道明寺３－２－２", "url": "https://www.kaigokensaku.mhlw.go.jp/27/index.php?action_kouhyou_detail_004_kani=true&JigyosyoCd=2793400017-00&ServiceCd=540&Type=search", "url2": "https://www.houjukai.jp/domyoji/" }, "geometry": { "type": "Point", "coordinates": [ 135.620468399999936, 34.5662843 ] } },
{ "type": "Feature", "properties": { "内容": "サテライト型特別養護老人ホーム向日葵【地域密着型介護老人福祉施設入所者生活介護】大阪府東大阪市玉串元町2丁目12-20", "url": "https://www.kaigokensaku.mhlw.go.jp/27/index.php?action_kouhyou_detail_004_kani=true&JigyosyoCd=2795000955-00&ServiceCd=540&Type=search", "url2": "http://www.tamami.or.jp" }, "geometry": { "type": "Point", "coordinates": [ 135.617208900000037, 34.6491392 ] } },
{ "type": "Feature", "properties": { "内容": "特別養護老人ホームくつろぎ・友井荘【地域密着型介護老人福祉施設入所者生活介護】大阪府東大阪市友井四丁目8番5号", "url": "https://www.kaigokensaku.mhlw.go.jp/27/index.php?action_kouhyou_detail_004_kani=true&JigyosyoCd=2795000252-00&ServiceCd=540&Type=search", "url2": "http://www.elfkaigo.co.jp/shofukukai/" }, "geometry": { "type": "Point", "coordinates": [ 135.587921213491882, 34.640631423738419 ] } },
{ "type": "Feature", "properties": { "内容": "ながた尚老苑【地域密着型介護老人福祉施設入所者生活介護】大阪府東大阪市長田1丁目2番11号ながた尚老苑", "url": "https://www.kaigokensaku.mhlw.go.jp/27/index.php?action_kouhyou_detail_004_kani=true&JigyosyoCd=2795000864-00&ServiceCd=540&Type=search", "url2": "http://www.tenkikai.jp" }, "geometry": { "type": "Point", "coordinates": [ 135.592474300000049, 34.678308 ] } },
{ "type": "Feature", "properties": { "内容": "地域密着型特別養護老人ホーム　ビオスの丘Ⅱ【地域密着型介護老人福祉施設入所者生活介護】大阪府東大阪市善根寺町１－５－３１", "url": "https://www.kaigokensaku.mhlw.go.jp/27/index.php?action_kouhyou_detail_004_kani=true&JigyosyoCd=2795000609-00&ServiceCd=540&Type=search", "url2": "https://jinpu-kai.com/" }, "geometry": { "type": "Point", "coordinates": [ 135.649932900000067, 34.6989175 ] } },
{ "type": "Feature", "properties": { "内容": "特別養護老人ホーム　なんかみホーム【地域密着型介護老人福祉施設入所者生活介護】大阪府東大阪市南上小阪６番３６号", "url": "https://www.kaigokensaku.mhlw.go.jp/27/index.php?action_kouhyou_detail_004_kani=true&JigyosyoCd=2795000294-00&ServiceCd=540&Type=search", "url2": "https://nankamihome.org" }, "geometry": { "type": "Point", "coordinates": [ 135.593486, 34.6487499 ] } },
{ "type": "Feature", "properties": { "内容": "特別養護老人ホーム　フォレストガーデン【地域密着型介護老人福祉施設入所者生活介護】大阪府東大阪市池之端町5番43号", "url": "https://www.kaigokensaku.mhlw.go.jp/27/index.php?action_kouhyou_detail_004_kani=true&JigyosyoCd=2795000310-00&ServiceCd=540&Type=search", "url2": "http://care-net.biz/27/hakujyukai/" }, "geometry": { "type": "Point", "coordinates": [ 135.648892759993686, 34.695941714794337 ] } },
{ "type": "Feature", "properties": { "内容": "地域密着型特別養護老人ホーム　ぶどうの木【地域密着型介護老人福祉施設入所者生活介護】大阪府泉南市樽井7-23-3", "url": "https://www.kaigokensaku.mhlw.go.jp/27/index.php?action_kouhyou_detail_004_kani=true&JigyosyoCd=2795600085-00&ServiceCd=540&Type=search", "url2": "http://www.budo-no-ki.com" }, "geometry": { "type": "Point", "coordinates": [ 135.264553500000034, 34.3739508 ] } },
{ "type": "Feature", "properties": { "内容": "南野らくらく苑【地域密着型介護老人福祉施設入所者生活介護】大阪府四條畷市大字清瀧７７１－１", "url": "https://www.kaigokensaku.mhlw.go.jp/27/index.php?action_kouhyou_detail_004_kani=true&JigyosyoCd=2795700018-00&ServiceCd=540&Type=search", "url2": "http://www.sanrokukai.com/" }, "geometry": { "type": "Point", "coordinates": [ 135.655797435616705, 34.737832091357873 ] } },
{ "type": "Feature", "properties": { "内容": "雨塚らくらく苑【地域密着型介護老人福祉施設入所者生活介護】大阪府四條畷市大字清瀧５１１－１", "url": "https://www.kaigokensaku.mhlw.go.jp/27/index.php?action_kouhyou_detail_004_kani=true&JigyosyoCd=2795700034-00&ServiceCd=540&Type=search", "url2": "http://www.sanrokukai.com/" }, "geometry": { "type": "Point", "coordinates": [ 135.649140399999965, 34.7385601 ] } },
{ "type": "Feature", "properties": { "内容": "地域密着型特別養護老人ホーム　つかさ交野【地域密着型介護老人福祉施設入所者生活介護】大阪府交野市星田北7丁目7-13", "url": "https://www.kaigokensaku.mhlw.go.jp/27/index.php?action_kouhyou_detail_004_kani=true&JigyosyoCd=2793600145-00&ServiceCd=540&Type=search", "url2": "https://kouei-kai.com/tsukasa-care-home/" }, "geometry": { "type": "Point", "coordinates": [ 135.662070699999987, 34.7670068 ] } },
{ "type": "Feature", "properties": { "内容": "特別養護老人ホームかたの美来【地域密着型介護老人福祉施設入所者生活介護】大阪府交野市東倉治5-8-8", "url": "https://www.kaigokensaku.mhlw.go.jp/27/index.php?action_kouhyou_detail_004_kani=true&JigyosyoCd=2793600103-00&ServiceCd=540&Type=search", "url2": "http://www.misugikai.jp" }, "geometry": { "type": "Point", "coordinates": [ 135.7043893, 34.796601399999986 ] } },
{ "type": "Feature", "properties": { "内容": "地域密着型介護老人福祉施設　サール・ナートかたの【地域密着型介護老人福祉施設入所者生活介護】大阪府交野市私部南１丁目４９０番", "url": "https://www.kaigokensaku.mhlw.go.jp/27/index.php?action_kouhyou_detail_004_kani=true&JigyosyoCd=2793600061-00&ServiceCd=540&Type=search", "url2": "http://valsta.jp/sarnath/snkatano.html" }, "geometry": { "type": "Point", "coordinates": [ 135.680302166548159, 34.782064247535743 ] } },
{ "type": "Feature", "properties": { "内容": "地域密着型特別養護老人ホーム　ファヴォーレ狭山【地域密着型介護老人福祉施設入所者生活介護】大阪府大阪狭山市大野西566-1", "url": "https://www.kaigokensaku.mhlw.go.jp/27/index.php?action_kouhyou_detail_004_kani=true&JigyosyoCd=2799300153-00&ServiceCd=540&Type=search", "url2": "http://kyoyukai.org" }, "geometry": { "type": "Point", "coordinates": [ 135.541802299999972, 34.471166 ] } },
{ "type": "Feature", "properties": { "内容": "特別養護老人ホーム寿里苑花舞の郷【地域密着型介護老人福祉施設入所者生活介護】大阪狭山市東池尻4-1336-1", "url": "https://www.kaigokensaku.mhlw.go.jp/27/index.php?action_kouhyou_detail_004_kani=true&JigyosyoCd=2799300054-00&ServiceCd=540&Type=search", "url2": "https://www.julien.or.jp/hanamainosato/" }, "geometry": { "type": "Point", "coordinates": [ 135.5550925, 34.5140556 ] } },
{ "type": "Feature", "properties": { "内容": "特別養護老人ホーム　ふれ愛四季の郷【地域密着型介護老人福祉施設入所者生活介護】大阪府阪南市尾崎町５０４番１", "url": "https://www.kaigokensaku.mhlw.go.jp/27/index.php?action_kouhyou_detail_004_kani=true&JigyosyoCd=2799500059-00&ServiceCd=540&Type=search", "url2": "http://www.shikinosato-fureai.net" }, "geometry": { "type": "Point", "coordinates": [ 135.249885400000039, 34.361051899999985 ] } },
{ "type": "Feature", "properties": { "内容": "特別養護老人ホーム第2ふれ愛四季の郷【地域密着型介護老人福祉施設入所者生活介護】大阪府阪南市下出373番地", "url": "https://www.kaigokensaku.mhlw.go.jp/27/index.php?action_kouhyou_detail_004_kani=true&JigyosyoCd=2799500117-00&ServiceCd=540&Type=search", "url2": "http://www.shikinosato-fureai.net/" }, "geometry": { "type": "Point", "coordinates": [ 135.2442026, 34.359716 ] } },
{ "type": "Feature", "properties": { "内容": "地域密着型特別養護老人ホーム島本の郷【地域密着型介護老人福祉施設入所者生活介護】大阪府三島郡島本町若山台1-3-8", "url": "https://www.kaigokensaku.mhlw.go.jp/27/index.php?action_kouhyou_detail_004_kani=true&JigyosyoCd=2793900065-00&ServiceCd=540&Type=search", "url2": "http://www.hironokai.com" }, "geometry": { "type": "Point", "coordinates": [ 135.659235, 34.8884917 ] } },
{ "type": "Feature", "properties": { "内容": "特別養護老人ホーム祥雲館【地域密着型介護老人福祉施設入所者生活介護】大阪府豊能郡豊能町吉川187番地の１", "url": "https://www.kaigokensaku.mhlw.go.jp/27/index.php?action_kouhyou_detail_004_kani=true&JigyosyoCd=2794700043-00&ServiceCd=540&Type=search", "url2": "http://syownkan.jp" }, "geometry": { "type": "Point", "coordinates": [ 135.447591500000044, 34.9118783 ] } },
{ "type": "Feature", "properties": { "内容": "特別養護老人ホーム祥雲館本館【地域密着型介護老人福祉施設入所者生活介護】大阪府豊能郡豊能町吉川187番地の1", "url": "https://www.kaigokensaku.mhlw.go.jp/27/index.php?action_kouhyou_detail_004_kani=true&JigyosyoCd=2794700027-00&ServiceCd=540&Type=search", "url2": "http://syownkan.jp" }, "geometry": { "type": "Point", "coordinates": [ 135.447591500000044, 34.9118783 ] } },
{ "type": "Feature", "properties": { "内容": "特別養護老人ホーム第２永楽荘【地域密着型介護老人福祉施設入所者生活介護】大阪府泉南郡熊取町野田３丁目2070番１", "url": "https://www.kaigokensaku.mhlw.go.jp/27/index.php?action_kouhyou_detail_004_kani=true&JigyosyoCd=2791200062-00&ServiceCd=540&Type=search", "url2": "http://www.eiraku-fukushi.com" }, "geometry": { "type": "Point", "coordinates": [ 135.356208997097838, 34.403980300192416 ] } },
{ "type": "Feature", "properties": { "内容": "社会福祉法人朱音会　地域密着型特別養護老人ホーム　ふくの音【地域密着型介護老人福祉施設入所者生活介護】大阪府南河内郡太子町大字山田3361番地", "url": "https://www.kaigokensaku.mhlw.go.jp/27/index.php?action_kouhyou_detail_004_kani=true&JigyosyoCd=2793500030-00&ServiceCd=540&Type=search", "url2": "http://www.fukunone.net/" }, "geometry": { "type": "Point", "coordinates": [ 135.650369299999966, 34.521734 ] } },
{ "type": "Feature", "properties": { "内容": "地域密着型介護老人福祉施設　ゆうり【地域密着型介護老人福祉施設入所者生活介護】大阪府南河内郡河南町大字神山２５９番１", "url": "https://www.kaigokensaku.mhlw.go.jp/27/index.php?action_kouhyou_detail_004_kani=true&JigyosyoCd=2793500014-00&ServiceCd=540&Type=search", "url2": "http://www.jyunshin.or.jp/anri/" }, "geometry": { "type": "Point", "coordinates": [ 135.621125500000062, 34.4798298 ] } }
]
}
